{
  "type": "FeatureCollection",
  "title": "Idistaviso",
  "id": "101201",
  "description": "Now unlocated, Idistaviso was an ancient place on the Weser River. It was the location of a battle in 16 CE between Roman forces commanded by Tiberius and Germanicus and an alliance of Germanic forces commanded by Ariminus.",
  "connectsWith": [
    "99060"
  ],
  "names": [
    "Idistaviso"
  ],
  "features": [
    {
      "type": "Feature",
      "geometry": null,
      "properties": {
        "description": "representative point"
      }
    },
    {
      "geometry": null,
      "id": "undetermined",
      "type": "Feature",
      "properties": {
        "description": null,
        "location_precision": "unlocated",
        "title": "Undetermined location",
        "link": "http://pleiades.stoa.org/places/101201/undetermined"
      }
    }
  ]
}