{
  "type": "FeatureCollection",
  "title": "Tomba del Sileno",
  "id": "104349764",
  "bbox": [
    11.6512102,
    42.6587758,
    11.6512102,
    42.6587758
  ],
  "description": "The Tomba del Sileno is an Etruscan tomb at the Sovana Archaeological Park in the province of Grosseto. Dating from the third century BCE, the tomb derives its name from a bas-relief resembling the head of a Silen.",
  "connectsWith": [
    "413323"
  ],
  "names": [
    "Tomb of the Silen"
  ],
  "features": [
    {
      "type": "Feature",
      "geometry": {
        "type": "Point",
        "coordinates": [
          11.6512102,
          42.6587758
        ]
      },
      "properties": {
        "description": "representative point"
      }
    },
    {
      "geometry": {
        "type": "Point",
        "coordinates": [
          11.6512102,
          42.6587758
        ]
      },
      "id": "osm-location-of-necropoli-del-sileno",
      "type": "Feature",
      "properties": {
        "description": "Representative location based on OpenStreetMap",
        "location_precision": "precise",
        "title": "OSM location of Necropoli del Sileno",
        "link": "http://pleiades.stoa.org/places/104349764/osm-location-of-necropoli-del-sileno"
      }
    }
  ]
}