{
  "type": "FeatureCollection",
  "title": "Rollright Stones",
  "id": "104590908",
  "bbox": [
    -1.5710344,
    51.9752632,
    -1.5655811,
    51.9762533
  ],
  "description": "A complex of three Neolithic and Bronze Age megalithic monuments dating from the fourth to second millennia B.C. located on the borders of Oxfordshire and Warwickshire in the English Midlands.",
  "names": [
    "Rollright Stones"
  ],
  "features": [
    {
      "type": "Feature",
      "geometry": {
        "type": "Point",
        "coordinates": [
          -1.56884900615,
          51.9756826322
        ]
      },
      "properties": {
        "description": "representative point"
      }
    },
    {
      "geometry": {
        "type": "LineString",
        "coordinates": [
          [
            -1.5709731,
            51.9756303
          ],
          [
            -1.571014,
            51.9755939
          ],
          [
            -1.5710344,
            51.9755535
          ],
          [
            -1.5710342,
            51.9755089
          ],
          [
            -1.5710183,
            51.9754752
          ],
          [
            -1.5709829,
            51.9754398
          ],
          [
            -1.5709117,
            51.9754047
          ],
          [
            -1.570864,
            51.9753934
          ],
          [
            -1.5707844,
            51.9753893
          ],
          [
            -1.5707219,
            51.9753982
          ],
          [
            -1.5706684,
            51.9754162
          ],
          [
            -1.5706517,
            51.9754386
          ],
          [
            -1.5706321,
            51.9754364
          ],
          [
            -1.5706,
            51.9754649
          ],
          [
            -1.5705776,
            51.975504
          ],
          [
            -1.5705735,
            51.9755396
          ],
          [
            -1.5705866,
            51.9755796
          ],
          [
            -1.5706082,
            51.9756071
          ],
          [
            -1.5706517,
            51.9756388
          ],
          [
            -1.5707024,
            51.9756597
          ],
          [
            -1.5707553,
            51.9756712
          ],
          [
            -1.5708236,
            51.9756741
          ],
          [
            -1.5708915,
            51.9756643
          ],
          [
            -1.570934,
            51.9756505
          ],
          [
            -1.5709427,
            51.975646
          ],
          [
            -1.5709731,
            51.9756303
          ]
        ]
      },
      "id": "osm-location-of-the-kings-men",
      "type": "Feature",
      "properties": {
        "description": "Representative location based on OpenStreetMap.",
        "location_precision": "precise",
        "title": "OSM location of the King's Men",
        "link": "http://pleiades.stoa.org/places/104590908/osm-location-of-the-kings-men"
      }
    },
    {
      "geometry": {
        "type": "Point",
        "coordinates": [
          -1.5701616,
          51.9762533
        ]
      },
      "id": "osm-location-of-king-stone",
      "type": "Feature",
      "properties": {
        "description": "Representative location based on OpenStreetMap.",
        "location_precision": "precise",
        "title": "OSM location of King Stone",
        "link": "http://pleiades.stoa.org/places/104590908/osm-location-of-king-stone"
      }
    },
    {
      "geometry": {
        "type": "Point",
        "coordinates": [
          -1.5655811,
          51.9752632
        ]
      },
      "id": "osm-location-of-the-whispering-knights",
      "type": "Feature",
      "properties": {
        "description": "Representative location based on OpenStreetMap.",
        "location_precision": "precise",
        "title": "OSM location of the Whispering Knights",
        "link": "http://pleiades.stoa.org/places/104590908/osm-location-of-the-whispering-knights"
      }
    }
  ]
}