{
  "type": "FeatureCollection",
  "title": "Small Theater (Antipatris)",
  "id": "107080283",
  "bbox": [
    34.931445,
    32.102801,
    34.931445,
    32.102801
  ],
  "description": "A small theater of the Roman era, located on the site of Antipatris. It may never have been completed, or it was heavily spoliated prior to its ultimate destruction in an earthquake in 363 CE. The original excavator tentatively suggested identifying it as an odeon, but for various archaeological and stylistic reasons, this view has not been widely accepted.",
  "connectsWith": [
    "687996"
  ],
  "features": [
    {
      "type": "Feature",
      "geometry": {
        "type": "Point",
        "coordinates": [
          34.931445,
          32.102801
        ]
      },
      "properties": {
        "description": "representative point"
      }
    },
    {
      "geometry": {
        "type": "Point",
        "coordinates": [
          34.931445,
          32.102801
        ]
      },
      "id": "imagery-location-antipatris-odeon",
      "type": "Feature",
      "properties": {
        "description": null,
        "location_precision": "precise",
        "title": "Imagery Location: Antipatris Odeon",
        "link": "http://pleiades.stoa.org/places/107080283/imagery-location-antipatris-odeon"
      }
    }
  ]
}