{
  "type": "FeatureCollection",
  "title": "Col. Ulpia Traiana/Tricensimae",
  "id": "108896",
  "bbox": [
    6.4345897,
    51.6621868,
    6.4528543,
    51.6711196
  ],
  "description": "An ancient place, cited: BAtlas 11 G1 Col. Ulpia Traiana/Tricensimae",
  "connectsWith": [
    "981524"
  ],
  "names": [
    "Col. Ulpia Traiana",
    "Tricensimae",
    "Xanten",
    "Colonia Ulpia Traiana",
    "Colo Traiana"
  ],
  "features": [
    {
      "type": "Feature",
      "geometry": {
        "type": "Point",
        "coordinates": [
          6.44371598399,
          51.6664606397
        ]
      },
      "properties": {
        "description": "representative point"
      }
    },
    {
      "geometry": {
        "type": "LineString",
        "coordinates": [
          [
            6.4375039,
            51.6694511
          ],
          [
            6.4375037,
            51.6695154
          ],
          [
            6.4374815,
            51.6695485
          ],
          [
            6.4370468,
            51.6697621
          ],
          [
            6.4370401,
            51.6697924
          ],
          [
            6.4373545,
            51.6700388
          ],
          [
            6.4375168,
            51.670094
          ],
          [
            6.4376956,
            51.6701418
          ],
          [
            6.4378799,
            51.6702188
          ],
          [
            6.4386131,
            51.6698749
          ],
          [
            6.439373,
            51.6703396
          ],
          [
            6.4393556,
            51.6703511
          ],
          [
            6.4394186,
            51.6703915
          ],
          [
            6.4394386,
            51.6703802
          ],
          [
            6.4406109,
            51.6710926
          ],
          [
            6.4406066,
            51.6711061
          ],
          [
            6.4406882,
            51.6711196
          ],
          [
            6.4406938,
            51.6711066
          ],
          [
            6.4426136,
            51.6708099
          ],
          [
            6.4443876,
            51.6703447
          ],
          [
            6.44441,
            51.67036
          ],
          [
            6.4445085,
            51.6703323
          ],
          [
            6.444491,
            51.6703175
          ],
          [
            6.4461762,
            51.669884
          ],
          [
            6.4461939,
            51.6698979
          ],
          [
            6.4462854,
            51.669858
          ],
          [
            6.446269,
            51.6698443
          ],
          [
            6.4479819,
            51.6692238
          ],
          [
            6.4480167,
            51.6692108
          ],
          [
            6.448048,
            51.6691997
          ],
          [
            6.4480842,
            51.6691868
          ],
          [
            6.4480996,
            51.669202
          ],
          [
            6.4481872,
            51.6691695
          ],
          [
            6.4481692,
            51.6691481
          ],
          [
            6.4482845,
            51.6691142
          ],
          [
            6.4497434,
            51.6685955
          ],
          [
            6.4497558,
            51.6686076
          ],
          [
            6.4498339,
            51.6685791
          ],
          [
            6.4498223,
            51.6685665
          ],
          [
            6.4514081,
            51.6679939
          ],
          [
            6.4514183,
            51.6680046
          ],
          [
            6.4514931,
            51.667978
          ],
          [
            6.4514895,
            51.667973
          ],
          [
            6.4527618,
            51.6675147
          ],
          [
            6.4528005,
            51.667489
          ],
          [
            6.4528247,
            51.6674613
          ],
          [
            6.4528392,
            51.667463
          ],
          [
            6.4528543,
            51.6673999
          ],
          [
            6.452844,
            51.6673995
          ],
          [
            6.4528373,
            51.6673749
          ],
          [
            6.4528229,
            51.6673478
          ],
          [
            6.4528056,
            51.6673289
          ],
          [
            6.4516177,
            51.6665036
          ],
          [
            6.4516267,
            51.6664985
          ],
          [
            6.4516286,
            51.6664839
          ],
          [
            6.4515843,
            51.6664518
          ],
          [
            6.4511311,
            51.6661338
          ],
          [
            6.4508199,
            51.6659164
          ],
          [
            6.450287,
            51.6655448
          ],
          [
            6.4501756,
            51.6654731
          ],
          [
            6.4497756,
            51.6657851
          ],
          [
            6.4494714,
            51.6656175
          ],
          [
            6.4495253,
            51.6655758
          ],
          [
            6.4492951,
            51.665452
          ],
          [
            6.4493401,
            51.6654173
          ],
          [
            6.4491434,
            51.6653128
          ],
          [
            6.4491154,
            51.6653323
          ],
          [
            6.4485643,
            51.6650119
          ],
          [
            6.4485929,
            51.6649893
          ],
          [
            6.4485744,
            51.6649794
          ],
          [
            6.448194,
            51.6647804
          ],
          [
            6.447917,
            51.6649677
          ],
          [
            6.4477734,
            51.6648871
          ],
          [
            6.4474644,
            51.6651045
          ],
          [
            6.4464544,
            51.6645637
          ],
          [
            6.4450215,
            51.6655269
          ],
          [
            6.4446104,
            51.6658027
          ],
          [
            6.445011,
            51.6660323
          ],
          [
            6.4459342,
            51.6665622
          ],
          [
            6.4453763,
            51.6668935
          ],
          [
            6.4452177,
            51.666787
          ],
          [
            6.4448364,
            51.6665612
          ],
          [
            6.444792,
            51.6665645
          ],
          [
            6.4441346,
            51.6661681
          ],
          [
            6.4440843,
            51.6661681
          ],
          [
            6.44378,
            51.6663795
          ],
          [
            6.4438191,
            51.6664027
          ],
          [
            6.4437587,
            51.6664382
          ],
          [
            6.4436938,
            51.6663946
          ],
          [
            6.4436572,
            51.6663701
          ],
          [
            6.4435481,
            51.6664432
          ],
          [
            6.4434222,
            51.6663673
          ],
          [
            6.4434421,
            51.6663516
          ],
          [
            6.4435119,
            51.6663059
          ],
          [
            6.442885,
            51.6659685
          ],
          [
            6.4430571,
            51.6658563
          ],
          [
            6.4426827,
            51.6656434
          ],
          [
            6.442774,
            51.665585
          ],
          [
            6.4427564,
            51.6655712
          ],
          [
            6.4429709,
            51.6654227
          ],
          [
            6.4427767,
            51.6653121
          ],
          [
            6.4432847,
            51.6649557
          ],
          [
            6.443675,
            51.6651733
          ],
          [
            6.442947,
            51.6656821
          ],
          [
            6.4436953,
            51.6661055
          ],
          [
            6.4437488,
            51.6661213
          ],
          [
            6.4438027,
            51.6661171
          ],
          [
            6.4444527,
            51.6656917
          ],
          [
            6.4456924,
            51.6648824
          ],
          [
            6.4449302,
            51.6644634
          ],
          [
            6.4451737,
            51.6642953
          ],
          [
            6.4459404,
            51.6647162
          ],
          [
            6.4465416,
            51.6643196
          ],
          [
            6.4458336,
            51.6638699
          ],
          [
            6.4463018,
            51.6636039
          ],
          [
            6.4443848,
            51.6624842
          ],
          [
            6.4442753,
            51.6625623
          ],
          [
            6.4440225,
            51.6624158
          ],
          [
            6.4437435,
            51.6626227
          ],
          [
            6.4435642,
            51.6627554
          ],
          [
            6.4432469,
            51.6625621
          ],
          [
            6.4429877,
            51.6624055
          ],
          [
            6.4429431,
            51.6623295
          ],
          [
            6.4426221,
            51.6624846
          ],
          [
            6.4422454,
            51.6622291
          ],
          [
            6.4421822,
            51.6621868
          ],
          [
            6.4419237,
            51.6623767
          ],
          [
            6.4417186,
            51.6625116
          ],
          [
            6.4416435,
            51.6625441
          ],
          [
            6.4412757,
            51.6628114
          ],
          [
            6.4410883,
            51.6629378
          ],
          [
            6.4413161,
            51.6628787
          ],
          [
            6.4414864,
            51.6628587
          ],
          [
            6.4415256,
            51.6629332
          ],
          [
            6.4416347,
            51.6630288
          ],
          [
            6.4417793,
            51.663123
          ],
          [
            6.4414557,
            51.6633208
          ],
          [
            6.4409535,
            51.6630084
          ],
          [
            6.4408877,
            51.6629888
          ],
          [
            6.4408522,
            51.6630161
          ],
          [
            6.440759,
            51.6630835
          ],
          [
            6.4402379,
            51.6634703
          ],
          [
            6.4400068,
            51.6636244
          ],
          [
            6.4396868,
            51.6638634
          ],
          [
            6.4398681,
            51.6639733
          ],
          [
            6.4398152,
            51.6640028
          ],
          [
            6.4397996,
            51.6640183
          ],
          [
            6.4397983,
            51.6640379
          ],
          [
            6.440046,
            51.664193
          ],
          [
            6.4389531,
            51.6649957
          ],
          [
            6.4387651,
            51.6651338
          ],
          [
            6.4385887,
            51.6650403
          ],
          [
            6.4384474,
            51.6649648
          ],
          [
            6.4382936,
            51.6648826
          ],
          [
            6.437741,
            51.6652866
          ],
          [
            6.4371592,
            51.665709
          ],
          [
            6.4365677,
            51.6661171
          ],
          [
            6.4361308,
            51.6664248
          ],
          [
            6.4354963,
            51.6668409
          ],
          [
            6.4351779,
            51.6670346
          ],
          [
            6.4345897,
            51.6673954
          ],
          [
            6.4348349,
            51.6675858
          ],
          [
            6.4355852,
            51.6681272
          ],
          [
            6.4357346,
            51.668254
          ],
          [
            6.4360273,
            51.6684705
          ],
          [
            6.4364294,
            51.6687362
          ],
          [
            6.436848,
            51.6689752
          ],
          [
            6.4374263,
            51.6693392
          ],
          [
            6.4375039,
            51.6694511
          ]
        ]
      },
      "id": "osm-location-of-lvr-archa-ologischer-park-xanten",
      "type": "Feature",
      "properties": {
        "description": "Representative location based on OpenStreetMap",
        "location_precision": "precise",
        "title": "OSM location of LVR-Archäologischer Park Xanten",
        "link": "http://pleiades.stoa.org/places/108896/osm-location-of-lvr-archa-ologischer-park-xanten"
      }
    }
  ]
}