{
  "type": "FeatureCollection",
  "title": "Estrées-sur-Noye",
  "id": "108969",
  "bbox": [
    2.332138,
    49.777356,
    2.340138,
    49.785783
  ],
  "description": "An ancient place, cited: BAtlas 11 C3 Estrées-sur-Noye",
  "features": [
    {
      "type": "Feature",
      "geometry": {
        "type": "Point",
        "coordinates": [
          2.336138,
          49.7815695
        ]
      },
      "properties": {
        "description": "representative point"
      }
    },
    {
      "geometry": {
        "type": "Point",
        "coordinates": [
          2.332138,
          49.785783
        ]
      },
      "id": "darmc-location-27414",
      "type": "Feature",
      "properties": {
        "description": "1:1 million scale representative point location digitized from the Barrington Atlas of the Greek and Roman World by the Digital Atlas of Roman and Medieval Civilizations project at Harvard University.",
        "location_precision": "precise",
        "title": "DARMC location 27414",
        "link": "http://pleiades.stoa.org/places/108969/darmc-location-27414"
      }
    },
    {
      "geometry": {
        "type": "Point",
        "coordinates": [
          2.340138,
          49.777356
        ]
      },
      "id": "dare-location",
      "type": "Feature",
      "properties": {
        "description": "Representative point location, village precision",
        "location_precision": "precise",
        "title": "DARE Location",
        "link": "http://pleiades.stoa.org/places/108969/dare-location"
      }
    }
  ]
}