{
  "type": "FeatureCollection",
  "title": "Morains",
  "id": "109175",
  "bbox": [
    3.992494,
    48.812371,
    3.992494,
    48.812371
  ],
  "description": "An ancient place, cited: BAtlas 11 D4 Morains",
  "features": [
    {
      "type": "Feature",
      "geometry": {
        "type": "Point",
        "coordinates": [
          3.992494,
          48.812371
        ]
      },
      "properties": {
        "description": "representative point"
      }
    },
    {
      "geometry": {
        "type": "Point",
        "coordinates": [
          3.992494,
          48.812371
        ]
      },
      "id": "darmc-location-13798",
      "type": "Feature",
      "properties": {
        "description": "1:1 million scale representative point location digitized from the Barrington Atlas of the Greek and Roman World by the Digital Atlas of Roman and Medieval Civilizations project at Harvard University.",
        "location_precision": "precise",
        "title": "DARMC location 13798",
        "link": "http://pleiades.stoa.org/places/109175/darmc-location-13798"
      }
    }
  ]
}