{
  "type": "FeatureCollection",
  "title": "Rura (river)",
  "id": "109293",
  "bbox": [
    5.9805679,
    51.1934296,
    5.9836859,
    51.1982848
  ],
  "description": "An ancient place, cited: BAtlas 11 G1 Rura fl.",
  "names": [
    "Rura"
  ],
  "features": [
    {
      "type": "Feature",
      "geometry": {
        "type": "Point",
        "coordinates": [
          5.98230923446,
          51.195696031
        ]
      },
      "properties": {
        "description": "representative point"
      }
    },
    {
      "geometry": {
        "type": "LineString",
        "coordinates": [
          [
            5.9816004,
            51.1934296
          ],
          [
            5.9819833,
            51.1937588
          ],
          [
            5.9821722,
            51.1938768
          ],
          [
            5.9823839,
            51.1939651
          ],
          [
            5.983305,
            51.1944092
          ],
          [
            5.9835067,
            51.1945535
          ],
          [
            5.9835918,
            51.1947178
          ],
          [
            5.9836635,
            51.1949593
          ],
          [
            5.9836859,
            51.1952203
          ],
          [
            5.9836456,
            51.1954547
          ],
          [
            5.9835694,
            51.1956288
          ],
          [
            5.983328,
            51.1958265
          ],
          [
            5.9825401,
            51.1960657
          ],
          [
            5.9818286,
            51.1964138
          ],
          [
            5.9817446,
            51.1964548
          ],
          [
            5.9811856,
            51.1968968
          ],
          [
            5.9810948,
            51.197523
          ],
          [
            5.9805679,
            51.1982848
          ]
        ]
      },
      "id": "location-of-Rura-fl",
      "type": "Feature",
      "properties": {
        "description": "Location based on OpenStreetMap",
        "location_precision": "precise",
        "title": "location of Rura fl.",
        "link": "http://pleiades.stoa.org/places/109293/location-of-Rura-fl"
      }
    }
  ]
}