{
  "type": "FeatureCollection",
  "title": "Senones",
  "id": "109337",
  "bbox": [
    2.34292314027,
    48.443611099,
    2.84533653487,
    48.4517247955
  ],
  "description": "The Senones were an ancient Gallic tribe of the Seine River basin.",
  "names": [
    "Senones"
  ],
  "features": [
    {
      "type": "Feature",
      "geometry": {
        "type": "Point",
        "coordinates": [
          2.59412983757,
          48.4476679473
        ]
      },
      "properties": {
        "description": "representative point"
      }
    },
    {
      "geometry": {
        "type": "LineString",
        "coordinates": [
          [
            2.342923140272334,
            48.4436110989964
          ],
          [
            2.845336534868871,
            48.45172479554623
          ]
        ]
      },
      "id": "batlas-label-location",
      "type": "Feature",
      "properties": {
        "description": "Label centerline digitized using QGIS from Barrington Atlas map 11 as georegistered by the Ancient World Mapping Center in 2006. Dates after BAtlDir.",
        "location_precision": "precise",
        "title": "BAtlas Label Location",
        "link": "http://pleiades.stoa.org/places/109337/batlas-label-location"
      }
    }
  ]
}