{
  "type": "FeatureCollection",
  "title": "Warfusée-Abancourt",
  "id": "109453",
  "bbox": [
    2.578176,
    49.866707,
    2.583392,
    49.867237
  ],
  "description": "An ancient place, cited: BAtlas 11 C3 Warfusée-Abancourt",
  "features": [
    {
      "type": "Feature",
      "geometry": {
        "type": "Point",
        "coordinates": [
          2.580784,
          49.866972
        ]
      },
      "properties": {
        "description": "representative point"
      }
    },
    {
      "geometry": {
        "type": "Point",
        "coordinates": [
          2.583392,
          49.866707
        ]
      },
      "id": "darmc-location-27669",
      "type": "Feature",
      "properties": {
        "description": "1:1 million scale representative point location digitized from the Barrington Atlas of the Greek and Roman World by the Digital Atlas of Roman and Medieval Civilizations project at Harvard University.",
        "location_precision": "precise",
        "title": "DARMC location 27669",
        "link": "http://pleiades.stoa.org/places/109453/darmc-location-27669"
      }
    },
    {
      "geometry": {
        "type": "Point",
        "coordinates": [
          2.578176,
          49.867237
        ]
      },
      "id": "dare-location",
      "type": "Feature",
      "properties": {
        "description": "Representative point location, village precision",
        "location_precision": "precise",
        "title": "DARE Location",
        "link": "http://pleiades.stoa.org/places/109453/dare-location"
      }
    }
  ]
}