{
  "type": "FeatureCollection",
  "title": "Ad Fines",
  "id": "114762",
  "bbox": [
    -1.6415472,
    48.3290212,
    -1.6415472,
    48.3290212
  ],
  "description": "An ancient place, cited: BAtlas 11 unlocated Ad Fines",
  "connectsWith": [
    "109190",
    "109396",
    "114765"
  ],
  "names": [
    "Ad Fines"
  ],
  "features": [
    {
      "type": "Feature",
      "geometry": {
        "type": "Point",
        "coordinates": [
          -1.6415472,
          48.3290212
        ]
      },
      "properties": {
        "description": "representative point"
      }
    },
    {
      "geometry": {
        "type": "Point",
        "coordinates": [
          -1.6415472,
          48.3290212
        ]
      },
      "id": "osm-location-of-feins",
      "type": "Feature",
      "properties": {
        "description": "Location based on OpenStreetMap",
        "location_precision": "precise",
        "title": "OSM location of Feins",
        "link": "http://pleiades.stoa.org/places/114762/osm-location-of-feins"
      }
    }
  ]
}