{
  "type": "FeatureCollection",
  "title": "Sedlec",
  "id": "118960",
  "bbox": [
    14.286546,
    49.072597,
    14.286546,
    49.072597
  ],
  "description": "An ancient place, cited: BAtlas 12 H3 Sedlec",
  "features": [
    {
      "type": "Feature",
      "geometry": {
        "type": "Point",
        "coordinates": [
          14.286546,
          49.072597
        ]
      },
      "properties": {
        "description": "representative point"
      }
    },
    {
      "geometry": {
        "type": "Point",
        "coordinates": [
          14.286546,
          49.072597
        ]
      },
      "id": "darmc-location-14650",
      "type": "Feature",
      "properties": {
        "description": "1:1 million scale representative point location digitized from the Barrington Atlas of the Greek and Roman World by the Digital Atlas of Roman and Medieval Civilizations project at Harvard University.",
        "location_precision": "precise",
        "title": "DARMC location 14650",
        "link": "http://pleiades.stoa.org/places/118960/darmc-location-14650"
      }
    }
  ]
}