{
  "type": "FeatureCollection",
  "title": "Semnones",
  "id": "118962",
  "bbox": [
    10.9948321422,
    51.1030135626,
    13.2202428767,
    53.1037020511
  ],
  "description": "The Semnones were a tribe of the Germanic Suebi whose territory lay between the Albis and Viadua rivers.",
  "connectsWith": [
    "99040"
  ],
  "names": [
    "Semnones",
    "Semnones"
  ],
  "features": [
    {
      "type": "Feature",
      "geometry": {
        "type": "Point",
        "coordinates": [
          12.1273088999,
          52.0983411778
        ]
      },
      "properties": {
        "description": "representative point"
      }
    },
    {
      "geometry": {
        "type": "Polygon",
        "coordinates": [
          [
            [
              11.0,
              51.0
            ],
            [
              11.0,
              52.0
            ],
            [
              12.0,
              52.0
            ],
            [
              12.0,
              51.0
            ],
            [
              11.0,
              51.0
            ]
          ]
        ]
      },
      "id": "batlas-location",
      "type": "Feature",
      "properties": {
        "description": null,
        "location_precision": "rough",
        "title": "Barrington Atlas location",
        "link": "http://pleiades.stoa.org/places/118962/batlas-location"
      }
    }
  ]
}