{
  "type": "FeatureCollection",
  "title": "Rapis",
  "id": "118926",
  "bbox": [
    10.755043,
    48.185612,
    10.755043,
    48.185612
  ],
  "description": "Attested on the Peutinger Map, ancient Rapis lay on a route from Augusta Vindelicum (modern Augsburg, Germany) to Navoa and thence to Cambodunum (modern Kempten). BAtlas follows Römer Bayern in tentatively placing Rapis at modern Schwabmünchen.",
  "names": [
    "Rapis",
    "Schwabmünchen"
  ],
  "features": [
    {
      "type": "Feature",
      "geometry": {
        "type": "Point",
        "coordinates": [
          10.755043,
          48.185612
        ]
      },
      "properties": {
        "description": "representative point"
      }
    },
    {
      "geometry": {
        "type": "Point",
        "coordinates": [
          10.755043,
          48.185612
        ]
      },
      "id": "darmc-location-14473",
      "type": "Feature",
      "properties": {
        "description": "1:1 million scale representative point location digitized from the Barrington Atlas of the Greek and Roman World by the Digital Atlas of Roman and Medieval Civilizations project at Harvard University.",
        "location_precision": "precise",
        "title": "DARMC location 14473",
        "link": "http://pleiades.stoa.org/places/118926/darmc-location-14473"
      }
    }
  ]
}