{
  "type": "FeatureCollection",
  "title": "Tofet",
  "id": "126134430",
  "bbox": [
    8.4514782,
    39.070612,
    8.4514782,
    39.070612
  ],
  "description": "The Punic tofet at Sulcis.",
  "connectsWith": [
    "472024"
  ],
  "features": [
    {
      "type": "Feature",
      "geometry": {
        "type": "Point",
        "coordinates": [
          8.4514782,
          39.070612
        ]
      },
      "properties": {
        "description": "representative point"
      }
    },
    {
      "geometry": {
        "type": "LineString",
        "coordinates": [
          [
            8.4517837,
            39.0723749
          ],
          [
            8.4513223,
            39.07225
          ],
          [
            8.451274,
            39.0721209
          ],
          [
            8.4509039,
            39.0716586
          ],
          [
            8.451274,
            39.0706216
          ],
          [
            8.4514782,
            39.070612
          ],
          [
            8.4513384,
            39.0708298
          ],
          [
            8.451376,
            39.0709964
          ],
          [
            8.4514994,
            39.0709339
          ],
          [
            8.45173,
            39.0709131
          ],
          [
            8.4518641,
            39.0717544
          ],
          [
            8.4520841,
            39.071871
          ],
          [
            8.4517837,
            39.0723749
          ]
        ]
      },
      "id": "osm-location-of-tofet",
      "type": "Feature",
      "properties": {
        "description": "Location based on OpenStreetMap",
        "location_precision": "precise",
        "title": "OSM location of tofet",
        "link": "http://pleiades.stoa.org/places/126134430/osm-location-of-tofet"
      }
    }
  ]
}