{
  "type": "FeatureCollection",
  "title": "Ladle Hill Iron Age Fort",
  "id": "127132165",
  "bbox": [
    -1.3161853,
    51.3076355,
    -1.3128569,
    51.3095378
  ],
  "description": "Ladle Hill is an Iron Age hill fort located in north Hampshire, England.",
  "features": [
    {
      "type": "Feature",
      "geometry": {
        "type": "Point",
        "coordinates": [
          -1.31448342218,
          51.3085682875
        ]
      },
      "properties": {
        "description": "representative point"
      }
    },
    {
      "geometry": {
        "type": "LineString",
        "coordinates": [
          [
            -1.3161609,
            51.3080867
          ],
          [
            -1.3161853,
            51.3082391
          ],
          [
            -1.3161463,
            51.3084952
          ],
          [
            -1.3161368,
            51.3085496
          ],
          [
            -1.3161292,
            51.3085928
          ],
          [
            -1.3160817,
            51.3087227
          ],
          [
            -1.3160395,
            51.3087649
          ],
          [
            -1.3158265,
            51.3089623
          ],
          [
            -1.3156066,
            51.3091214
          ],
          [
            -1.3154924,
            51.3092033
          ],
          [
            -1.3152721,
            51.3093226
          ],
          [
            -1.3149417,
            51.3094557
          ],
          [
            -1.3146418,
            51.3095226
          ],
          [
            -1.3141834,
            51.3095378
          ],
          [
            -1.3136518,
            51.3095226
          ],
          [
            -1.3133543,
            51.3094494
          ],
          [
            -1.3131398,
            51.3093244
          ],
          [
            -1.3130179,
            51.3092116
          ],
          [
            -1.3128764,
            51.308983
          ],
          [
            -1.3128569,
            51.3087361
          ],
          [
            -1.3128862,
            51.3083672
          ],
          [
            -1.3129106,
            51.3082056
          ],
          [
            -1.3129496,
            51.3081294
          ],
          [
            -1.3131495,
            51.3080257
          ],
          [
            -1.3133885,
            51.3079282
          ],
          [
            -1.3137542,
            51.3078123
          ],
          [
            -1.31412,
            51.3077331
          ],
          [
            -1.314476,
            51.3076965
          ],
          [
            -1.3150222,
            51.3076355
          ],
          [
            -1.3153782,
            51.307666
          ],
          [
            -1.3157049,
            51.3077575
          ],
          [
            -1.3159927,
            51.3078977
          ],
          [
            -1.3160804,
            51.3079709
          ],
          [
            -1.3161609,
            51.3080867
          ]
        ]
      },
      "id": "osm-location-of-ladle-hill-iron-age-fort",
      "type": "Feature",
      "properties": {
        "description": "Representative location based on OpenStreetMap",
        "location_precision": "precise",
        "title": "OSM location of Ladle Hill Iron Age Fort",
        "link": "http://pleiades.stoa.org/places/127132165/osm-location-of-ladle-hill-iron-age-fort"
      }
    }
  ]
}