{
  "type": "FeatureCollection",
  "title": "Unnamed road",
  "id": "129111",
  "bbox": [
    16.785948,
    48.065278,
    16.867891,
    48.113346
  ],
  "description": "Carnuntum → Höflein → Map 21",
  "features": [
    {
      "type": "Feature",
      "geometry": {
        "type": "Point",
        "coordinates": [
          16.82770325,
          48.0901095
        ]
      },
      "properties": {
        "description": "representative point"
      }
    },
    {
      "geometry": {
        "type": "Polygon",
        "coordinates": [
          [
            [
              15.0,
              47.0
            ],
            [
              15.0,
              52.0
            ],
            [
              25.0,
              52.0
            ],
            [
              25.0,
              47.0
            ],
            [
              15.0,
              47.0
            ]
          ]
        ]
      },
      "id": "batlas-location",
      "type": "Feature",
      "properties": {
        "description": "Roughly located within a bounding box",
        "location_precision": "rough",
        "title": "Barrington Atlas location",
        "link": "http://pleiades.stoa.org/places/129111/batlas-location"
      }
    }
  ]
}