{
  "type": "FeatureCollection",
  "title": "Castello di Venere",
  "id": "131911426",
  "bbox": [
    12.5915687,
    38.0349228,
    12.5926588,
    38.0355994
  ],
  "description": "A Norman castle founded in the twelfth century atop Mount Eryx in Sicily.",
  "names": [
    "Castello di Venere"
  ],
  "features": [
    {
      "type": "Feature",
      "geometry": {
        "type": "Point",
        "coordinates": [
          12.59206237,
          38.0352614988
        ]
      },
      "properties": {
        "description": "representative point"
      }
    },
    {
      "geometry": {
        "type": "LineString",
        "coordinates": [
          [
            12.5917881,
            38.0351694
          ],
          [
            12.5917008,
            38.0351022
          ],
          [
            12.5916845,
            38.0350897
          ],
          [
            12.5916577,
            38.0350506
          ],
          [
            12.5917791,
            38.0349878
          ],
          [
            12.5918119,
            38.0350105
          ],
          [
            12.5918481,
            38.0349983
          ],
          [
            12.5918388,
            38.0349793
          ],
          [
            12.5919152,
            38.0349498
          ],
          [
            12.5919253,
            38.0349587
          ],
          [
            12.5920024,
            38.0349265
          ],
          [
            12.5920252,
            38.0349228
          ],
          [
            12.5920507,
            38.0349239
          ],
          [
            12.5921204,
            38.0349445
          ],
          [
            12.5921184,
            38.0349709
          ],
          [
            12.5921284,
            38.034982
          ],
          [
            12.5921673,
            38.0349962
          ],
          [
            12.5921861,
            38.0349952
          ],
          [
            12.5921874,
            38.0349867
          ],
          [
            12.5922163,
            38.0349883
          ],
          [
            12.5922163,
            38.0349946
          ],
          [
            12.5922553,
            38.0350008
          ],
          [
            12.592288,
            38.0350047
          ],
          [
            12.592288,
            38.0350321
          ],
          [
            12.5923597,
            38.035058
          ],
          [
            12.592343,
            38.0350807
          ],
          [
            12.5924563,
            38.0351658
          ],
          [
            12.5925066,
            38.0351916
          ],
          [
            12.5925073,
            38.0351996
          ],
          [
            12.5926072,
            38.0352529
          ],
          [
            12.5926504,
            38.0352825
          ],
          [
            12.5926588,
            38.0352883
          ],
          [
            12.5925985,
            38.0353823
          ],
          [
            12.5926092,
            38.0353892
          ],
          [
            12.5925274,
            38.035432
          ],
          [
            12.5924966,
            38.0354288
          ],
          [
            12.5924054,
            38.0354182
          ],
          [
            12.5923987,
            38.0354272
          ],
          [
            12.5922565,
            38.0353897
          ],
          [
            12.59217,
            38.0354489
          ],
          [
            12.5920902,
            38.035424
          ],
          [
            12.5920849,
            38.035479
          ],
          [
            12.5921398,
            38.0355217
          ],
          [
            12.5921412,
            38.0355318
          ],
          [
            12.5921372,
            38.0355418
          ],
          [
            12.5921251,
            38.035546
          ],
          [
            12.5921177,
            38.0355476
          ],
          [
            12.5920963,
            38.0355334
          ],
          [
            12.5920855,
            38.0355291
          ],
          [
            12.5920741,
            38.0355297
          ],
          [
            12.5920647,
            38.0355386
          ],
          [
            12.5920634,
            38.0355466
          ],
          [
            12.5920721,
            38.0355571
          ],
          [
            12.5920198,
            38.0355566
          ],
          [
            12.5920185,
            38.0355666
          ],
          [
            12.5919796,
            38.0355756
          ],
          [
            12.5919662,
            38.0355983
          ],
          [
            12.5919541,
            38.0355994
          ],
          [
            12.5919373,
            38.0355941
          ],
          [
            12.5918689,
            38.0355392
          ],
          [
            12.5918569,
            38.035545
          ],
          [
            12.5918017,
            38.035495
          ],
          [
            12.5918104,
            38.0354854
          ],
          [
            12.5916824,
            38.0353917
          ],
          [
            12.5916696,
            38.0354021
          ],
          [
            12.5916469,
            38.0353829
          ],
          [
            12.5916342,
            38.0353722
          ],
          [
            12.5916326,
            38.0353585
          ],
          [
            12.5916447,
            38.0353403
          ],
          [
            12.5915827,
            38.0353326
          ],
          [
            12.5915709,
            38.0353237
          ],
          [
            12.5915687,
            38.0353035
          ],
          [
            12.5916375,
            38.0352529
          ],
          [
            12.5916483,
            38.035246
          ],
          [
            12.5916336,
            38.0352323
          ],
          [
            12.5916691,
            38.0351885
          ],
          [
            12.5917073,
            38.0352297
          ],
          [
            12.5917467,
            38.0352003
          ],
          [
            12.5917881,
            38.0351694
          ]
        ]
      },
      "id": "osm-location-of-castello-di-venere",
      "type": "Feature",
      "properties": {
        "description": "Representative location based on OpenStreetMap",
        "location_precision": "precise",
        "title": "OSM location of Castello di Venere",
        "link": "http://pleiades.stoa.org/places/131911426/osm-location-of-castello-di-venere"
      }
    }
  ]
}