{
  "type": "FeatureCollection",
  "title": "Roman theater at Italica",
  "id": "132543925",
  "bbox": [
    -6.0391581,
    37.4396522,
    -6.0382328,
    37.4404802
  ],
  "description": "The Roman theater at Italica could accommodate 3,000 spectators. It predates the Hadrianic rebuilding of the city.",
  "connectsWith": [
    "256231"
  ],
  "names": [
    "Teatro romano de Italica"
  ],
  "features": [
    {
      "type": "Feature",
      "geometry": {
        "type": "Point",
        "coordinates": [
          -6.03870183489,
          37.4400768235
        ]
      },
      "properties": {
        "description": "representative point"
      }
    },
    {
      "geometry": {
        "type": "MultiLineString",
        "coordinates": [
          [
            [
              -6.0386986,
              37.4404802
            ],
            [
              -6.0389936,
              37.4403771
            ],
            [
              -6.0390934,
              37.4402778
            ],
            [
              -6.03915,
              37.4401712
            ],
            [
              -6.0391581,
              37.4400817
            ],
            [
              -6.0390325,
              37.4397797
            ],
            [
              -6.0389422,
              37.4397349
            ],
            [
              -6.0388871,
              37.4397084
            ],
            [
              -6.0388105,
              37.439678
            ],
            [
              -6.0387333,
              37.4396522
            ],
            [
              -6.0385174,
              37.4397047
            ],
            [
              -6.038549,
              37.4397674
            ],
            [
              -6.038512,
              37.4397985
            ],
            [
              -6.0384077,
              37.439855
            ],
            [
              -6.0382328,
              37.4400045
            ],
            [
              -6.0384539,
              37.4404761
            ],
            [
              -6.0386541,
              37.4404231
            ],
            [
              -6.0386986,
              37.4404802
            ]
          ]
        ]
      },
      "id": "osm-location-of-teatro-romano",
      "type": "Feature",
      "properties": {
        "description": "Representative location based on OpenStreetMap",
        "location_precision": "precise",
        "title": "OSM location of Teatro Romano",
        "link": "http://pleiades.stoa.org/places/132543925/osm-location-of-teatro-romano"
      }
    }
  ]
}