{
  "type": "FeatureCollection",
  "title": "aedicula Capraria",
  "id": "132738980",
  "description": "A place known as aedicula Capraria is included in the Regionary Catalog for Regio VII. This place seems to be located in the southern part of that region but is generally unknown otherwise.",
  "connectsWith": [
    "423025",
    "596666070"
  ],
  "names": [
    "aedicula Capraria"
  ],
  "features": [
    {
      "type": "Feature",
      "geometry": null,
      "properties": {
        "description": "representative point"
      }
    }
  ]
}