{
  "type": "FeatureCollection",
  "title": "S. Quiricus (monastery)",
  "id": "138530",
  "bbox": [
    3.142921,
    45.551053,
    3.142921,
    45.551053
  ],
  "description": "A monastery of S. Quiricus, mentioned by Gregory of Tours, that should be localized in the area of modern St-Cirgues-sur-Couze, in the French arondissement of Issoire (Puy-de-Dôme).",
  "names": [
    "St-Cirgues-sur-Couze",
    "S. Quiricus (Mon.)"
  ],
  "features": [
    {
      "type": "Feature",
      "geometry": {
        "type": "Point",
        "coordinates": [
          3.142921,
          45.551053
        ]
      },
      "properties": {
        "description": "representative point"
      }
    },
    {
      "geometry": {
        "type": "Point",
        "coordinates": [
          3.142921,
          45.551053
        ]
      },
      "id": "darmc-location-5396",
      "type": "Feature",
      "properties": {
        "description": "1:1 million scale representative point location digitized from the Barrington Atlas of the Greek and Roman World by the Digital Atlas of Roman and Medieval Civilizations project at Harvard University.",
        "location_precision": "precise",
        "title": "DARMC location 5396",
        "link": "http://pleiades.stoa.org/places/138530/darmc-location-5396"
      }
    }
  ]
}