{
  "type": "FeatureCollection",
  "title": "Vernaus",
  "id": "138646",
  "bbox": [
    0.845377,
    47.420158,
    0.845377,
    47.420158
  ],
  "description": "An ancient place, cited: BAtlas 14 F1 Vernaus",
  "names": [
    "Vernaus",
    "Vernadum"
  ],
  "features": [
    {
      "type": "Feature",
      "geometry": {
        "type": "Point",
        "coordinates": [
          0.845377,
          47.420158
        ]
      },
      "properties": {
        "description": "representative point"
      }
    },
    {
      "geometry": {
        "type": "Point",
        "coordinates": [
          0.845377,
          47.420158
        ]
      },
      "id": "darmc-location-15375",
      "type": "Feature",
      "properties": {
        "description": "1:1 million scale representative point location digitized from the Barrington Atlas of the Greek and Roman World by the Digital Atlas of Roman and Medieval Civilizations project at Harvard University.",
        "location_precision": "precise",
        "title": "DARMC location 15375",
        "link": "http://pleiades.stoa.org/places/138646/darmc-location-15375"
      }
    }
  ]
}