{
  "type": "FeatureCollection",
  "title": "Capraria",
  "id": "148034",
  "bbox": [
    3.347134,
    43.568327,
    3.347134,
    43.568327
  ],
  "description": "An ancient place, cited: BAtlas 15 A2 Capraria",
  "names": [
    "Capraria"
  ],
  "features": [
    {
      "type": "Feature",
      "geometry": {
        "type": "Point",
        "coordinates": [
          3.347134,
          43.568327
        ]
      },
      "properties": {
        "description": "representative point"
      }
    },
    {
      "geometry": {
        "type": "Point",
        "coordinates": [
          3.347134,
          43.568327
        ]
      },
      "id": "imagery-location-chateau-de-cabrieres",
      "type": "Feature",
      "properties": {
        "description": null,
        "location_precision": "precise",
        "title": "Imagery Location: Château de Cabrières",
        "link": "http://pleiades.stoa.org/places/148034/imagery-location-chateau-de-cabrieres"
      }
    }
  ]
}