{
  "type": "FeatureCollection",
  "title": "Blasco (island)",
  "id": "148020",
  "bbox": [
    3.4998445,
    43.2628457,
    3.5023832,
    43.2637627
  ],
  "description": "Blasco Ins. is a small, volcanic island located close to the Cap d'Agde.",
  "connectsWith": [
    "1043"
  ],
  "names": [
    "Blasco",
    "Ile de Brescou"
  ],
  "features": [
    {
      "type": "Feature",
      "geometry": {
        "type": "Point",
        "coordinates": [
          3.50115582564,
          43.2632450442
        ]
      },
      "properties": {
        "description": "representative point"
      }
    },
    {
      "geometry": {
        "type": "LineString",
        "coordinates": [
          [
            3.5016135,
            43.262859
          ],
          [
            3.501649,
            43.2628662
          ],
          [
            3.5016969,
            43.2628457
          ],
          [
            3.5017804,
            43.2628564
          ],
          [
            3.5018721,
            43.2629355
          ],
          [
            3.5018798,
            43.2629557
          ],
          [
            3.5019961,
            43.2629478
          ],
          [
            3.5020165,
            43.2629736
          ],
          [
            3.5021053,
            43.2630102
          ],
          [
            3.5022222,
            43.2630762
          ],
          [
            3.502316,
            43.263098
          ],
          [
            3.502291,
            43.2631388
          ],
          [
            3.5023166,
            43.2631738
          ],
          [
            3.5023221,
            43.2632366
          ],
          [
            3.5023832,
            43.2632807
          ],
          [
            3.5022727,
            43.2633791
          ],
          [
            3.5021897,
            43.2634275
          ],
          [
            3.5020182,
            43.2634929
          ],
          [
            3.5019273,
            43.2635063
          ],
          [
            3.5018418,
            43.2635639
          ],
          [
            3.5018168,
            43.2635992
          ],
          [
            3.5017566,
            43.2636549
          ],
          [
            3.5016082,
            43.2637627
          ],
          [
            3.501593,
            43.2637591
          ],
          [
            3.5015976,
            43.2636962
          ],
          [
            3.5014814,
            43.2637171
          ],
          [
            3.5014382,
            43.2636932
          ],
          [
            3.5014177,
            43.2636527
          ],
          [
            3.5013617,
            43.2636104
          ],
          [
            3.5012122,
            43.2635685
          ],
          [
            3.5011213,
            43.2635425
          ],
          [
            3.5010667,
            43.2635329
          ],
          [
            3.5010616,
            43.2635223
          ],
          [
            3.5010582,
            43.2635136
          ],
          [
            3.5010527,
            43.2635016
          ],
          [
            3.5010826,
            43.2634915
          ],
          [
            3.5010772,
            43.2634527
          ],
          [
            3.5009904,
            43.263385
          ],
          [
            3.500917,
            43.263343
          ],
          [
            3.5008675,
            43.2633348
          ],
          [
            3.5008081,
            43.2633282
          ],
          [
            3.5007861,
            43.2633414
          ],
          [
            3.5006596,
            43.2634176
          ],
          [
            3.5006319,
            43.2634232
          ],
          [
            3.5006115,
            43.2634104
          ],
          [
            3.5006164,
            43.2633826
          ],
          [
            3.5006522,
            43.2633363
          ],
          [
            3.5006979,
            43.2633004
          ],
          [
            3.5007101,
            43.2632684
          ],
          [
            3.5005799,
            43.263259
          ],
          [
            3.5004988,
            43.2632162
          ],
          [
            3.5003741,
            43.26318
          ],
          [
            3.5001316,
            43.2631412
          ],
          [
            3.5000163,
            43.2631655
          ],
          [
            3.4999878,
            43.2632109
          ],
          [
            3.4999515,
            43.2632162
          ],
          [
            3.4998835,
            43.2631768
          ],
          [
            3.4998445,
            43.2631497
          ],
          [
            3.4999241,
            43.263098
          ],
          [
            3.5000371,
            43.2630481
          ],
          [
            3.5001881,
            43.2630618
          ],
          [
            3.5005783,
            43.2631421
          ],
          [
            3.5007775,
            43.2631511
          ],
          [
            3.5009579,
            43.2631223
          ],
          [
            3.501102,
            43.2630904
          ],
          [
            3.5011549,
            43.263055
          ],
          [
            3.5014251,
            43.2630095
          ],
          [
            3.501511,
            43.2629999
          ],
          [
            3.501564,
            43.2629922
          ],
          [
            3.5016093,
            43.2629625
          ],
          [
            3.5015733,
            43.2628943
          ],
          [
            3.5016135,
            43.262859
          ]
        ]
      },
      "id": "osm-location-of-fort-de-brescou",
      "type": "Feature",
      "properties": {
        "description": "Location based on OpenStreetMap",
        "location_precision": "precise",
        "title": "OSM location of Fort de Brescou",
        "link": "http://pleiades.stoa.org/places/148020/osm-location-of-fort-de-brescou"
      }
    }
  ]
}