{
  "type": "FeatureCollection",
  "title": "Centuriation in the vicinity of Ambrussum",
  "id": "150250",
  "bbox": [
    4.149532,
    43.715393,
    4.149669,
    43.715821
  ],
  "description": "An ancient place, cited: BAtlas 15 C2 unnamed centuriation (around Ambrussum and SE Nemausus (Nîmes I))",
  "features": [
    {
      "type": "Feature",
      "geometry": {
        "type": "Point",
        "coordinates": [
          4.1496005,
          43.715607
        ]
      },
      "properties": {
        "description": "representative point"
      }
    },
    {
      "geometry": {
        "type": "Polygon",
        "coordinates": [
          [
            [
              4.0,
              43.5
            ],
            [
              4.0,
              44.0
            ],
            [
              4.5,
              44.0
            ],
            [
              4.5,
              43.5
            ],
            [
              4.0,
              43.5
            ]
          ]
        ]
      },
      "id": "undetermined",
      "type": "Feature",
      "properties": {
        "description": null,
        "location_precision": "rough",
        "title": "Undetermined location",
        "link": "http://pleiades.stoa.org/places/150250/undetermined"
      }
    }
  ]
}