{
  "type": "FeatureCollection",
  "title": "Comani",
  "id": "151768",
  "description": "Gallic tribe or the inhabitants of an eponymous town dwelling in the region of Massalia during the Iron Age.",
  "names": [
    "Comani"
  ],
  "features": [
    {
      "type": "Feature",
      "geometry": null,
      "properties": {
        "description": "representative point"
      }
    },
    {
      "geometry": null,
      "id": "undetermined",
      "type": "Feature",
      "properties": {
        "description": null,
        "location_precision": "unlocated",
        "title": "Undetermined location",
        "link": "http://pleiades.stoa.org/places/151768/undetermined"
      }
    }
  ]
}