{
  "type": "FeatureCollection",
  "title": "Pondel",
  "id": "167872",
  "bbox": [
    7.2217505,
    45.6766966,
    7.2225571,
    45.6767099
  ],
  "description": "A Roman aqueduct dating to 3 B.C.",
  "connectsWith": [
    "571200449"
  ],
  "names": [
    "Pont d'Ael",
    "Pondel"
  ],
  "features": [
    {
      "type": "Feature",
      "geometry": {
        "type": "Point",
        "coordinates": [
          7.22215291993,
          45.6766989711
        ]
      },
      "properties": {
        "description": "representative point"
      }
    },
    {
      "geometry": {
        "type": "LineString",
        "coordinates": [
          [
            7.2217505,
            45.6767099
          ],
          [
            7.2217968,
            45.6766966
          ],
          [
            7.2225571,
            45.6767008
          ]
        ]
      },
      "id": "osm-location",
      "type": "Feature",
      "properties": {
        "description": "Representative location based on OpenStreetMap",
        "location_precision": "precise",
        "title": "OSM location of Pont D'Aël",
        "link": "http://pleiades.stoa.org/places/167872/osm-location"
      }
    }
  ]
}