{
  "type": "FeatureCollection",
  "title": "Orsières Roman Bridge",
  "id": "169145",
  "bbox": [
    7.1453627,
    46.0300676,
    7.1453627,
    46.0300676
  ],
  "description": "A Roman bridge at modern Orsières in Switzerland.",
  "features": [
    {
      "type": "Feature",
      "geometry": {
        "type": "Point",
        "coordinates": [
          7.1453627,
          46.0300676
        ]
      },
      "properties": {
        "description": "representative point"
      }
    },
    {
      "geometry": {
        "type": "Point",
        "coordinates": [
          7.1453627,
          46.0300676
        ]
      },
      "id": "osm-location-modern-orsiares",
      "type": "Feature",
      "properties": {
        "description": "Location based on OpenStreetMap",
        "location_precision": "precise",
        "title": "OSM Location: modern Orsières",
        "link": "http://pleiades.stoa.org/places/169145/osm-location-modern-orsiares"
      }
    }
  ]
}