{
  "type": "FeatureCollection",
  "title": "Termil Errjel (Gafsa)",
  "id": "170328844",
  "bbox": [
    8.7868913,
    34.4155801,
    8.7870984,
    34.4157429
  ],
  "description": "Known today as the \"Men's Pool\", this open-air, artificial pool in opus quadratum is one of two associated with the ancient Roman bath complex of Capsa.",
  "connectsWith": [
    "188790129"
  ],
  "names": [
    "Termil Errjel",
    "Hammam Errjel"
  ],
  "features": [
    {
      "type": "Feature",
      "geometry": {
        "type": "Point",
        "coordinates": [
          8.78699467324,
          34.4156609729
        ]
      },
      "properties": {
        "description": "representative point"
      }
    },
    {
      "geometry": {
        "type": "LineString",
        "coordinates": [
          [
            8.7869544,
            34.4157429
          ],
          [
            8.7868913,
            34.4156475
          ],
          [
            8.787036,
            34.4155801
          ],
          [
            8.7870984,
            34.4156724
          ],
          [
            8.7869544,
            34.4157429
          ]
        ]
      },
      "id": "osm-location-termil-errjel",
      "type": "Feature",
      "properties": {
        "description": "Location based on OpenStreetMap",
        "location_precision": "precise",
        "title": "OSM location: Termil Errjel",
        "link": "http://pleiades.stoa.org/places/170328844/osm-location-termil-errjel"
      }
    }
  ]
}