{
  "type": "FeatureCollection",
  "title": "Necropolis of Madonna d'olivo",
  "id": "171321862",
  "bbox": [
    11.8739601,
    42.4058456,
    11.8740419,
    42.4063065
  ],
  "description": "An Etruscan necropolis located about 2 km south-west of Tuscania that overlooks the valley of the Marta river. The necropolis takes its name from the adjacent Church of the Madonna dell’Olivo.",
  "connectsWith": [
    "413356"
  ],
  "names": [
    "Madonna d'olivo necropolis"
  ],
  "features": [
    {
      "type": "Feature",
      "geometry": {
        "type": "Point",
        "coordinates": [
          11.874001,
          42.40607605
        ]
      },
      "properties": {
        "description": "representative point"
      }
    },
    {
      "geometry": {
        "type": "LineString",
        "coordinates": [
          [
            11.8739713,
            42.4063065
          ],
          [
            11.8740419,
            42.4063056
          ],
          [
            11.8740307,
            42.4058456
          ],
          [
            11.8739601,
            42.4058465
          ],
          [
            11.8739713,
            42.4063065
          ]
        ]
      },
      "id": "osm-location-of-necropoli-di-madonna-dolivo",
      "type": "Feature",
      "properties": {
        "description": "Representative location based on OpenStreetMap.",
        "location_precision": "precise",
        "title": "OSM location of Necropoli di Madonna d'olivo",
        "link": "http://pleiades.stoa.org/places/171321862/osm-location-of-necropoli-di-madonna-dolivo"
      }
    }
  ]
}