{
  "type": "FeatureCollection",
  "title": "Via Aurelia",
  "id": "174900201",
  "bbox": [
    10.3478436,
    41.884525,
    12.3635528,
    43.719417
  ],
  "description": "An ancient Roman road begun ca. 241 B.C. by the censor C. Aurelius Cotta.",
  "connectsWith": [
    "447759107"
  ],
  "names": [
    "Via Aurelia",
    "Via Aurelia"
  ],
  "features": [
    {
      "type": "Feature",
      "geometry": {
        "type": "Point",
        "coordinates": [
          12.2579320833,
          41.9102139167
        ]
      },
      "properties": {
        "description": "representative point"
      }
    }
  ]
}