{
  "type": "FeatureCollection",
  "title": "Castro de São Lourenço",
  "id": "175451017",
  "bbox": [
    -8.7620493,
    41.5559021,
    -8.7617312,
    41.556038
  ],
  "description": "A Bronze Age settlement.",
  "features": [
    {
      "type": "Feature",
      "geometry": {
        "type": "Point",
        "coordinates": [
          -8.76188577036,
          41.5559792175
        ]
      },
      "properties": {
        "description": "representative point"
      }
    },
    {
      "geometry": {
        "type": "LineString",
        "coordinates": [
          [
            -8.7617312,
            41.5559432
          ],
          [
            -8.7617738,
            41.5559103
          ],
          [
            -8.761797,
            41.5559021
          ],
          [
            -8.7618616,
            41.555935
          ],
          [
            -8.7619579,
            41.555966
          ],
          [
            -8.7620335,
            41.5559942
          ],
          [
            -8.7620493,
            41.5560189
          ],
          [
            -8.7620128,
            41.556038
          ],
          [
            -8.7619165,
            41.5560143
          ],
          [
            -8.7618202,
            41.5560152
          ],
          [
            -8.7617568,
            41.5559906
          ],
          [
            -8.7617312,
            41.5559432
          ]
        ]
      },
      "id": "osm-location",
      "type": "Feature",
      "properties": {
        "description": "Representative location of archaeological site of Castro de São Lourenço based on OpenStreetMap.",
        "location_precision": "precise",
        "title": "OSM location of Castro de São Lourenço",
        "link": "http://pleiades.stoa.org/places/175451017/osm-location"
      }
    }
  ]
}