{
  "type": "FeatureCollection",
  "title": "Pons Dubris",
  "id": "177607",
  "bbox": [
    5.1101433,
    46.9238414,
    5.1101433,
    46.9238414
  ],
  "description": "An ancient settlement and bridge at the modern village of Pontoux (Saône-et-Loire department, France).",
  "names": [
    "Pons Dubris"
  ],
  "features": [
    {
      "type": "Feature",
      "geometry": {
        "type": "Point",
        "coordinates": [
          5.1101433,
          46.9238414
        ]
      },
      "properties": {
        "description": "representative point"
      }
    },
    {
      "geometry": {
        "type": "Point",
        "coordinates": [
          5.1101433,
          46.9238414
        ]
      },
      "id": "osm-location-of-pontoux",
      "type": "Feature",
      "properties": {
        "description": "Location based on OpenStreetMap",
        "location_precision": "precise",
        "title": "OSM location of Pontoux",
        "link": "http://pleiades.stoa.org/places/177607/osm-location-of-pontoux"
      }
    }
  ]
}