{
  "type": "FeatureCollection",
  "title": "Loposagium",
  "id": "181215",
  "description": "An ancient place, cited: BAtlas 18 unlocated Loposagium",
  "connectsWith": [
    "177516"
  ],
  "names": [
    "Loposagium",
    "Loposagio"
  ],
  "features": [
    {
      "type": "Feature",
      "geometry": null,
      "properties": {
        "description": "representative point"
      }
    },
    {
      "geometry": null,
      "id": "batlas-location",
      "type": "Feature",
      "properties": {
        "description": null,
        "location_precision": "unlocated",
        "title": "Barrington Atlas location",
        "link": "http://pleiades.stoa.org/places/181215/batlas-location"
      }
    }
  ]
}