{
  "type": "FeatureCollection",
  "title": "Illeta dels Banyets",
  "id": "18579265",
  "bbox": [
    -0.3821391,
    38.432602,
    -0.3821391,
    38.432602
  ],
  "description": "A coastal site occupied from the late third millennium B.C. onwards.",
  "names": [
    "Illeta dels Banyets"
  ],
  "features": [
    {
      "type": "Feature",
      "geometry": {
        "type": "Point",
        "coordinates": [
          -0.3821391,
          38.432602
        ]
      },
      "properties": {
        "description": "representative point"
      }
    },
    {
      "geometry": {
        "type": "LineString",
        "coordinates": [
          [
            -0.3811288,
            38.4315004
          ],
          [
            -0.3809615,
            38.4313409
          ],
          [
            -0.3805745,
            38.4313889
          ],
          [
            -0.3803207,
            38.4313858
          ],
          [
            -0.3801447,
            38.4314715
          ],
          [
            -0.3801562,
            38.4315693
          ],
          [
            -0.3803408,
            38.4317677
          ],
          [
            -0.3805857,
            38.4318757
          ],
          [
            -0.3808793,
            38.432153
          ],
          [
            -0.3811492,
            38.4322043
          ],
          [
            -0.3813098,
            38.4323242
          ],
          [
            -0.3814856,
            38.4324301
          ],
          [
            -0.381609,
            38.4326016
          ],
          [
            -0.3817011,
            38.4326786
          ],
          [
            -0.3818127,
            38.4327145
          ],
          [
            -0.3818967,
            38.4327043
          ],
          [
            -0.3819935,
            38.4326639
          ],
          [
            -0.3821227,
            38.4326717
          ],
          [
            -0.3822175,
            38.4326303
          ],
          [
            -0.3822774,
            38.4325236
          ],
          [
            -0.3822784,
            38.4324848
          ],
          [
            -0.3822771,
            38.4324368
          ],
          [
            -0.3821344,
            38.4323522
          ],
          [
            -0.3821179,
            38.4323068
          ],
          [
            -0.3822016,
            38.4322949
          ],
          [
            -0.382133,
            38.4321607
          ],
          [
            -0.3820297,
            38.4321061
          ],
          [
            -0.3819734,
            38.431973
          ],
          [
            -0.3819412,
            38.4319653
          ],
          [
            -0.3818795,
            38.4319853
          ],
          [
            -0.3818285,
            38.4319727
          ],
          [
            -0.3818084,
            38.431833
          ],
          [
            -0.3815931,
            38.4317415
          ],
          [
            -0.3814209,
            38.4317121
          ],
          [
            -0.3812067,
            38.4316426
          ],
          [
            -0.3811288,
            38.4315004
          ]
        ]
      },
      "id": "osm-location",
      "type": "Feature",
      "properties": {
        "description": "Representative location based on OpenStreetMap",
        "location_precision": "precise",
        "title": "OSM location of els Banyets de la Reina",
        "link": "http://pleiades.stoa.org/places/18579265/osm-location"
      }
    }
  ]
}