{
  "type": "FeatureCollection",
  "title": "Chesterton villa",
  "id": "187106386",
  "bbox": [
    -1.4874803,
    52.222353,
    -1.4874803,
    52.222353
  ],
  "description": "A Roman villa located north of Ewefields Farm was partially excavated in the 1990s at Chesterton, United Kingdom.",
  "connectsWith": [
    "79385"
  ],
  "features": [
    {
      "type": "Feature",
      "geometry": {
        "type": "Point",
        "coordinates": [
          -1.4874803,
          52.222353
        ]
      },
      "properties": {
        "description": "representative point"
      }
    },
    {
      "geometry": {
        "type": "Point",
        "coordinates": [
          -1.4874803,
          52.222353
        ]
      },
      "id": "wikidata-location-chesterton-villa",
      "type": "Feature",
      "properties": {
        "description": "Coordinates following GeoHack",
        "location_precision": "precise",
        "title": "Imagery location of Chesterton villa",
        "link": "http://pleiades.stoa.org/places/187106386/wikidata-location-chesterton-villa"
      }
    }
  ]
}