{
  "type": "FeatureCollection",
  "title": "Hohe Birga",
  "id": "187411",
  "bbox": [
    11.299551,
    47.235595000000004,
    11.299551,
    47.235595000000004
  ],
  "description": "An ancient place, cited: BAtlas 19 D2 Hohe Birga",
  "features": [
    {
      "type": "Feature",
      "geometry": {
        "type": "Point",
        "coordinates": [
          11.299551,
          47.235595000000004
        ]
      },
      "properties": {
        "description": "representative point"
      }
    },
    {
      "geometry": {
        "type": "Point",
        "coordinates": [
          11.299551,
          47.235595000000004
        ]
      },
      "id": "darmc-location-12776",
      "type": "Feature",
      "properties": {
        "description": "1M scale point location",
        "location_precision": "precise",
        "title": "DARMC location 12776",
        "link": "http://pleiades.stoa.org/places/187411/darmc-location-12776"
      }
    }
  ]
}