{
  "type": "FeatureCollection",
  "title": "Noricum (region)",
  "id": "187490",
  "bbox": [
    14.429495,
    46.724424,
    14.429722,
    46.724722
  ],
  "description": "Region deriving its name from a federated Celtic kingdom that became a province of the Roman empire (q.v.).",
  "names": [
    "Noricum",
    "Norici"
  ],
  "features": [
    {
      "type": "Feature",
      "geometry": {
        "type": "Point",
        "coordinates": [
          14.4296085,
          46.724573
        ]
      },
      "properties": {
        "description": "representative point"
      }
    },
    {
      "geometry": {
        "type": "Polygon",
        "coordinates": [
          [
            [
              12.0,
              46.0
            ],
            [
              12.0,
              47.0
            ],
            [
              13.0,
              47.0
            ],
            [
              13.0,
              46.0
            ],
            [
              12.0,
              46.0
            ]
          ]
        ]
      },
      "id": "batlas-location",
      "type": "Feature",
      "properties": {
        "description": null,
        "location_precision": "rough",
        "title": "Barrington Atlas location",
        "link": "http://pleiades.stoa.org/places/187490/batlas-location"
      }
    }
  ]
}