{
  "type": "FeatureCollection",
  "title": "‘Sublavione’",
  "id": "187561",
  "bbox": [
    11.5318969,
    46.5982585,
    11.5663497,
    46.6399237
  ],
  "description": "The Barrington Atlas provides two possible alternative modern identifications along the Eisack/Iscara river in South Tyrol for the location of ancient Sublavione, which is attested both on the Peutinger map and in the Antonine Itineraries: Waidbruck/Ponte Gardena and Klausen/Chiusa.",
  "names": [
    "Sublavione",
    "Ponte Gardena",
    "Chiusa",
    "Sublabione"
  ],
  "features": [
    {
      "type": "Feature",
      "geometry": {
        "type": "Point",
        "coordinates": [
          11.5491233,
          46.6190911
        ]
      },
      "properties": {
        "description": "representative point"
      }
    },
    {
      "geometry": {
        "type": "Point",
        "coordinates": [
          11.5663497,
          46.6399237
        ]
      },
      "id": "osm-location-modern-klausen-chiusa",
      "type": "Feature",
      "properties": {
        "description": "Location based on OpenStreetMap",
        "location_precision": "precise",
        "title": "OSM Location: modern Klausen/Chiusa",
        "link": "http://pleiades.stoa.org/places/187561/osm-location-modern-klausen-chiusa"
      }
    },
    {
      "geometry": {
        "type": "Point",
        "coordinates": [
          11.5318969,
          46.5982585
        ]
      },
      "id": "osm-location-modern-waidbruck-ponte-gardena",
      "type": "Feature",
      "properties": {
        "description": "Location based on OpenStreetMap",
        "location_precision": "precise",
        "title": "OSM Location: modern Waidbruck/Ponte Gardena",
        "link": "http://pleiades.stoa.org/places/187561/osm-location-modern-waidbruck-ponte-gardena"
      }
    }
  ]
}