{
  "type": "FeatureCollection",
  "title": "Unnamed bridge",
  "id": "188762",
  "bbox": [
    13.4275728,
    45.7262438,
    13.7540761,
    46.4118388
  ],
  "description": "An ancient place, cited: BAtlas 19 F4 unnamed bridge (Pons Sonti, over Aesontius fl.)",
  "connectsWith": [
    "187264",
    "187519"
  ],
  "features": [
    {
      "type": "Feature",
      "geometry": {
        "type": "Point",
        "coordinates": [
          13.5858724627,
          46.0921390332
        ]
      },
      "properties": {
        "description": "representative point"
      }
    },
    {
      "geometry": {
        "type": "Polygon",
        "coordinates": [
          [
            [
              13.0,
              45.0
            ],
            [
              13.0,
              46.0
            ],
            [
              14.0,
              46.0
            ],
            [
              14.0,
              45.0
            ],
            [
              13.0,
              45.0
            ]
          ]
        ]
      },
      "id": "batlas-location",
      "type": "Feature",
      "properties": {
        "description": null,
        "location_precision": "rough",
        "title": "Barrington Atlas location",
        "link": "http://pleiades.stoa.org/places/188762/batlas-location"
      }
    }
  ]
}