{
  "type": "FeatureCollection",
  "title": "Leunoi",
  "id": "194058",
  "description": "An ancient people mentioned only by Ptolemy, thought to have been located somewhere in southern Bavaria. BAtlas chose not to place them on a map for lack of certainty.",
  "names": [
    "Leunoi"
  ],
  "features": [
    {
      "type": "Feature",
      "geometry": null,
      "properties": {
        "description": "representative point"
      }
    },
    {
      "geometry": null,
      "id": "batlas-location",
      "type": "Feature",
      "properties": {
        "description": null,
        "location_precision": "unlocated",
        "title": "Barrington Atlas location",
        "link": "http://pleiades.stoa.org/places/194058/batlas-location"
      }
    }
  ]
}