{
  "type": "FeatureCollection",
  "title": "Bougon",
  "id": "197001409",
  "bbox": [
    -0.0674321,
    46.3728985,
    -0.0651265,
    46.3736477
  ],
  "description": "Bougon is the site of five Neolithic barrows located in Poitou-Charentes, France. The earliest dates ca. 4800 BC.",
  "features": [
    {
      "type": "Feature",
      "geometry": {
        "type": "Point",
        "coordinates": [
          -0.0662719242088,
          46.3733384756
        ]
      },
      "properties": {
        "description": "representative point"
      }
    },
    {
      "geometry": {
        "type": "LineString",
        "coordinates": [
          [
            -0.0674304,
            46.3732742
          ],
          [
            -0.0673614,
            46.3733427
          ],
          [
            -0.0672354,
            46.3734097
          ],
          [
            -0.0671964,
            46.3734168
          ],
          [
            -0.0671487,
            46.3734241
          ],
          [
            -0.067078,
            46.3734129
          ],
          [
            -0.066974,
            46.3733532
          ],
          [
            -0.0669534,
            46.3733244
          ],
          [
            -0.0669259,
            46.3732757
          ],
          [
            -0.0669231,
            46.3732273
          ],
          [
            -0.0669516,
            46.3731892
          ],
          [
            -0.0669973,
            46.3731456
          ],
          [
            -0.0670227,
            46.3731308
          ],
          [
            -0.0670688,
            46.3731214
          ],
          [
            -0.0671182,
            46.3731181
          ],
          [
            -0.0672328,
            46.3731331
          ],
          [
            -0.0673077,
            46.3731422
          ],
          [
            -0.0673961,
            46.373157
          ],
          [
            -0.0674244,
            46.3731936
          ],
          [
            -0.0674321,
            46.3732267
          ],
          [
            -0.0674304,
            46.3732742
          ]
        ]
      },
      "id": "location-of-tumulus-a",
      "type": "Feature",
      "properties": {
        "description": "Representative location based on OpenStreetMap",
        "location_precision": "precise",
        "title": "OSM location of Tumulus A",
        "link": "http://pleiades.stoa.org/places/197001409/location-of-tumulus-a"
      }
    },
    {
      "geometry": {
        "type": "LineString",
        "coordinates": [
          [
            -0.066505,
            46.3733209
          ],
          [
            -0.0665128,
            46.3733459
          ],
          [
            -0.0664501,
            46.3733465
          ],
          [
            -0.0664214,
            46.3733388
          ],
          [
            -0.0662563,
            46.3733362
          ],
          [
            -0.0662604,
            46.3730077
          ],
          [
            -0.0664859,
            46.3730245
          ],
          [
            -0.0664973,
            46.3731232
          ],
          [
            -0.066542,
            46.3731
          ],
          [
            -0.0666058,
            46.3730968
          ],
          [
            -0.0666703,
            46.3731079
          ],
          [
            -0.0667191,
            46.3731309
          ],
          [
            -0.0667623,
            46.3731654
          ],
          [
            -0.0667746,
            46.3732008
          ],
          [
            -0.0667565,
            46.3732455
          ],
          [
            -0.0667334,
            46.3732747
          ],
          [
            -0.0666549,
            46.3733082
          ],
          [
            -0.0666054,
            46.3733096
          ],
          [
            -0.066574,
            46.3733004
          ],
          [
            -0.066505,
            46.3733209
          ]
        ]
      },
      "id": "location-of-tumulus-c",
      "type": "Feature",
      "properties": {
        "description": "Representative location based on OpenStreetMap.",
        "location_precision": "precise",
        "title": "OSM location of Tumulus C",
        "link": "http://pleiades.stoa.org/places/197001409/location-of-tumulus-c"
      }
    },
    {
      "geometry": {
        "type": "LineString",
        "coordinates": [
          [
            -0.0652503,
            46.3735528
          ],
          [
            -0.0651857,
            46.3735403
          ],
          [
            -0.065135,
            46.3735202
          ],
          [
            -0.0651265,
            46.373479
          ],
          [
            -0.0652062,
            46.3729915
          ],
          [
            -0.0652239,
            46.3729767
          ],
          [
            -0.0652285,
            46.372948
          ],
          [
            -0.0652409,
            46.372912
          ],
          [
            -0.065263,
            46.3729014
          ],
          [
            -0.0653185,
            46.3728985
          ],
          [
            -0.0653544,
            46.3729489
          ],
          [
            -0.065362,
            46.3730472
          ],
          [
            -0.0653466,
            46.3733232
          ],
          [
            -0.0653452,
            46.3734803
          ],
          [
            -0.0653331,
            46.3735206
          ],
          [
            -0.0653074,
            46.3735412
          ],
          [
            -0.0652793,
            46.3735549
          ],
          [
            -0.0652503,
            46.3735528
          ]
        ]
      },
      "id": "location-of-tumulus-f",
      "type": "Feature",
      "properties": {
        "description": "Representative location based on OpenStreetMap",
        "location_precision": "precise",
        "title": "OSM location of Tumulus F",
        "link": "http://pleiades.stoa.org/places/197001409/location-of-tumulus-f"
      }
    },
    {
      "geometry": {
        "type": "LineString",
        "coordinates": [
          [
            -0.0658396,
            46.3736382
          ],
          [
            -0.0657752,
            46.373647
          ],
          [
            -0.0657293,
            46.3736477
          ],
          [
            -0.0656858,
            46.373601
          ],
          [
            -0.0656773,
            46.37358
          ],
          [
            -0.065659,
            46.3735517
          ],
          [
            -0.0656505,
            46.3735307
          ],
          [
            -0.0656501,
            46.3735232
          ],
          [
            -0.0656078,
            46.3735107
          ],
          [
            -0.0656148,
            46.3734802
          ],
          [
            -0.0656529,
            46.3734449
          ],
          [
            -0.065725,
            46.3734692
          ],
          [
            -0.0657596,
            46.3734869
          ],
          [
            -0.0657918,
            46.3735148
          ],
          [
            -0.065808,
            46.3735441
          ],
          [
            -0.0658261,
            46.3735805
          ],
          [
            -0.0658396,
            46.3736382
          ]
        ]
      },
      "id": "location-of-tumulus-e",
      "type": "Feature",
      "properties": {
        "description": "Representative location based on OpenStreetMap",
        "location_precision": "precise",
        "title": "OSM location of Tumulus E",
        "link": "http://pleiades.stoa.org/places/197001409/location-of-tumulus-e"
      }
    },
    {
      "geometry": {
        "type": "LineString",
        "coordinates": [
          [
            -0.0668798,
            46.3734282
          ],
          [
            -0.0666925,
            46.3735075
          ],
          [
            -0.0666191,
            46.3735402
          ],
          [
            -0.0665988,
            46.3735471
          ],
          [
            -0.0665673,
            46.3735366
          ],
          [
            -0.0665559,
            46.3735169
          ],
          [
            -0.0665619,
            46.373496
          ],
          [
            -0.0666178,
            46.3734631
          ],
          [
            -0.0666904,
            46.3734333
          ],
          [
            -0.0667499,
            46.3734096
          ],
          [
            -0.0668038,
            46.3733788
          ],
          [
            -0.0668575,
            46.3733624
          ],
          [
            -0.0668852,
            46.373413
          ],
          [
            -0.0668867,
            46.3734223
          ],
          [
            -0.0668798,
            46.3734282
          ]
        ]
      },
      "id": "location-of-tumulus-b",
      "type": "Feature",
      "properties": {
        "description": "Representative location based on OpenStreetMap",
        "location_precision": "precise",
        "title": "OSM location of Tumulus B",
        "link": "http://pleiades.stoa.org/places/197001409/location-of-tumulus-b"
      }
    }
  ]
}