{
  "type": "FeatureCollection",
  "title": "Ad Fines",
  "id": "197060",
  "bbox": [
    16.1157503,
    45.6339365,
    16.1157503,
    45.6339365
  ],
  "description": "An ancient place, cited: BAtlas 20 D4 Ad Fines",
  "names": [
    "Ad Fines"
  ],
  "features": [
    {
      "type": "Feature",
      "geometry": {
        "type": "Point",
        "coordinates": [
          16.1157503,
          45.6339365
        ]
      },
      "properties": {
        "description": "representative point"
      }
    },
    {
      "geometry": {
        "type": "Point",
        "coordinates": [
          16.1157503,
          45.6339365
        ]
      },
      "id": "osm-location-of-bua-evec",
      "type": "Feature",
      "properties": {
        "description": "Location based on OpenStreetMap",
        "location_precision": "precise",
        "title": "OSM location of Buševec",
        "link": "http://pleiades.stoa.org/places/197060/osm-location-of-bua-evec"
      }
    }
  ]
}