{
  "type": "FeatureCollection",
  "title": "Andautonia",
  "id": "197113",
  "bbox": [
    16.1154572,
    45.7733816,
    16.1184712,
    45.774577
  ],
  "description": "A Roman settlement and municipium near the Sava river, on the location of the modern village of Šćitarjevo, Croatia, south of Zagreb, near Velika Gorica.",
  "connectsWith": [
    "207429"
  ],
  "names": [
    "Andautonia",
    "Ščitarjevo"
  ],
  "features": [
    {
      "type": "Feature",
      "geometry": {
        "type": "Point",
        "coordinates": [
          16.1171489745,
          45.773968669
        ]
      },
      "properties": {
        "description": "representative point"
      }
    },
    {
      "geometry": {
        "type": "MultiLineString",
        "coordinates": [
          [
            [
              16.1157838,
              45.7740504
            ],
            [
              16.1158038,
              45.7740289
            ],
            [
              16.1157167,
              45.7739896
            ],
            [
              16.1156968,
              45.774011
            ],
            [
              16.1156247,
              45.7739785
            ],
            [
              16.1154572,
              45.7741588
            ],
            [
              16.1155788,
              45.7742137
            ],
            [
              16.1156914,
              45.7740924
            ],
            [
              16.1157339,
              45.7741116
            ],
            [
              16.1156314,
              45.7742217
            ],
            [
              16.1158929,
              45.7743401
            ],
            [
              16.1160215,
              45.7742019
            ],
            [
              16.1160607,
              45.7741598
            ],
            [
              16.1159142,
              45.7740934
            ],
            [
              16.1159037,
              45.7741047
            ],
            [
              16.1157838,
              45.7740504
            ]
          ],
          [
            [
              16.117059,
              45.7733816
            ],
            [
              16.116949,
              45.7737314
            ],
            [
              16.1177161,
              45.7739297
            ],
            [
              16.1174747,
              45.7743581
            ],
            [
              16.1178897,
              45.774577
            ],
            [
              16.1183167,
              45.7740665
            ],
            [
              16.118448,
              45.7737978
            ],
            [
              16.1184712,
              45.7737384
            ],
            [
              16.117638,
              45.77352
            ],
            [
              16.117059,
              45.7733816
            ]
          ]
        ]
      },
      "id": "osm-location-of-andautonia",
      "type": "Feature",
      "properties": {
        "description": "Representative location based on OpenStreetMap",
        "location_precision": "precise",
        "title": "OSM location of Andautonia",
        "link": "http://pleiades.stoa.org/places/197113/osm-location-of-andautonia"
      }
    }
  ]
}