{
  "type": "FeatureCollection",
  "title": "Celadussae (islands)",
  "id": "197205",
  "bbox": [
    15.2583493,
    44.0197116,
    15.2602809,
    44.0222036
  ],
  "description": "Celadussae Inss., a Dalmatian archipelago in the Adriatic Sea.",
  "connectsWith": [
    "1004"
  ],
  "names": [
    "Celadussae"
  ],
  "features": [
    {
      "type": "Feature",
      "geometry": {
        "type": "Point",
        "coordinates": [
          15.2596048926,
          44.020781445
        ]
      },
      "properties": {
        "description": "representative point"
      }
    },
    {
      "geometry": {
        "type": "LineString",
        "coordinates": [
          [
            15.2583493,
            44.0197116
          ],
          [
            15.2590002,
            44.020183
          ],
          [
            15.2594222,
            44.0203752
          ],
          [
            15.2599349,
            44.0207403
          ],
          [
            15.2602054,
            44.0211563
          ],
          [
            15.2602809,
            44.0213819
          ],
          [
            15.2601277,
            44.0222036
          ]
        ]
      },
      "id": "location-of-ugljan",
      "type": "Feature",
      "properties": {
        "description": "Representative location based on OpenStreetMap",
        "location_precision": "precise",
        "title": "OSM location of Ugljan",
        "link": "http://pleiades.stoa.org/places/197205/location-of-ugljan"
      }
    }
  ]
}