{
  "type": "FeatureCollection",
  "title": "Korkyra Melaina",
  "id": "197340",
  "bbox": [
    17.135602,
    42.960475,
    17.135602,
    42.960475
  ],
  "description": "An ancient place, cited: BAtlas 20 D7 Korkyra Melaina",
  "connectsWith": [
    "197224"
  ],
  "names": [
    "Korkyra Melaina"
  ],
  "features": [
    {
      "type": "Feature",
      "geometry": {
        "type": "Point",
        "coordinates": [
          17.135602,
          42.960475
        ]
      },
      "properties": {
        "description": "representative point"
      }
    },
    {
      "geometry": {
        "type": "Point",
        "coordinates": [
          17.135602,
          42.960475
        ]
      },
      "id": "darmc-location-23271",
      "type": "Feature",
      "properties": {
        "description": "1:1 million scale representative point location digitized from the Barrington Atlas of the Greek and Roman World by the Digital Atlas of Roman and Medieval Civilizations project at Harvard University.",
        "location_precision": "precise",
        "title": "DARMC location 23271",
        "link": "http://pleiades.stoa.org/places/197340/darmc-location-23271"
      }
    }
  ]
}