{
  "type": "FeatureCollection",
  "title": "Britannicum Mare",
  "id": "20420",
  "bbox": [
    -5.5316217,
    49.4859736,
    1.054682,
    50.4924668
  ],
  "description": "Britannicum Mare (The English Channel) is an extension of the Atlantic Ocean that separates England from northern France, and also joins the North Sea to the Atlantic.",
  "connectsWith": [
    "845",
    "20469"
  ],
  "names": [
    "Britannicum Mare",
    "English Channel",
    "la Manche"
  ],
  "features": [
    {
      "type": "Feature",
      "geometry": {
        "type": "Point",
        "coordinates": [
          -2.23846985,
          49.9892202
        ]
      },
      "properties": {
        "description": "representative point"
      }
    },
    {
      "geometry": {
        "type": "LineString",
        "coordinates": [
          [
            1.054682,
            50.4924668
          ],
          [
            -5.5316217,
            49.4859736
          ]
        ]
      },
      "id": "osm-location-of-english-channel",
      "type": "Feature",
      "properties": {
        "description": "Location based on OpenStreetMap",
        "location_precision": "precise",
        "title": "OSM location of English Channel",
        "link": "http://pleiades.stoa.org/places/20420/osm-location-of-english-channel"
      }
    }
  ]
}