{
  "type": "FeatureCollection",
  "title": "Hibernia",
  "id": "20487",
  "bbox": [
    -10.1583765,
    50.0,
    -5.5968913,
    55.2240926
  ],
  "description": "Hibernia is the Classical name for the island of Ireland.",
  "connectsWith": [
    "79632"
  ],
  "names": [
    "Hibernia",
    "Ierne",
    "Éire",
    "Ireland"
  ],
  "features": [
    {
      "type": "Feature",
      "geometry": {
        "type": "Point",
        "coordinates": [
          -9.6955324,
          51.8115717
        ]
      },
      "properties": {
        "description": "representative point"
      }
    }
  ]
}