{
  "type": "FeatureCollection",
  "title": "Odry",
  "id": "20563",
  "bbox": [
    18.017484,
    53.890952,
    18.017484,
    53.890952
  ],
  "description": "The modern Polish city of Odry is the site of a major \"stone circles\" cemetery of the iron age Wielbark Culture.",
  "features": [
    {
      "type": "Feature",
      "geometry": {
        "type": "Point",
        "coordinates": [
          18.017484,
          53.890952
        ]
      },
      "properties": {
        "description": "representative point"
      }
    },
    {
      "geometry": {
        "type": "Point",
        "coordinates": [
          18.017484,
          53.890952
        ]
      },
      "id": "darmc-location-23868",
      "type": "Feature",
      "properties": {
        "description": "Representative point location digitized from the Barrington Atlas of the Greek and Roman World by the Digital Atlas of Roman and Medieval Civilizations project at Harvard University.",
        "location_precision": "precise",
        "title": "DARMC location 23868",
        "link": "http://pleiades.stoa.org/places/20563/darmc-location-23868"
      }
    }
  ]
}