{
  "type": "FeatureCollection",
  "title": "Untitled",
  "id": "208943255",
  "bbox": [
    10.026482,
    36.605863,
    10.026482,
    36.605863
  ],
  "description": "An ancient place, cited: BAtlas 32 F3 unnamed unlabeled ((1 monument))",
  "features": [
    {
      "type": "Feature",
      "geometry": {
        "type": "Point",
        "coordinates": [
          10.026482,
          36.605863
        ]
      },
      "properties": {
        "description": "representative point"
      }
    },
    {
      "geometry": {
        "type": "Point",
        "coordinates": [
          10.026482,
          36.605863
        ]
      },
      "id": "darmc-location-16136",
      "type": "Feature",
      "properties": {
        "description": "1:500,000 scale representative point location digitized from the Barrington Atlas of the Greek and Roman World by the Digital Atlas of Roman and Medieval Civilizations project at Harvard University.",
        "location_precision": "precise",
        "title": "DARMC location 16136",
        "link": "http://pleiades.stoa.org/places/208943255/darmc-location-16136"
      }
    }
  ]
}