{
  "type": "FeatureCollection",
  "title": "Withdrawn: Untitled",
  "id": "208942867",
  "bbox": [
    7.754548,
    36.441205,
    7.754548,
    36.441205
  ],
  "description": "Duplicate for https://pleiades.stoa.org/places/208942891",
  "features": [
    {
      "type": "Feature",
      "geometry": {
        "type": "Point",
        "coordinates": [
          7.754548,
          36.441205
        ]
      },
      "properties": {
        "description": "representative point"
      }
    },
    {
      "geometry": {
        "type": "Point",
        "coordinates": [
          7.754548,
          36.441205
        ]
      },
      "id": "darmc-location-21054",
      "type": "Feature",
      "properties": {
        "description": "1:500,000 scale representative point location digitized from the Barrington Atlas of the Greek and Roman World by the Digital Atlas of Roman and Medieval Civilizations project at Harvard University.",
        "location_precision": "precise",
        "title": "DARMC location 21054",
        "link": "http://pleiades.stoa.org/errata/208942867/darmc-location-21054"
      }
    }
  ]
}