{
  "type": "FeatureCollection",
  "title": "Untitled",
  "id": "208943646",
  "bbox": [
    5.357635,
    36.170935,
    5.357635,
    36.170935
  ],
  "description": "An ancient place, cited: BAtlas 31 C4 unnamed unlabeled (settlements)",
  "features": [
    {
      "type": "Feature",
      "geometry": {
        "type": "Point",
        "coordinates": [
          5.357635,
          36.170935
        ]
      },
      "properties": {
        "description": "representative point"
      }
    },
    {
      "geometry": {
        "type": "Point",
        "coordinates": [
          5.357635,
          36.170935
        ]
      },
      "id": "darmc-location-20446",
      "type": "Feature",
      "properties": {
        "description": "1:500,000 scale representative point location digitized from the Barrington Atlas of the Greek and Roman World by the Digital Atlas of Roman and Medieval Civilizations project at Harvard University.",
        "location_precision": "precise",
        "title": "DARMC location 20446",
        "link": "http://pleiades.stoa.org/places/208943646/darmc-location-20446"
      }
    }
  ]
}