{
  "type": "FeatureCollection",
  "title": "Untitled",
  "id": "208943040",
  "bbox": [
    9.500674,
    35.206525,
    9.500674,
    35.206525
  ],
  "description": "An ancient place, cited: BAtlas 33 E2 unnamed unlabeled ((5 aqueducts, 1 monument))",
  "features": [
    {
      "type": "Feature",
      "geometry": {
        "type": "Point",
        "coordinates": [
          9.500674,
          35.206525
        ]
      },
      "properties": {
        "description": "representative point"
      }
    },
    {
      "geometry": {
        "type": "Point",
        "coordinates": [
          9.500674,
          35.206525
        ]
      },
      "id": "darmc-location-27283",
      "type": "Feature",
      "properties": {
        "description": "1:500,000 scale representative point location digitized from the Barrington Atlas of the Greek and Roman World by the Digital Atlas of Roman and Medieval Civilizations project at Harvard University.",
        "location_precision": "precise",
        "title": "DARMC location 27283",
        "link": "http://pleiades.stoa.org/places/208943040/darmc-location-27283"
      }
    }
  ]
}