{
  "type": "FeatureCollection",
  "title": "Untitled",
  "id": "208943136",
  "bbox": [
    10.383149,
    35.382472,
    10.383149,
    35.382472
  ],
  "description": "An ancient place, cited: BAtlas 33 F2 unnamed unlabeled ((1 cemetery, 1 monument, 1 aqueduct))",
  "features": [
    {
      "type": "Feature",
      "geometry": {
        "type": "Point",
        "coordinates": [
          10.383149,
          35.382472
        ]
      },
      "properties": {
        "description": "representative point"
      }
    },
    {
      "geometry": {
        "type": "Point",
        "coordinates": [
          10.383149,
          35.382472
        ]
      },
      "id": "darmc-location-20893",
      "type": "Feature",
      "properties": {
        "description": "1:500,000 scale representative point location digitized from the Barrington Atlas of the Greek and Roman World by the Digital Atlas of Roman and Medieval Civilizations project at Harvard University.",
        "location_precision": "precise",
        "title": "DARMC location 20893",
        "link": "http://pleiades.stoa.org/places/208943136/darmc-location-20893"
      }
    }
  ]
}