{
  "type": "FeatureCollection",
  "title": "Drajna de Sus",
  "id": "216797",
  "bbox": [
    26.072858,
    45.254612,
    26.074584,
    45.2568563
  ],
  "description": "An ancient place, cited: BAtlas 22 D3 Drajna de Sus",
  "features": [
    {
      "type": "Feature",
      "geometry": {
        "type": "Point",
        "coordinates": [
          26.073721,
          45.25573415
        ]
      },
      "properties": {
        "description": "representative point"
      }
    },
    {
      "geometry": {
        "type": "Point",
        "coordinates": [
          26.074584,
          45.254612
        ]
      },
      "id": "dare-location",
      "type": "Feature",
      "properties": {
        "description": "Representative point location, village precision",
        "location_precision": "precise",
        "title": "DARE Location",
        "link": "http://pleiades.stoa.org/places/216797/dare-location"
      }
    },
    {
      "geometry": {
        "type": "Point",
        "coordinates": [
          26.072858,
          45.2568563
        ]
      },
      "id": "osm-location-of-castra-of-drajna-de-sus",
      "type": "Feature",
      "properties": {
        "description": "Representative location based on OpenStreetMap",
        "location_precision": "precise",
        "title": "OSM location of Castra of Drajna de Sus",
        "link": "http://pleiades.stoa.org/places/216797/osm-location-of-castra-of-drajna-de-sus"
      }
    }
  ]
}