{
  "type": "FeatureCollection",
  "title": "Vicus *Scaptia",
  "id": "217051",
  "bbox": [
    28.59752,
    44.204029,
    28.59752,
    44.204029
  ],
  "description": "An ancient place, cited: BAtlas 22 F4 Vicus *Scaptia",
  "names": [
    "Vicus Scaptia"
  ],
  "features": [
    {
      "type": "Feature",
      "geometry": {
        "type": "Point",
        "coordinates": [
          28.59752,
          44.204029
        ]
      },
      "properties": {
        "description": "representative point"
      }
    },
    {
      "geometry": {
        "type": "Point",
        "coordinates": [
          28.59752,
          44.204029
        ]
      },
      "id": "darmc-location-1834",
      "type": "Feature",
      "properties": {
        "description": "1:1 million scale representative point location digitized from the Barrington Atlas of the Greek and Roman World by the Digital Atlas of Roman and Medieval Civilizations project at Harvard University.",
        "location_precision": "precise",
        "title": "DARMC location 1834",
        "link": "http://pleiades.stoa.org/places/217051/darmc-location-1834"
      }
    }
  ]
}