{
  "type": "FeatureCollection",
  "title": "Transmarisca",
  "id": "217021",
  "bbox": [
    26.6051088,
    44.044753,
    26.614532,
    44.050825
  ],
  "description": "An ancient place, cited: BAtlas 22 D4 Transmarisca",
  "names": [
    "Transmarisca"
  ],
  "features": [
    {
      "type": "Feature",
      "geometry": {
        "type": "Point",
        "coordinates": [
          26.6110297972,
          44.0482478266
        ]
      },
      "properties": {
        "description": "representative point"
      }
    },
    {
      "geometry": {
        "type": "Point",
        "coordinates": [
          26.614532,
          44.044753
        ]
      },
      "id": "darmc-location-24444",
      "type": "Feature",
      "properties": {
        "description": "1M scale point location",
        "location_precision": "precise",
        "title": "DARMC location 24444",
        "link": "http://pleiades.stoa.org/places/217021/darmc-location-24444"
      }
    },
    {
      "geometry": {
        "type": "Point",
        "coordinates": [
          26.613184,
          44.050825
        ]
      },
      "id": "dare-location",
      "type": "Feature",
      "properties": {
        "description": "Representative point location, site precision",
        "location_precision": "precise",
        "title": "DARE Location",
        "link": "http://pleiades.stoa.org/places/217021/dare-location"
      }
    },
    {
      "geometry": {
        "type": "MultiLineString",
        "coordinates": [
          [
            [
              26.6055298,
              44.0491803
            ],
            [
              26.6054237,
              44.0491495
            ],
            [
              26.6054207,
              44.0491553
            ],
            [
              26.6051159,
              44.0490829
            ],
            [
              26.6051088,
              44.0490982
            ],
            [
              26.6054129,
              44.0491696
            ],
            [
              26.6053898,
              44.049221
            ],
            [
              26.6054962,
              44.0492491
            ],
            [
              26.6055195,
              44.0492043
            ],
            [
              26.6055662,
              44.049216
            ],
            [
              26.6055755,
              44.0491995
            ],
            [
              26.6055264,
              44.0491854
            ],
            [
              26.6055298,
              44.0491803
            ]
          ],
          [
            [
              26.6054107,
              44.0492127
            ],
            [
              26.6054318,
              44.0491648
            ],
            [
              26.6055098,
              44.049187
            ],
            [
              26.6054858,
              44.0492339
            ],
            [
              26.6054107,
              44.0492127
            ]
          ]
        ]
      },
      "id": "osm-location",
      "type": "Feature",
      "properties": {
        "description": "Representative location based on OpenStreetMap",
        "location_precision": "precise",
        "title": "OSM location",
        "link": "http://pleiades.stoa.org/places/217021/osm-location"
      }
    }
  ]
}