{
  "type": "FeatureCollection",
  "title": "Gors Fawr stone circle",
  "id": "218008122",
  "bbox": [
    -4.7148058,
    51.9314447,
    -4.7144786,
    51.9316458
  ],
  "description": "Gors Fawr Stone Circle is located in Mynachlog-Ddu, Pembrokeshire, Wales, United Kingdom.",
  "names": [
    "Gors Fawr Stone Circle"
  ],
  "features": [
    {
      "type": "Feature",
      "geometry": {
        "type": "Point",
        "coordinates": [
          -4.71464217802,
          51.9315452178
        ]
      },
      "properties": {
        "description": "representative point"
      }
    },
    {
      "geometry": {
        "type": "LineString",
        "coordinates": [
          [
            -4.7148058,
            51.9315403
          ],
          [
            -4.7148014,
            51.9315689
          ],
          [
            -4.7147842,
            51.9315956
          ],
          [
            -4.7147554,
            51.9316182
          ],
          [
            -4.7147175,
            51.9316349
          ],
          [
            -4.7146734,
            51.9316444
          ],
          [
            -4.7146268,
            51.9316458
          ],
          [
            -4.7145815,
            51.931639
          ],
          [
            -4.7145411,
            51.9316247
          ],
          [
            -4.7145089,
            51.9316039
          ],
          [
            -4.7144874,
            51.9315784
          ],
          [
            -4.7144786,
            51.9315502
          ],
          [
            -4.7144829,
            51.9315216
          ],
          [
            -4.7145002,
            51.9314948
          ],
          [
            -4.7145289,
            51.9314722
          ],
          [
            -4.7145669,
            51.9314555
          ],
          [
            -4.7146109,
            51.9314461
          ],
          [
            -4.7146575,
            51.9314447
          ],
          [
            -4.7147028,
            51.9314514
          ],
          [
            -4.7147432,
            51.9314657
          ],
          [
            -4.7147755,
            51.9314865
          ],
          [
            -4.7147969,
            51.931512
          ],
          [
            -4.7148058,
            51.9315403
          ]
        ]
      },
      "id": "osm-location-of-gors-fawr-stone-circle",
      "type": "Feature",
      "properties": {
        "description": "Representative location based on OpenStreetMap",
        "location_precision": "precise",
        "title": "OSM location of Gors Fawr stone circle",
        "link": "http://pleiades.stoa.org/places/218008122/osm-location-of-gors-fawr-stone-circle"
      }
    }
  ]
}