{
  "type": "FeatureCollection",
  "title": "Oedipodia",
  "id": "218651082",
  "bbox": [
    23.3243183,
    38.3242801,
    23.3243183,
    38.3242801
  ],
  "description": "A spring in Boeotia.",
  "names": [
    "Oedipodia"
  ],
  "features": [
    {
      "type": "Feature",
      "geometry": {
        "type": "Point",
        "coordinates": [
          23.3243183,
          38.3242801
        ]
      },
      "properties": {
        "description": "representative point"
      }
    },
    {
      "geometry": {
        "type": "Point",
        "coordinates": [
          23.3243183,
          38.3242801
        ]
      },
      "id": "osm-location-of-ii1ii1iiiiui1i-iii-r-i1-2i",
      "type": "Feature",
      "properties": {
        "description": "Representative location based on OpenStreetMap",
        "location_precision": "precise",
        "title": "OSM location of Οιδιπόδεια Κρήνη",
        "link": "http://pleiades.stoa.org/places/218651082/osm-location-of-ii1ii1iiiiui1i-iii-r-i1-2i"
      }
    }
  ]
}