{
  "type": "FeatureCollection",
  "title": "Maiden Castle, Dorset",
  "id": "232755444",
  "bbox": [
    -2.4775669,
    50.6919862,
    -2.4625315,
    50.6975863
  ],
  "description": "One of the largest and most complex Iron Age hillforts in Europe, Maiden Castle, in Dorset, was occupied from the Neolithic period through to the fourth century A.D.",
  "connectsWith": [
    "79431"
  ],
  "names": [
    "Maiden Castle",
    "Dunium"
  ],
  "features": [
    {
      "type": "Feature",
      "geometry": {
        "type": "Point",
        "coordinates": [
          -2.4700923579,
          50.6946674109
        ]
      },
      "properties": {
        "description": "representative point"
      }
    },
    {
      "geometry": {
        "type": "LineString",
        "coordinates": [
          [
            -2.4751647,
            50.6972872
          ],
          [
            -2.4743332,
            50.6974932
          ],
          [
            -2.4732549,
            50.6975863
          ],
          [
            -2.4717747,
            50.6974512
          ],
          [
            -2.4714525,
            50.6973128
          ],
          [
            -2.4695428,
            50.6973688
          ],
          [
            -2.4685557,
            50.6971921
          ],
          [
            -2.4676116,
            50.6969203
          ],
          [
            -2.4669088,
            50.6965689
          ],
          [
            -2.4639638,
            50.6954659
          ],
          [
            -2.4632128,
            50.6949902
          ],
          [
            -2.4626173,
            50.6944893
          ],
          [
            -2.4625315,
            50.693932
          ],
          [
            -2.4626817,
            50.6934971
          ],
          [
            -2.4627192,
            50.6930329
          ],
          [
            -2.4630626,
            50.6928018
          ],
          [
            -2.4637277,
            50.6924891
          ],
          [
            -2.4646075,
            50.6921765
          ],
          [
            -2.4651869,
            50.6920678
          ],
          [
            -2.4657233,
            50.6921085
          ],
          [
            -2.4666031,
            50.6920678
          ],
          [
            -2.4673541,
            50.6919862
          ],
          [
            -2.4680836,
            50.692027
          ],
          [
            -2.468663,
            50.6921493
          ],
          [
            -2.4693497,
            50.6923532
          ],
          [
            -2.4701865,
            50.6926251
          ],
          [
            -2.4707283,
            50.6926951
          ],
          [
            -2.47171,
            50.6926794
          ],
          [
            -2.4730618,
            50.6925979
          ],
          [
            -2.4741776,
            50.6925979
          ],
          [
            -2.4751003,
            50.692693
          ],
          [
            -2.4756636,
            50.6929669
          ],
          [
            -2.4762376,
            50.6932639
          ],
          [
            -2.4767311,
            50.6937805
          ],
          [
            -2.4772461,
            50.6946232
          ],
          [
            -2.4775669,
            50.6952756
          ],
          [
            -2.4775025,
            50.695697
          ],
          [
            -2.4772944,
            50.696134
          ],
          [
            -2.4767794,
            50.6965281
          ],
          [
            -2.4760874,
            50.6969067
          ],
          [
            -2.4751647,
            50.6972872
          ]
        ]
      },
      "id": "osm-location",
      "type": "Feature",
      "properties": {
        "description": "Representative location based on OpenStreetMap",
        "location_precision": "precise",
        "title": "OSM location of Maiden Castle",
        "link": "http://pleiades.stoa.org/places/232755444/osm-location"
      }
    }
  ]
}