{
  "type": "FeatureCollection",
  "title": "Domvs Romana",
  "id": "236153258",
  "bbox": [
    14.399458,
    35.8855259,
    14.399458,
    35.8855259
  ],
  "description": "A ruined Roman townhouse located on the boundary between Mdina and Rabat, Malta that was discovered in 1881. It dates to the first century B.C.",
  "connectsWith": [
    "399911221"
  ],
  "names": [
    "Domvs Romana"
  ],
  "features": [
    {
      "type": "Feature",
      "geometry": {
        "type": "Point",
        "coordinates": [
          14.399458,
          35.8855259
        ]
      },
      "properties": {
        "description": "representative point"
      }
    },
    {
      "geometry": {
        "type": "LineString",
        "coordinates": [
          [
            14.3994129,
            35.885516
          ],
          [
            14.3996289,
            35.8855733
          ],
          [
            14.4000218,
            35.8855928
          ],
          [
            14.4003635,
            35.8853535
          ],
          [
            14.4000619,
            35.8851231
          ],
          [
            14.3994129,
            35.885516
          ]
        ]
      },
      "id": "location-of-roman-villa",
      "type": "Feature",
      "properties": {
        "description": "Representative location based on OpenStreetMap.",
        "location_precision": "precise",
        "title": "OSM location of Roman villa",
        "link": "http://pleiades.stoa.org/places/236153258/location-of-roman-villa"
      }
    }
  ]
}