{
  "type": "FeatureCollection",
  "title": "Church of San Primitivo",
  "id": "236701131",
  "bbox": [
    12.7210467,
    41.8869709,
    12.7215902,
    41.8872571
  ],
  "description": "The so-called Church of San Primitivo in Monte Compatri. The church's bell tower was converted to a defensive tower around 1200.",
  "connectsWith": [
    "422932"
  ],
  "features": [
    {
      "type": "Feature",
      "geometry": {
        "type": "Point",
        "coordinates": [
          12.72131845,
          41.887114
        ]
      },
      "properties": {
        "description": "representative point"
      }
    },
    {
      "geometry": {
        "type": "LineString",
        "coordinates": [
          [
            12.7211174,
            41.8872571
          ],
          [
            12.7210467,
            41.88707
          ],
          [
            12.7215195,
            41.8869709
          ],
          [
            12.7215902,
            41.887158
          ],
          [
            12.7211174,
            41.8872571
          ]
        ]
      },
      "id": "osm-location-of-church-of-san-primitivo",
      "type": "Feature",
      "properties": {
        "description": "Representative location based on OpenStreetMap",
        "location_precision": "precise",
        "title": "OSM location of Church of San Primitivo",
        "link": "http://pleiades.stoa.org/places/236701131/osm-location-of-church-of-san-primitivo"
      }
    }
  ]
}