{
  "type": "FeatureCollection",
  "title": "Ulla (river)",
  "id": "236700",
  "bbox": [
    -8.2415254,
    42.8235635,
    -8.1916232,
    42.8552207
  ],
  "description": "An ancient place, cited: BAtlas 24 C2 Ulla fl.",
  "names": [
    "Ulla"
  ],
  "features": [
    {
      "type": "Feature",
      "geometry": {
        "type": "Point",
        "coordinates": [
          -8.21501197787,
          42.8363281684
        ]
      },
      "properties": {
        "description": "representative point"
      }
    },
    {
      "geometry": {
        "type": "LineString",
        "coordinates": [
          [
            -8.1916232,
            42.8552207
          ],
          [
            -8.1923197,
            42.8550358
          ],
          [
            -8.1928124,
            42.8547093
          ],
          [
            -8.1944015,
            42.8539477
          ],
          [
            -8.1954686,
            42.8532813
          ],
          [
            -8.1959492,
            42.8526198
          ],
          [
            -8.1961876,
            42.8518617
          ],
          [
            -8.1963101,
            42.8516964
          ],
          [
            -8.1979685,
            42.851291
          ],
          [
            -8.1991007,
            42.8504524
          ],
          [
            -8.2003704,
            42.8488212
          ],
          [
            -8.2023844,
            42.8451517
          ],
          [
            -8.203331,
            42.8443941
          ],
          [
            -8.2063564,
            42.8430073
          ],
          [
            -8.2070162,
            42.8429098
          ],
          [
            -8.2075378,
            42.8429204
          ],
          [
            -8.2084251,
            42.8433702
          ],
          [
            -8.2095392,
            42.8447958
          ],
          [
            -8.2122858,
            42.8463061
          ],
          [
            -8.2136591,
            42.8461803
          ],
          [
            -8.2147535,
            42.8460499
          ],
          [
            -8.2155474,
            42.8458027
          ],
          [
            -8.2173117,
            42.8457918
          ],
          [
            -8.2193239,
            42.8450475
          ],
          [
            -8.2206932,
            42.844724
          ],
          [
            -8.2215027,
            42.8422435
          ],
          [
            -8.2214016,
            42.8414723
          ],
          [
            -8.2164613,
            42.8408759
          ],
          [
            -8.215204,
            42.8400128
          ],
          [
            -8.2141741,
            42.8368659
          ],
          [
            -8.213671,
            42.8350979
          ],
          [
            -8.2126291,
            42.8338448
          ],
          [
            -8.2115187,
            42.8341496
          ],
          [
            -8.2100022,
            42.8336651
          ],
          [
            -8.2079574,
            42.8331355
          ],
          [
            -8.2064493,
            42.8327118
          ],
          [
            -8.2055569,
            42.8318916
          ],
          [
            -8.205824,
            42.8301722
          ],
          [
            -8.2065977,
            42.8289059
          ],
          [
            -8.2064493,
            42.8280538
          ],
          [
            -8.2057627,
            42.8269208
          ],
          [
            -8.2064493,
            42.8256618
          ],
          [
            -8.2072926,
            42.8249715
          ],
          [
            -8.2104288,
            42.8235635
          ],
          [
            -8.2136591,
            42.8238991
          ],
          [
            -8.2174356,
            42.8242769
          ],
          [
            -8.2194317,
            42.8254223
          ],
          [
            -8.2228659,
            42.8248595
          ],
          [
            -8.2253321,
            42.8252841
          ],
          [
            -8.228937,
            42.826669
          ],
          [
            -8.2306536,
            42.827802
          ],
          [
            -8.2327135,
            42.8286833
          ],
          [
            -8.2327821,
            42.8297547
          ],
          [
            -8.2323702,
            42.8305717
          ],
          [
            -8.2327135,
            42.8317047
          ],
          [
            -8.2340868,
            42.83246
          ],
          [
            -8.2367354,
            42.8326698
          ],
          [
            -8.2383783,
            42.8319565
          ],
          [
            -8.2394083,
            42.8308235
          ],
          [
            -8.2412966,
            42.8290298
          ],
          [
            -8.2415254,
            42.8289148
          ]
        ]
      },
      "id": "location-of-Ulla-fl",
      "type": "Feature",
      "properties": {
        "description": "Location based on OpenStreetMap",
        "location_precision": "precise",
        "title": "location of Ulla fl.",
        "link": "http://pleiades.stoa.org/places/236700/location-of-Ulla-fl"
      }
    }
  ]
}