{
  "type": "FeatureCollection",
  "title": "Nuraghe Sa Ucchiusura",
  "id": "237657886",
  "bbox": [
    8.7480821,
    40.2934938,
    8.7484067,
    40.2937405
  ],
  "description": "A monopteral nuraghe built of trachite. The ruined walls stand to at least four meters in height.",
  "connectsWith": [
    "472014"
  ],
  "features": [
    {
      "type": "Feature",
      "geometry": {
        "type": "Point",
        "coordinates": [
          8.74824365012,
          40.2936167068
        ]
      },
      "properties": {
        "description": "representative point"
      }
    },
    {
      "geometry": {
        "type": "LineString",
        "coordinates": [
          [
            8.7484067,
            40.2936105
          ],
          [
            8.7483998,
            40.2936529
          ],
          [
            8.7483746,
            40.293691
          ],
          [
            8.7483339,
            40.2937204
          ],
          [
            8.7482826,
            40.2937375
          ],
          [
            8.7482268,
            40.2937405
          ],
          [
            8.7481765,
            40.2937301
          ],
          [
            8.7481332,
            40.2937082
          ],
          [
            8.748101,
            40.293677
          ],
          [
            8.7480834,
            40.2936396
          ],
          [
            8.7480821,
            40.2936
          ],
          [
            8.7480973,
            40.293562
          ],
          [
            8.7481273,
            40.2935296
          ],
          [
            8.7481692,
            40.2935061
          ],
          [
            8.7482187,
            40.2934938
          ],
          [
            8.7482707,
            40.293494
          ],
          [
            8.74832,
            40.2935067
          ],
          [
            8.7483642,
            40.2935329
          ],
          [
            8.7483943,
            40.2935689
          ],
          [
            8.7484067,
            40.2936105
          ]
        ]
      },
      "id": "osm-location",
      "type": "Feature",
      "properties": {
        "description": "Representative location based on OpenStreetMap",
        "location_precision": "precise",
        "title": "OSM location of Nuraghe Sa Ucchiusura",
        "link": "http://pleiades.stoa.org/places/237657886/osm-location"
      }
    }
  ]
}