{
  "type": "FeatureCollection",
  "title": "Nuraghe Colombos",
  "id": "237657888",
  "bbox": [
    8.7485097,
    40.2990379,
    8.7487325,
    40.2992081
  ],
  "description": null,
  "connectsWith": [
    "472014"
  ],
  "features": [
    {
      "type": "Feature",
      "geometry": {
        "type": "Point",
        "coordinates": [
          8.74862091064,
          40.2991231809
        ]
      },
      "properties": {
        "description": "representative point"
      }
    },
    {
      "geometry": {
        "type": "LineString",
        "coordinates": [
          [
            8.7487289,
            40.2991013
          ],
          [
            8.7487325,
            40.2991284
          ],
          [
            8.7487247,
            40.2991549
          ],
          [
            8.7487063,
            40.2991782
          ],
          [
            8.7486793,
            40.2991959
          ],
          [
            8.7486464,
            40.2992062
          ],
          [
            8.7486108,
            40.2992081
          ],
          [
            8.748574,
            40.2992006
          ],
          [
            8.7485426,
            40.2991841
          ],
          [
            8.7485203,
            40.2991605
          ],
          [
            8.7485097,
            40.2991326
          ],
          [
            8.748512,
            40.2991036
          ],
          [
            8.748527,
            40.2990768
          ],
          [
            8.7485528,
            40.2990555
          ],
          [
            8.7485866,
            40.299042
          ],
          [
            8.7486244,
            40.2990379
          ],
          [
            8.7486593,
            40.2990431
          ],
          [
            8.7486904,
            40.2990564
          ],
          [
            8.7487144,
            40.2990765
          ],
          [
            8.7487289,
            40.2991013
          ]
        ]
      },
      "id": "osm-location",
      "type": "Feature",
      "properties": {
        "description": "Location based on OpenStreetMap",
        "location_precision": "precise",
        "title": "OSM location of Nuraghe Columbos",
        "link": "http://pleiades.stoa.org/places/237657888/osm-location"
      }
    }
  ]
}