{
  "type": "FeatureCollection",
  "title": "Unnamed bridge over the River Burbia",
  "id": "237834",
  "bbox": [
    -6.7758086,
    42.5424207,
    -6.7758086,
    42.5424207
  ],
  "description": "At modern Toral de los Vados.",
  "connectsWith": [
    "608189383"
  ],
  "features": [
    {
      "type": "Feature",
      "geometry": {
        "type": "Point",
        "coordinates": [
          -6.7758086,
          42.5424207
        ]
      },
      "properties": {
        "description": "representative point"
      }
    },
    {
      "geometry": {
        "type": "Point",
        "coordinates": [
          -6.7758086,
          42.5424207
        ]
      },
      "id": "osm-location-of-toral-de-los-vados",
      "type": "Feature",
      "properties": {
        "description": "Location based on OpenStreetMap",
        "location_precision": "precise",
        "title": "OSM location of Toral de los Vados",
        "link": "http://pleiades.stoa.org/places/237834/osm-location-of-toral-de-los-vados"
      }
    }
  ]
}