{
  "type": "FeatureCollection",
  "title": "tribus Teretina",
  "id": "239510733",
  "bbox": [
    13.753513,
    41.4273745,
    13.7974238,
    41.6209946
  ],
  "description": "Established in 299 B.C., the tribus Teretina was one of the later rural tribes of ancient Rome.",
  "connectsWith": [
    "423025"
  ],
  "names": [
    "Teretina"
  ],
  "features": [
    {
      "type": "Feature",
      "geometry": {
        "type": "Point",
        "coordinates": [
          13.7755453887,
          41.5241871025
        ]
      },
      "properties": {
        "description": "representative point"
      }
    }
  ]
}