{
  "type": "FeatureCollection",
  "title": "Akontia",
  "id": "240852",
  "description": "An ancient place in the conventus Cluniensis. Its precise location has not been determined.",
  "connectsWith": [
    "459346465"
  ],
  "names": [
    "Akontia"
  ],
  "features": [
    {
      "type": "Feature",
      "geometry": null,
      "properties": {
        "description": "representative point"
      }
    },
    {
      "geometry": null,
      "id": "batlas-location",
      "type": "Feature",
      "properties": {
        "description": null,
        "location_precision": "unlocated",
        "title": "Barrington Atlas location",
        "link": "http://pleiades.stoa.org/places/240852/batlas-location"
      }
    }
  ]
}