{
  "type": "FeatureCollection",
  "title": "Li Muri necropolis",
  "id": "243340660",
  "bbox": [
    9.3213846,
    41.0699929,
    9.3217593,
    41.0702791
  ],
  "description": "A necropolis with four dolmens surrounded by small kerbstone circles.",
  "connectsWith": [
    "472014"
  ],
  "features": [
    {
      "type": "Feature",
      "geometry": {
        "type": "Point",
        "coordinates": [
          9.32156638987,
          41.0701264947
        ]
      },
      "properties": {
        "description": "representative point"
      }
    },
    {
      "geometry": {
        "type": "LineString",
        "coordinates": [
          [
            9.3213846,
            41.0700674
          ],
          [
            9.3215477,
            41.0699929
          ],
          [
            9.3215804,
            41.070016
          ],
          [
            9.3216071,
            41.0700108
          ],
          [
            9.3216417,
            41.0699981
          ],
          [
            9.3217593,
            41.0701673
          ],
          [
            9.3214973,
            41.0702791
          ],
          [
            9.3213846,
            41.0700674
          ]
        ]
      },
      "id": "location-of-li-muri-tombs",
      "type": "Feature",
      "properties": {
        "description": "Representative location based on OpenStreetMap.",
        "location_precision": "precise",
        "title": "OSM location of Li Muri tombs",
        "link": "http://pleiades.stoa.org/places/243340660/location-of-li-muri-tombs"
      }
    }
  ]
}