{
  "type": "FeatureCollection",
  "title": "Beacon Hill Hillfort",
  "id": "245109546",
  "bbox": [
    -1.3474633,
    51.3110903,
    -1.3420318,
    51.3139833
  ],
  "description": "Beacon Hill Hill fort is an Iron Age hill fort in Hampshire, England.",
  "names": [
    "Beacon Hill Hillfort"
  ],
  "features": [
    {
      "type": "Feature",
      "geometry": {
        "type": "Point",
        "coordinates": [
          -1.34467661629,
          51.3125582624
        ]
      },
      "properties": {
        "description": "representative point"
      }
    },
    {
      "geometry": {
        "type": "LineString",
        "coordinates": [
          [
            -1.3463743,
            51.3135063
          ],
          [
            -1.346318,
            51.3135734
          ],
          [
            -1.3461785,
            51.3136941
          ],
          [
            -1.3460686,
            51.3138014
          ],
          [
            -1.3459774,
            51.3138885
          ],
          [
            -1.3458567,
            51.3139439
          ],
          [
            -1.3457675,
            51.3139833
          ],
          [
            -1.3455267,
            51.3139797
          ],
          [
            -1.3451407,
            51.3137528
          ],
          [
            -1.3448857,
            51.3135549
          ],
          [
            -1.3446926,
            51.3134392
          ],
          [
            -1.3446202,
            51.3134023
          ],
          [
            -1.3443761,
            51.3133286
          ],
          [
            -1.3441749,
            51.3132749
          ],
          [
            -1.3439362,
            51.3132414
          ],
          [
            -1.34383,
            51.3132297
          ],
          [
            -1.3433166,
            51.3131961
          ],
          [
            -1.3431047,
            51.3131928
          ],
          [
            -1.3427882,
            51.313171
          ],
          [
            -1.3425495,
            51.3130972
          ],
          [
            -1.3423054,
            51.3130084
          ],
          [
            -1.3422303,
            51.3129379
          ],
          [
            -1.3421177,
            51.3127435
          ],
          [
            -1.3420533,
            51.3126177
          ],
          [
            -1.3420318,
            51.3124132
          ],
          [
            -1.3420828,
            51.3122791
          ],
          [
            -1.342174,
            51.3120276
          ],
          [
            -1.3423215,
            51.311828
          ],
          [
            -1.3425468,
            51.3115766
          ],
          [
            -1.3427212,
            51.3114156
          ],
          [
            -1.3428016,
            51.3113083
          ],
          [
            -1.3428338,
            51.311263
          ],
          [
            -1.3430135,
            51.3111842
          ],
          [
            -1.3431825,
            51.3111138
          ],
          [
            -1.343212,
            51.311092
          ],
          [
            -1.3433166,
            51.3110903
          ],
          [
            -1.34355,
            51.3111172
          ],
          [
            -1.3436975,
            51.3111574
          ],
          [
            -1.343896,
            51.3112479
          ],
          [
            -1.3440489,
            51.3114089
          ],
          [
            -1.34425,
            51.31159
          ],
          [
            -1.3444646,
            51.3117744
          ],
          [
            -1.3446202,
            51.3118716
          ],
          [
            -1.3447489,
            51.3119488
          ],
          [
            -1.3448616,
            51.3120259
          ],
          [
            -1.3449581,
            51.312093
          ],
          [
            -1.3451217,
            51.3121516
          ],
          [
            -1.3452854,
            51.3121801
          ],
          [
            -1.3454248,
            51.3122019
          ],
          [
            -1.3455616,
            51.3122187
          ],
          [
            -1.3456689,
            51.3122288
          ],
          [
            -1.3458888,
            51.312207
          ],
          [
            -1.3463341,
            51.3121449
          ],
          [
            -1.3465648,
            51.3121164
          ],
          [
            -1.346782,
            51.3120812
          ],
          [
            -1.3469671,
            51.3120829
          ],
          [
            -1.3471361,
            51.3120913
          ],
          [
            -1.3473185,
            51.3121818
          ],
          [
            -1.347415,
            51.3122925
          ],
          [
            -1.3474633,
            51.3125322
          ],
          [
            -1.347289,
            51.312782
          ],
          [
            -1.3470261,
            51.3130117
          ],
          [
            -1.3464923,
            51.313399
          ],
          [
            -1.3463743,
            51.3135063
          ]
        ]
      },
      "id": "osm-location-beacon-hill-hillfort",
      "type": "Feature",
      "properties": {
        "description": "Representative location based on OpenStreetMap",
        "location_precision": "precise",
        "title": "OSM location: Beacon Hill Hillfort",
        "link": "http://pleiades.stoa.org/places/245109546/osm-location-beacon-hill-hillfort"
      }
    }
  ]
}