{
  "type": "FeatureCollection",
  "title": "Abánades",
  "id": "246132",
  "bbox": [
    -2.48571,
    40.891515,
    -2.48571,
    40.891515
  ],
  "description": "An ancient place, cited: BAtlas 25 C5 Abánades",
  "features": [
    {
      "type": "Feature",
      "geometry": {
        "type": "Point",
        "coordinates": [
          -2.48571,
          40.891515
        ]
      },
      "properties": {
        "description": "representative point"
      }
    },
    {
      "geometry": {
        "type": "Point",
        "coordinates": [
          -2.48571,
          40.891515
        ]
      },
      "id": "darmc-location-29919",
      "type": "Feature",
      "properties": {
        "description": "1:1 million scale representative point location digitized from the Barrington Atlas of the Greek and Roman World by the Digital Atlas of Roman and Medieval Civilizations project at Harvard University.",
        "location_precision": "precise",
        "title": "DARMC location 29919",
        "link": "http://pleiades.stoa.org/places/246132/darmc-location-29919"
      }
    }
  ]
}