{
  "type": "FeatureCollection",
  "title": "L’Ecluse",
  "id": "246375",
  "bbox": [
    2.838613,
    42.4826755,
    2.8423901,
    42.485781
  ],
  "description": "Remains of fortifications dating to the Late Roman period.",
  "connectsWith": [
    "834876934"
  ],
  "names": [
    "Les Cluses"
  ],
  "features": [
    {
      "type": "Feature",
      "geometry": {
        "type": "Point",
        "coordinates": [
          2.8410946,
          42.4837140333
        ]
      },
      "properties": {
        "description": "representative point"
      }
    },
    {
      "geometry": {
        "type": "Point",
        "coordinates": [
          2.838613,
          42.485781
        ]
      },
      "id": "darmc-location-7898",
      "type": "Feature",
      "properties": {
        "description": "1M scale point location",
        "location_precision": "precise",
        "title": "DARMC location 7898",
        "link": "http://pleiades.stoa.org/places/246375/darmc-location-7898"
      }
    },
    {
      "geometry": {
        "type": "Point",
        "coordinates": [
          2.8422807,
          42.4826856
        ]
      },
      "id": "dare-location",
      "type": "Feature",
      "properties": {
        "description": "Representative point location, site precision",
        "location_precision": "precise",
        "title": "DARE Location",
        "link": "http://pleiades.stoa.org/places/246375/dare-location"
      }
    },
    {
      "geometry": {
        "type": "Point",
        "coordinates": [
          2.8423901,
          42.4826755
        ]
      },
      "id": "osm-location-of-ruines-romaines",
      "type": "Feature",
      "properties": {
        "description": "Representative location based on OpenStreetMap",
        "location_precision": "precise",
        "title": "OSM location of Ruines Romaines",
        "link": "http://pleiades.stoa.org/places/246375/osm-location-of-ruines-romaines"
      }
    }
  ]
}