{
  "type": "FeatureCollection",
  "title": "Indigetes",
  "id": "246440",
  "bbox": [
    2.4457855,
    42.0934892,
    3.1247146,
    42.3565425
  ],
  "description": "A pre-Roman, Iberian people known primarily through their coinage, which bears the inscription \"UNTIKESKEN\" (q.v.). They seem to have occupied an area in the northeast of the Iberian peninsula, included the coastal area between the Muga and Fluvià rivers.",
  "connectsWith": [
    "246691",
    "246337"
  ],
  "names": [
    "Indigetes",
    "Indicetes",
    "Untikesken"
  ],
  "features": [
    {
      "type": "Feature",
      "geometry": {
        "type": "Point",
        "coordinates": [
          2.78403818515,
          42.2372814066
        ]
      },
      "properties": {
        "description": "representative point"
      }
    }
  ]
}