{
  "type": "FeatureCollection",
  "title": "*Voluca",
  "id": "246751",
  "bbox": [
    -2.817623,
    41.699617,
    -2.817623,
    41.699617
  ],
  "description": "An ancient place, cited: BAtlas 25 C4 *Voluca",
  "names": [
    "Voluca",
    "Ouelouka"
  ],
  "features": [
    {
      "type": "Feature",
      "geometry": {
        "type": "Point",
        "coordinates": [
          -2.817623,
          41.699617
        ]
      },
      "properties": {
        "description": "representative point"
      }
    },
    {
      "geometry": {
        "type": "Point",
        "coordinates": [
          -2.817623,
          41.699617
        ]
      },
      "id": "darmc-location-19896",
      "type": "Feature",
      "properties": {
        "description": "1:1 million scale representative point location digitized from the Barrington Atlas of the Greek and Roman World by the Digital Atlas of Roman and Medieval Civilizations project at Harvard University.",
        "location_precision": "precise",
        "title": "DARMC location 19896",
        "link": "http://pleiades.stoa.org/places/246751/darmc-location-19896"
      }
    }
  ]
}