{
  "type": "FeatureCollection",
  "title": "Monument La Torratxa (Vilablareix)",
  "id": "246745",
  "bbox": [
    2.7740135,
    41.9544074,
    2.7740135,
    41.9544074
  ],
  "description": "A Roman funerary monument located at modern Vilablareix, southwest of Girona, in Catalonia.",
  "names": [
    "Vilablareix",
    "monument funerari romà de la Torratxa de Vilablareix (Gironès)"
  ],
  "features": [
    {
      "type": "Feature",
      "geometry": {
        "type": "Point",
        "coordinates": [
          2.7740135,
          41.9544074
        ]
      },
      "properties": {
        "description": "representative point"
      }
    },
    {
      "geometry": {
        "type": "Point",
        "coordinates": [
          2.7740135,
          41.9544074
        ]
      },
      "id": "osm-location-of-la-torraxta",
      "type": "Feature",
      "properties": {
        "description": "Representative location based on OpenStreetMap",
        "location_precision": "precise",
        "title": "OSM location of La Torraxta",
        "link": "http://pleiades.stoa.org/places/246745/osm-location-of-la-torraxta"
      }
    }
  ]
}