{
  "type": "FeatureCollection",
  "title": "Torrente de Cinca (Fraga)",
  "id": "246892",
  "bbox": [
    0.410824,
    41.462854,
    0.410824,
    41.462854
  ],
  "description": "An ancient aqueduct, located to the west of Keresos.",
  "connectsWith": [
    "246451"
  ],
  "names": [
    "Torrente de Cinca (Fraga)"
  ],
  "features": [
    {
      "type": "Feature",
      "geometry": {
        "type": "Point",
        "coordinates": [
          0.410824,
          41.462854
        ]
      },
      "properties": {
        "description": "representative point"
      }
    },
    {
      "geometry": {
        "type": "Polygon",
        "coordinates": [
          [
            [
              0.0,
              41.0
            ],
            [
              0.0,
              42.0
            ],
            [
              1.0,
              42.0
            ],
            [
              1.0,
              41.0
            ],
            [
              0.0,
              41.0
            ]
          ]
        ]
      },
      "id": "batlas-location",
      "type": "Feature",
      "properties": {
        "description": null,
        "location_precision": "rough",
        "title": "Barrington Atlas location",
        "link": "http://pleiades.stoa.org/places/246892/batlas-location"
      }
    }
  ]
}