{
  "type": "FeatureCollection",
  "title": "Macchia delle Valli, Vetralla",
  "id": "251060662",
  "bbox": [
    12.065592,
    42.288047,
    12.0658824,
    42.2883116
  ],
  "description": "A rock-cut Etrusco-Roman sanctuary sacred to Demeter that was discovered during rescue excavations in 2006 following looting activity. The sanctuary, set in a grove, remained in use until the second century A.D.",
  "connectsWith": [
    "291526921"
  ],
  "features": [
    {
      "type": "Feature",
      "geometry": {
        "type": "Point",
        "coordinates": [
          12.0657320216,
          42.2881984344
        ]
      },
      "properties": {
        "description": "representative point"
      }
    },
    {
      "geometry": {
        "type": "LineString",
        "coordinates": [
          [
            12.0657182,
            42.2883086
          ],
          [
            12.0656568,
            42.2882899
          ],
          [
            12.0656482,
            42.2882873
          ],
          [
            12.065665,
            42.2882432
          ],
          [
            12.0656513,
            42.2882234
          ],
          [
            12.0656254,
            42.288231
          ],
          [
            12.065592,
            42.2881991
          ],
          [
            12.0656513,
            42.2881383
          ],
          [
            12.0656847,
            42.2880774
          ],
          [
            12.0657425,
            42.288047
          ],
          [
            12.0657623,
            42.2880942
          ],
          [
            12.065738,
            42.288139
          ],
          [
            12.0657334,
            42.2881474
          ],
          [
            12.0657729,
            42.2881702
          ],
          [
            12.0658292,
            42.2881824
          ],
          [
            12.0658566,
            42.2882021
          ],
          [
            12.0658688,
            42.288223
          ],
          [
            12.0658824,
            42.2882462
          ],
          [
            12.0658094,
            42.2883116
          ],
          [
            12.0657653,
            42.2882873
          ],
          [
            12.0657182,
            42.2883086
          ]
        ]
      },
      "id": "osm-location-of-santuario-rupestre-di-demetra-vei",
      "type": "Feature",
      "properties": {
        "description": "Representative location based on OpenStreetMap.",
        "location_precision": "precise",
        "title": "OSM location of Santuario rupestre di Demetra-Vei-Cerere",
        "link": "http://pleiades.stoa.org/places/251060662/osm-location-of-santuario-rupestre-di-demetra-vei"
      }
    }
  ]
}