{
  "type": "FeatureCollection",
  "title": "Sesars",
  "id": "252984",
  "bbox": [
    -0.684245129526,
    42.1600444758,
    -0.398709808827,
    42.1600444758
  ],
  "description": "An ancient place, cited: BAtlas 25 unlocated Sesars",
  "connectsWith": [
    "246669"
  ],
  "names": [
    "Sesars"
  ],
  "features": [
    {
      "type": "Feature",
      "geometry": {
        "type": "Point",
        "coordinates": [
          -0.541477469176,
          42.1600444758
        ]
      },
      "properties": {
        "description": "representative point"
      }
    },
    {
      "geometry": null,
      "id": "batlas-location",
      "type": "Feature",
      "properties": {
        "description": null,
        "location_precision": "unlocated",
        "title": "Barrington Atlas location",
        "link": "http://pleiades.stoa.org/places/252984/batlas-location"
      }
    }
  ]
}