{
  "type": "FeatureCollection",
  "title": "Los Cuadriales",
  "id": "256139",
  "bbox": [
    -6.632598,
    38.427745,
    -6.632598,
    38.427745
  ],
  "description": "An ancient place, cited: BAtlas 26 D3 Los Cuadriales",
  "names": [
    "Los Cuadriales"
  ],
  "features": [
    {
      "type": "Feature",
      "geometry": {
        "type": "Point",
        "coordinates": [
          -6.632598,
          38.427745
        ]
      },
      "properties": {
        "description": "representative point"
      }
    },
    {
      "geometry": {
        "type": "Point",
        "coordinates": [
          -6.632598,
          38.427745
        ]
      },
      "id": "darmc-location-20596",
      "type": "Feature",
      "properties": {
        "description": "1:1 million scale representative point location digitized from the Barrington Atlas of the Greek and Roman World by the Digital Atlas of Roman and Medieval Civilizations project at Harvard University.",
        "location_precision": "precise",
        "title": "DARMC location 20596",
        "link": "http://pleiades.stoa.org/places/256139/darmc-location-20596"
      }
    }
  ]
}