{
  "type": "FeatureCollection",
  "title": "Italica",
  "id": "256231",
  "bbox": [
    -6.3561198,
    36.7967251,
    -2.7617124,
    38.1920078
  ],
  "description": "A city in Spain founded in 206 B.C. by Publius Cornelius Scipio Africanus as a site at which to settle Roman soldiers wounded in the Battle of Ilipa.",
  "connectsWith": [
    "256010"
  ],
  "names": [
    "Italica",
    "Italika"
  ],
  "features": [
    {
      "type": "Feature",
      "geometry": {
        "type": "Point",
        "coordinates": [
          -6.04391157024,
          37.4418601531
        ]
      },
      "properties": {
        "description": "representative point"
      }
    }
  ]
}