{
  "type": "FeatureCollection",
  "title": "Norba/Col. Norbensis Caesarina",
  "id": "256327",
  "bbox": [
    -6.3722106,
    39.4743375,
    -6.3722106,
    39.4743375
  ],
  "description": "An Roman settlement, modern Cáceres in Spain. ",
  "names": [
    "Norba",
    "Colonia Norbensis Caesarina",
    "Norba Kaisareia"
  ],
  "features": [
    {
      "type": "Feature",
      "geometry": {
        "type": "Point",
        "coordinates": [
          -6.3722106,
          39.4743375
        ]
      },
      "properties": {
        "description": "representative point"
      }
    },
    {
      "geometry": {
        "type": "LineString",
        "coordinates": [
          [
            -6.3721958,
            39.474342
          ],
          [
            -6.3720744,
            39.4742784
          ],
          [
            -6.3720053,
            39.4742422
          ],
          [
            -6.3719291,
            39.4743309
          ],
          [
            -6.3718333,
            39.4742845
          ],
          [
            -6.3717808,
            39.4743444
          ],
          [
            -6.3716738,
            39.474467
          ],
          [
            -6.3719544,
            39.4746195
          ],
          [
            -6.3721958,
            39.474342
          ]
        ]
      },
      "id": "location-of-caceres-spain",
      "type": "Feature",
      "properties": {
        "description": "Associated modern location. Geometry derived from an Open Street Map way.",
        "location_precision": "precise",
        "title": "OSM location of modern Cáceres, Spain",
        "link": "http://pleiades.stoa.org/places/256327/location-of-caceres-spain"
      }
    }
  ]
}