{
  "type": "FeatureCollection",
  "title": "Mirobriga",
  "id": "256302",
  "bbox": [
    -5.084293,
    38.8202856,
    -5.0840713,
    38.82045
  ],
  "description": "Mirobriga was a settlement located west of Almadén mentioned by Pliny the Elder.",
  "connectsWith": [
    "256489"
  ],
  "names": [
    "Mirobriga",
    "Mirobriga Turdulorum"
  ],
  "features": [
    {
      "type": "Feature",
      "geometry": {
        "type": "Point",
        "coordinates": [
          -5.08418215,
          38.8203678
        ]
      },
      "properties": {
        "description": "representative point"
      }
    },
    {
      "geometry": {
        "type": "Point",
        "coordinates": [
          -5.084293,
          38.82045
        ]
      },
      "id": "darmc-location-7624",
      "type": "Feature",
      "properties": {
        "description": "1:1 million scale representative point location digitized from the Barrington Atlas of the Greek and Roman World by the Digital Atlas of Roman and Medieval Civilizations project at Harvard University.",
        "location_precision": "precise",
        "title": "DARMC location 7624",
        "link": "http://pleiades.stoa.org/places/256302/darmc-location-7624"
      }
    },
    {
      "geometry": {
        "type": "Point",
        "coordinates": [
          -5.0840713,
          38.8202856
        ]
      },
      "id": "osm-location-of-capilla",
      "type": "Feature",
      "properties": {
        "description": "Location based on OpenStreetMap",
        "location_precision": "precise",
        "title": "OSM location of Capilla",
        "link": "http://pleiades.stoa.org/places/256302/osm-location-of-capilla"
      }
    }
  ]
}