{
  "type": "FeatureCollection",
  "title": "Scallabis/Praesidium Iulium",
  "id": "256438",
  "bbox": [
    -8.6785318,
    39.2329482,
    -8.6750936,
    39.2354237
  ],
  "description": "An ancient place, cited: BAtlas 26 B2 Scallabis/Praesidium Iulium",
  "connectsWith": [
    "256463"
  ],
  "names": [
    "Scallabis",
    "Praesidium Iulium",
    "Col. Scallabitana",
    "Col. Scalabitana",
    "Scalabis",
    "Şenterīn",
    "Santarém"
  ],
  "features": [
    {
      "type": "Feature",
      "geometry": {
        "type": "Point",
        "coordinates": [
          -8.67646951485,
          39.234008303
        ]
      },
      "properties": {
        "description": "representative point"
      }
    },
    {
      "geometry": {
        "type": "LineString",
        "coordinates": [
          [
            -8.6772491,
            39.2332995
          ],
          [
            -8.6771974,
            39.2332198
          ],
          [
            -8.6768068,
            39.2330034
          ],
          [
            -8.676775,
            39.2329515
          ],
          [
            -8.6764673,
            39.2334651
          ],
          [
            -8.6763238,
            39.2335449
          ],
          [
            -8.6763131,
            39.2335325
          ],
          [
            -8.6762931,
            39.2335195
          ],
          [
            -8.6762799,
            39.2335169
          ],
          [
            -8.6762698,
            39.2335181
          ],
          [
            -8.6762589,
            39.2335216
          ],
          [
            -8.6762398,
            39.2335327
          ],
          [
            -8.6762077,
            39.2335297
          ],
          [
            -8.676154,
            39.2335188
          ],
          [
            -8.6759781,
            39.2334823
          ],
          [
            -8.6757737,
            39.2334316
          ],
          [
            -8.675678,
            39.2333226
          ],
          [
            -8.6756769,
            39.2333056
          ],
          [
            -8.6756401,
            39.2332843
          ],
          [
            -8.6754725,
            39.2332029
          ],
          [
            -8.675281,
            39.2331289
          ],
          [
            -8.6752817,
            39.23312
          ],
          [
            -8.6752808,
            39.2331121
          ],
          [
            -8.6752743,
            39.2331049
          ],
          [
            -8.6752685,
            39.2331014
          ],
          [
            -8.6752568,
            39.2331004
          ],
          [
            -8.6752457,
            39.233102
          ],
          [
            -8.6752366,
            39.233106
          ],
          [
            -8.675233,
            39.23311
          ],
          [
            -8.6752303,
            39.2331181
          ],
          [
            -8.6752303,
            39.233127
          ],
          [
            -8.6750577,
            39.2333343
          ],
          [
            -8.6751055,
            39.2333599
          ],
          [
            -8.6751033,
            39.233442
          ],
          [
            -8.6750871,
            39.2335052
          ],
          [
            -8.675071,
            39.2335437
          ],
          [
            -8.6750549,
            39.2336469
          ],
          [
            -8.6750534,
            39.233783
          ],
          [
            -8.6750565,
            39.2339197
          ],
          [
            -8.6751457,
            39.2340629
          ],
          [
            -8.6752311,
            39.2341863
          ],
          [
            -8.6754411,
            39.2343649
          ],
          [
            -8.6755623,
            39.2344662
          ],
          [
            -8.6757206,
            39.2345601
          ],
          [
            -8.6756786,
            39.2345807
          ],
          [
            -8.6757767,
            39.2347091
          ],
          [
            -8.6758416,
            39.2347615
          ],
          [
            -8.675804,
            39.2347926
          ],
          [
            -8.675824,
            39.2348111
          ],
          [
            -8.6757727,
            39.2348497
          ],
          [
            -8.6758161,
            39.2350294
          ],
          [
            -8.6760073,
            39.2352126
          ],
          [
            -8.6760293,
            39.2351973
          ],
          [
            -8.6761806,
            39.2353086
          ],
          [
            -8.6762313,
            39.2353628
          ],
          [
            -8.6762722,
            39.2354182
          ],
          [
            -8.6763528,
            39.23538
          ],
          [
            -8.6764299,
            39.2353527
          ],
          [
            -8.6764766,
            39.2353408
          ],
          [
            -8.6765655,
            39.2352866
          ],
          [
            -8.676591,
            39.2352805
          ],
          [
            -8.6766058,
            39.2352604
          ],
          [
            -8.6766627,
            39.2352093
          ],
          [
            -8.6766924,
            39.2351695
          ],
          [
            -8.6767176,
            39.2351384
          ],
          [
            -8.6768033,
            39.2350547
          ],
          [
            -8.6768402,
            39.2350402
          ],
          [
            -8.6768411,
            39.2350461
          ],
          [
            -8.6768443,
            39.2350514
          ],
          [
            -8.6768536,
            39.2350549
          ],
          [
            -8.6768649,
            39.2350548
          ],
          [
            -8.676877,
            39.2350525
          ],
          [
            -8.6768752,
            39.2350426
          ],
          [
            -8.6770288,
            39.2349728
          ],
          [
            -8.677151,
            39.2348911
          ]
        ]
      },
      "id": "osm-location",
      "type": "Feature",
      "properties": {
        "description": "Representative location based on OpenStreetMap",
        "location_precision": "precise",
        "title": "OSM location of Restos das muralhas de Santarém",
        "link": "http://pleiades.stoa.org/places/256438/osm-location"
      }
    }
  ]
}