{
  "type": "FeatureCollection",
  "title": "Bridge over Gibralzo Arroyo",
  "id": "257478",
  "bbox": [
    -5.9152156,
    39.4289813,
    -5.9152156,
    39.4289813
  ],
  "description": "An ancient bridge located southwest of Turgalium, over Gibralzo Arroyo.",
  "connectsWith": [
    "256491"
  ],
  "features": [
    {
      "type": "Feature",
      "geometry": {
        "type": "Point",
        "coordinates": [
          -5.9152156,
          39.4289813
        ]
      },
      "properties": {
        "description": "representative point"
      }
    },
    {
      "geometry": {
        "type": "Point",
        "coordinates": [
          -5.9152156,
          39.4289813
        ]
      },
      "id": "osm-location-of-pte-del-cno-de-la-cumbre-trujillo",
      "type": "Feature",
      "properties": {
        "description": "Representative location based on OpenStreetMap",
        "location_precision": "precise",
        "title": "OSM location of Pte. del Cno. de la Cumbre, Trujillo",
        "link": "http://pleiades.stoa.org/places/257478/osm-location-of-pte-del-cno-de-la-cumbre-trujillo"
      }
    }
  ]
}