{
  "type": "FeatureCollection",
  "title": "Pennymuir",
  "id": "260256453",
  "bbox": [
    -2.3927786,
    55.4155563,
    -2.3861676,
    55.4210529
  ],
  "description": "Temporary Roman marching camps along the line of Dere Street.",
  "connectsWith": [
    "82519025"
  ],
  "features": [
    {
      "type": "Feature",
      "geometry": {
        "type": "Point",
        "coordinates": [
          -2.38920708957,
          55.4183965731
        ]
      },
      "properties": {
        "description": "representative point"
      }
    },
    {
      "geometry": {
        "type": "LineString",
        "coordinates": [
          [
            -2.3926691,
            55.4200779
          ],
          [
            -2.3927786,
            55.4199704
          ],
          [
            -2.3926776,
            55.4197482
          ],
          [
            -2.3904621,
            55.4156408
          ],
          [
            -2.3903519,
            55.4155715
          ],
          [
            -2.390212,
            55.4155563
          ],
          [
            -2.3874595,
            55.4159689
          ],
          [
            -2.387025,
            55.41605
          ],
          [
            -2.3869922,
            55.4161074
          ],
          [
            -2.3871398,
            55.4163387
          ],
          [
            -2.3882183,
            55.4180996
          ],
          [
            -2.3861676,
            55.4184825
          ],
          [
            -2.3866558,
            55.4192075
          ],
          [
            -2.3864117,
            55.4192696
          ],
          [
            -2.3865632,
            55.4194703
          ],
          [
            -2.3868158,
            55.4194273
          ],
          [
            -2.3877923,
            55.4208081
          ],
          [
            -2.3879492,
            55.4210529
          ],
          [
            -2.3926691,
            55.4200779
          ]
        ]
      },
      "id": "location-of-roman-camp",
      "type": "Feature",
      "properties": {
        "description": "Location based on OpenStreetMap",
        "location_precision": "precise",
        "title": "OSM location",
        "link": "http://pleiades.stoa.org/places/260256453/location-of-roman-camp"
      }
    }
  ]
}