{
  "type": "FeatureCollection",
  "title": "tribus Romilia",
  "id": "260329424",
  "bbox": [
    13.6139576,
    41.7203358,
    13.6139576,
    41.7203358
  ],
  "description": "An older rural tribe of ancient Rome that was located at the edge of Etruscan territory, across the river Tiber.",
  "connectsWith": [
    "423025",
    "432900"
  ],
  "names": [
    "Romilia"
  ],
  "features": [
    {
      "type": "Feature",
      "geometry": {
        "type": "Point",
        "coordinates": [
          13.6139576,
          41.7203358
        ]
      },
      "properties": {
        "description": "representative point"
      }
    }
  ]
}