{
  "type": "FeatureCollection",
  "title": "Massieni",
  "id": "261252",
  "description": "An ancient people whose territory is unlocated",
  "connectsWith": [
    "271061"
  ],
  "names": [
    "Massieni"
  ],
  "features": [
    {
      "type": "Feature",
      "geometry": null,
      "properties": {
        "description": "representative point"
      }
    },
    {
      "geometry": null,
      "id": "batlas-location",
      "type": "Feature",
      "properties": {
        "description": null,
        "location_precision": "unlocated",
        "title": "Barrington Atlas location",
        "link": "http://pleiades.stoa.org/places/261252/batlas-location"
      }
    }
  ]
}