{
  "type": "FeatureCollection",
  "title": "Basilica Damous el-Karita",
  "id": "263978015",
  "bbox": [
    10.3301307,
    36.8609311,
    10.331942,
    36.8620755
  ],
  "description": "A Christian basilica of the Byzantine period located in Carthage.",
  "connectsWith": [
    "314921"
  ],
  "features": [
    {
      "type": "Feature",
      "geometry": {
        "type": "Point",
        "coordinates": [
          10.3310601307,
          36.8614617182
        ]
      },
      "properties": {
        "description": "representative point"
      }
    },
    {
      "geometry": {
        "type": "LineString",
        "coordinates": [
          [
            10.3304143,
            36.8610341
          ],
          [
            10.3305859,
            36.8609311
          ],
          [
            10.3314871,
            36.8611233
          ],
          [
            10.331942,
            36.8615628
          ],
          [
            10.3318997,
            36.8616636
          ],
          [
            10.3315591,
            36.8620295
          ],
          [
            10.3315199,
            36.8620755
          ],
          [
            10.3301307,
            36.8614196
          ],
          [
            10.3304143,
            36.8610341
          ]
        ]
      },
      "id": "location-of-basilica-damous-el-karita",
      "type": "Feature",
      "properties": {
        "description": "Representative location based on OpenStreetMap.",
        "location_precision": "precise",
        "title": "OSM location of Basilica Damous el-Karita",
        "link": "http://pleiades.stoa.org/places/263978015/location-of-basilica-damous-el-karita"
      }
    }
  ]
}