{
  "type": "FeatureCollection",
  "title": "Abdera",
  "id": "265762",
  "bbox": [
    -3.022514,
    36.748068,
    -3.022514,
    36.748068
  ],
  "description": "An ancient Phoenician port settlement at modern Adra on the southern Spanish coast that was continually inhabited through the end of the Roman period.",
  "names": [
    "Abdera",
    "Abdara",
    "Adra"
  ],
  "features": [
    {
      "type": "Feature",
      "geometry": {
        "type": "Point",
        "coordinates": [
          -3.022514,
          36.748068
        ]
      },
      "properties": {
        "description": "representative point"
      }
    },
    {
      "geometry": {
        "type": "Point",
        "coordinates": [
          -3.022514,
          36.748068
        ]
      },
      "id": "darmc-location-7542",
      "type": "Feature",
      "properties": {
        "description": "1:1 million scale representative point location digitized from the Barrington Atlas of the Greek and Roman World by the Digital Atlas of Roman and Medieval Civilizations project at Harvard University.",
        "location_precision": "precise",
        "title": "DARMC location 7542",
        "link": "http://pleiades.stoa.org/places/265762/darmc-location-7542"
      }
    }
  ]
}