{
  "type": "FeatureCollection",
  "title": "Ilounon?",
  "id": "265928",
  "bbox": [
    -1.6070951,
    38.4767844,
    -1.6070951,
    38.4767844
  ],
  "description": "Ilunum was an early Roman hilltop oppidum and it was abandoned in the second century A.D. and then reoccupied in Late Antiquity (ca. A.D. 590) as a Visigothic episcopal see during the Byzantine-Visigothic war. It was finally abandoned in the ninth century, and the population was resettled in Murcia, a new foundation.",
  "names": [
    "Ilounon"
  ],
  "features": [
    {
      "type": "Feature",
      "geometry": {
        "type": "Point",
        "coordinates": [
          -1.6070951,
          38.4767844
        ]
      },
      "properties": {
        "description": "representative point"
      }
    },
    {
      "geometry": {
        "type": "Point",
        "coordinates": [
          -1.6070951,
          38.4767844
        ]
      },
      "id": "osm-location-of-parque-arqueola3gico-del-tolmo-de",
      "type": "Feature",
      "properties": {
        "description": "Representative location based on OpenStreetMap",
        "location_precision": "precise",
        "title": "OSM location of Parque Arqueológico del Tolmo de Minateda",
        "link": "http://pleiades.stoa.org/places/265928/osm-location-of-parque-arqueola3gico-del-tolmo-de"
      }
    }
  ]
}