{
  "type": "FeatureCollection",
  "title": "Burano (island)",
  "id": "267661292",
  "bbox": [
    12.4130577,
    45.4830402,
    12.4214753,
    45.4876417
  ],
  "description": "Burano is an island in the Venetian Lagoon. It may have been settled in Roman times by refugees from Altinum.",
  "connectsWith": [
    "480318651"
  ],
  "names": [
    "Burano"
  ],
  "features": [
    {
      "type": "Feature",
      "geometry": {
        "type": "Point",
        "coordinates": [
          12.4170714892,
          45.4855248206
        ]
      },
      "properties": {
        "description": "representative point"
      }
    },
    {
      "geometry": {
        "type": "LineString",
        "coordinates": [
          [
            12.4211555,
            45.4843719
          ],
          [
            12.4212189,
            45.4844517
          ],
          [
            12.4213446,
            45.4846098
          ],
          [
            12.4214463,
            45.484952
          ],
          [
            12.4214501,
            45.4849921
          ],
          [
            12.4214753,
            45.4852574
          ],
          [
            12.4214594,
            45.4853325
          ],
          [
            12.421411,
            45.4855613
          ],
          [
            12.4213945,
            45.4856391
          ],
          [
            12.4207337,
            45.4864274
          ],
          [
            12.4202358,
            45.4867163
          ],
          [
            12.4197723,
            45.4868667
          ],
          [
            12.4194459,
            45.4871103
          ],
          [
            12.4191096,
            45.4871904
          ],
          [
            12.4184891,
            45.4873382
          ],
          [
            12.4182182,
            45.4873628
          ],
          [
            12.4182045,
            45.4873548
          ],
          [
            12.418206,
            45.4872944
          ],
          [
            12.4181556,
            45.4872944
          ],
          [
            12.4181533,
            45.4873323
          ],
          [
            12.4181327,
            45.4873409
          ],
          [
            12.4179153,
            45.48735
          ],
          [
            12.4179054,
            45.4873461
          ],
          [
            12.4177467,
            45.487342
          ],
          [
            12.4173188,
            45.4873864
          ],
          [
            12.4172022,
            45.4873791
          ],
          [
            12.4166578,
            45.4873176
          ],
          [
            12.4165543,
            45.4873249
          ],
          [
            12.416453,
            45.4873416
          ],
          [
            12.4164276,
            45.4873458
          ],
          [
            12.4163976,
            45.4873515
          ],
          [
            12.4162779,
            45.487374
          ],
          [
            12.416133,
            45.487403
          ],
          [
            12.4159728,
            45.4874303
          ],
          [
            12.4151387,
            45.4875435
          ],
          [
            12.4144503,
            45.4876417
          ],
          [
            12.4144353,
            45.4876353
          ],
          [
            12.4144208,
            45.4876293
          ],
          [
            12.4144058,
            45.4876231
          ],
          [
            12.41412,
            45.4875028
          ],
          [
            12.4141895,
            45.4873887
          ],
          [
            12.4136207,
            45.4867607
          ],
          [
            12.413463,
            45.4868444
          ],
          [
            12.4133573,
            45.4868856
          ],
          [
            12.4132302,
            45.4867538
          ],
          [
            12.4132224,
            45.4867134
          ],
          [
            12.4130577,
            45.4859449
          ],
          [
            12.41359,
            45.485921
          ],
          [
            12.4136034,
            45.4858225
          ],
          [
            12.4133955,
            45.4857945
          ],
          [
            12.4133083,
            45.4858699
          ],
          [
            12.4132297,
            45.485867
          ],
          [
            12.4132027,
            45.4858268
          ],
          [
            12.4132944,
            45.4857027
          ],
          [
            12.4133711,
            45.4856767
          ],
          [
            12.4133805,
            45.4856399
          ],
          [
            12.4133022,
            45.4856342
          ],
          [
            12.4135031,
            45.4854207
          ],
          [
            12.4139043,
            45.4852205
          ],
          [
            12.4145514,
            45.4849711
          ],
          [
            12.4147768,
            45.4849039
          ],
          [
            12.4147467,
            45.4848037
          ],
          [
            12.4147446,
            45.4847018
          ],
          [
            12.4147443,
            45.4846879
          ],
          [
            12.4147439,
            45.4846659
          ],
          [
            12.4147678,
            45.4846408
          ],
          [
            12.4152237,
            45.484327
          ],
          [
            12.4155117,
            45.4841424
          ],
          [
            12.4155123,
            45.4841317
          ],
          [
            12.4155412,
            45.484115
          ],
          [
            12.4155919,
            45.4841588
          ],
          [
            12.4157728,
            45.4840477
          ],
          [
            12.4157133,
            45.4840076
          ],
          [
            12.4157996,
            45.4839494
          ],
          [
            12.4158551,
            45.4839068
          ],
          [
            12.4159335,
            45.4838522
          ],
          [
            12.41598,
            45.4838879
          ],
          [
            12.416007,
            45.4838714
          ],
          [
            12.4160391,
            45.4838519
          ],
          [
            12.4160304,
            45.4838454
          ],
          [
            12.415993,
            45.4838173
          ],
          [
            12.4160664,
            45.483774
          ],
          [
            12.4161188,
            45.483817
          ],
          [
            12.4162844,
            45.4837103
          ],
          [
            12.416232,
            45.4836701
          ],
          [
            12.416474,
            45.4835206
          ],
          [
            12.416489,
            45.4835214
          ],
          [
            12.4165251,
            45.4835235
          ],
          [
            12.4168468,
            45.4835576
          ],
          [
            12.4169488,
            45.4834791
          ],
          [
            12.4169348,
            45.4834709
          ],
          [
            12.4171293,
            45.4833202
          ],
          [
            12.4171487,
            45.4833307
          ],
          [
            12.4172225,
            45.4832779
          ],
          [
            12.4173072,
            45.4833289
          ],
          [
            12.4176534,
            45.4830617
          ],
          [
            12.417683,
            45.4830402
          ],
          [
            12.4177362,
            45.4830751
          ],
          [
            12.4177587,
            45.4830932
          ],
          [
            12.4180113,
            45.4832609
          ],
          [
            12.4180328,
            45.4832752
          ],
          [
            12.4180827,
            45.4833048
          ],
          [
            12.4181486,
            45.4833398
          ],
          [
            12.4183015,
            45.4832321
          ],
          [
            12.4183372,
            45.4832168
          ],
          [
            12.4184357,
            45.4831746
          ],
          [
            12.4184877,
            45.4831637
          ],
          [
            12.4185297,
            45.4831605
          ],
          [
            12.4185676,
            45.4831631
          ],
          [
            12.4189532,
            45.4832792
          ],
          [
            12.419272,
            45.4833887
          ],
          [
            12.4198176,
            45.483743
          ],
          [
            12.4197411,
            45.4838433
          ],
          [
            12.4197917,
            45.4838655
          ],
          [
            12.4198681,
            45.4839002
          ],
          [
            12.4209225,
            45.4841648
          ],
          [
            12.4211555,
            45.4843719
          ]
        ]
      },
      "id": "osm-location-of-burano",
      "type": "Feature",
      "properties": {
        "description": "Location based on OpenStreetMap",
        "location_precision": "precise",
        "title": "OSM location of Burano",
        "link": "http://pleiades.stoa.org/places/267661292/osm-location-of-burano"
      }
    }
  ]
}