{
  "type": "FeatureCollection",
  "title": "Roman amphitheater at Trebula Mutuesca",
  "id": "271347289",
  "bbox": [
    12.8669152,
    42.2280578,
    12.8683105,
    42.2287905
  ],
  "description": "The archaeological remains of the Roman amphitheater at Trebula Mutuesca are located at Monteleone Sabino in the Province of Rieti, Italy.",
  "connectsWith": [
    "413350"
  ],
  "features": [
    {
      "type": "Feature",
      "geometry": {
        "type": "Point",
        "coordinates": [
          12.867594003,
          42.2284516911
        ]
      },
      "properties": {
        "description": "representative point"
      }
    },
    {
      "geometry": {
        "type": "LineString",
        "coordinates": [
          [
            12.8678961,
            42.2281679
          ],
          [
            12.8676215,
            42.2280578
          ],
          [
            12.867542,
            42.2281557
          ],
          [
            12.8676072,
            42.2282894
          ],
          [
            12.8674778,
            42.2283519
          ],
          [
            12.8672947,
            42.2283192
          ],
          [
            12.8669152,
            42.2283649
          ],
          [
            12.866942,
            42.2285516
          ],
          [
            12.8671781,
            42.2287333
          ],
          [
            12.8674287,
            42.2287905
          ],
          [
            12.8677119,
            42.2287707
          ],
          [
            12.8679261,
            42.2287118
          ],
          [
            12.8681415,
            42.2285312
          ],
          [
            12.8683105,
            42.2283809
          ],
          [
            12.8680872,
            42.2282585
          ],
          [
            12.8678961,
            42.2281679
          ]
        ]
      },
      "id": "location-of-roman-amphitheater",
      "type": "Feature",
      "properties": {
        "description": "Representative location based on OpenStreetMap.",
        "location_precision": "precise",
        "title": "OSM location of Roman amphitheater",
        "link": "http://pleiades.stoa.org/places/271347289/location-of-roman-amphitheater"
      }
    }
  ]
}