{
  "type": "FeatureCollection",
  "title": "Via Tiburtina",
  "id": "272213281",
  "bbox": [
    12.5013266,
    41.8957242,
    12.79818,
    41.963602
  ],
  "description": "An ancient road heading east-northeast from Rome to Tibur.",
  "names": [
    "via Tiburtina",
    "Via Tyburtina"
  ],
  "features": [
    {
      "type": "Feature",
      "geometry": {
        "type": "Point",
        "coordinates": [
          12.6296037071,
          41.9393598386
        ]
      },
      "properties": {
        "description": "representative point"
      }
    }
  ]
}