{
  "type": "FeatureCollection",
  "title": "Scarborough Castle",
  "id": "272290638",
  "bbox": [
    -0.391396,
    54.2851253,
    -0.3854422,
    54.2896743
  ],
  "description": "The ruins of a medieval castle built ca. A.D. 1135 by William le Gros, Earl of Albemarle. Now an English Heritage site.",
  "connectsWith": [
    "89285"
  ],
  "names": [
    "Scarborough Castle"
  ],
  "features": [
    {
      "type": "Feature",
      "geometry": {
        "type": "Point",
        "coordinates": [
          -0.388231582892,
          54.2873820683
        ]
      },
      "properties": {
        "description": "representative point"
      }
    },
    {
      "geometry": {
        "type": "LineString",
        "coordinates": [
          [
            -0.3898962,
            54.2871589
          ],
          [
            -0.3898825,
            54.2871688
          ],
          [
            -0.3898781,
            54.2872769
          ],
          [
            -0.3898776,
            54.2872883
          ],
          [
            -0.3899055,
            54.2873091
          ],
          [
            -0.3899227,
            54.2873354
          ],
          [
            -0.3901269,
            54.2873739
          ],
          [
            -0.3901318,
            54.287375
          ],
          [
            -0.3903,
            54.2873707
          ],
          [
            -0.3904118,
            54.2873678
          ],
          [
            -0.3905451,
            54.2873107
          ],
          [
            -0.3905345,
            54.2873012
          ],
          [
            -0.390537,
            54.287286
          ],
          [
            -0.390552,
            54.2872757
          ],
          [
            -0.3905723,
            54.2872717
          ],
          [
            -0.3905919,
            54.2872737
          ],
          [
            -0.3906085,
            54.2872808
          ],
          [
            -0.3906592,
            54.2872561
          ],
          [
            -0.3906537,
            54.2872503
          ],
          [
            -0.3906604,
            54.2872429
          ],
          [
            -0.3906684,
            54.2872398
          ],
          [
            -0.3906771,
            54.2872394
          ],
          [
            -0.3906862,
            54.2872437
          ],
          [
            -0.3907244,
            54.2872255
          ],
          [
            -0.3907402,
            54.2872047
          ],
          [
            -0.3908211,
            54.2870983
          ],
          [
            -0.3908917,
            54.2870859
          ],
          [
            -0.3909004,
            54.2870844
          ],
          [
            -0.3909132,
            54.2870828
          ],
          [
            -0.3909226,
            54.2870754
          ],
          [
            -0.3909286,
            54.2870656
          ],
          [
            -0.390942,
            54.2870613
          ],
          [
            -0.3909614,
            54.2870605
          ],
          [
            -0.3909708,
            54.2870687
          ],
          [
            -0.3909762,
            54.2870781
          ],
          [
            -0.3910332,
            54.2870899
          ],
          [
            -0.3910473,
            54.2870848
          ],
          [
            -0.3910614,
            54.2870824
          ],
          [
            -0.3910788,
            54.2870899
          ],
          [
            -0.3910875,
            54.287102
          ],
          [
            -0.3910895,
            54.2871184
          ],
          [
            -0.3912055,
            54.2871212
          ],
          [
            -0.3912189,
            54.2871231
          ],
          [
            -0.391223,
            54.2871161
          ],
          [
            -0.3912357,
            54.2871137
          ],
          [
            -0.3912404,
            54.2871184
          ],
          [
            -0.391237,
            54.287127
          ],
          [
            -0.3913416,
            54.2871552
          ],
          [
            -0.3913638,
            54.287147
          ],
          [
            -0.3913785,
            54.2871435
          ],
          [
            -0.3913919,
            54.2871466
          ],
          [
            -0.391396,
            54.2871587
          ],
          [
            -0.3913765,
            54.2871963
          ],
          [
            -0.3913074,
            54.2872045
          ],
          [
            -0.3912156,
            54.2872002
          ],
          [
            -0.3910969,
            54.2871885
          ],
          [
            -0.3909212,
            54.2872437
          ],
          [
            -0.3908106,
            54.2872417
          ],
          [
            -0.3907326,
            54.2872778
          ],
          [
            -0.3907368,
            54.2872856
          ],
          [
            -0.3907335,
            54.2872899
          ],
          [
            -0.3907207,
            54.2872934
          ],
          [
            -0.390709,
            54.2872887
          ],
          [
            -0.3906523,
            54.2873149
          ],
          [
            -0.3906543,
            54.2873298
          ],
          [
            -0.390647,
            54.2873396
          ],
          [
            -0.3906335,
            54.2873466
          ],
          [
            -0.3906188,
            54.287347
          ],
          [
            -0.3905973,
            54.2873407
          ],
          [
            -0.3905504,
            54.2873615
          ],
          [
            -0.3905571,
            54.2873678
          ],
          [
            -0.3904974,
            54.2873944
          ],
          [
            -0.39049,
            54.2873873
          ],
          [
            -0.3902279,
            54.2874836
          ],
          [
            -0.390197,
            54.2874738
          ],
          [
            -0.3900937,
            54.2875306
          ],
          [
            -0.3901206,
            54.287547000000004
          ],
          [
            -0.3900562,
            54.2875901
          ],
          [
            -0.3899811,
            54.2876519
          ],
          [
            -0.3899033,
            54.2876801
          ],
          [
            -0.3896954,
            54.2877584
          ],
          [
            -0.3896294,
            54.2877539
          ],
          [
            -0.3896116,
            54.2877527
          ],
          [
            -0.3895601,
            54.2878506
          ],
          [
            -0.3894426,
            54.2879716
          ],
          [
            -0.3894165,
            54.2880758
          ],
          [
            -0.3894058,
            54.2882058
          ],
          [
            -0.3894192,
            54.2883224
          ],
          [
            -0.3894017,
            54.2883553
          ],
          [
            -0.389155,
            54.2884482
          ],
          [
            -0.3890044,
            54.2885049
          ],
          [
            -0.3889026,
            54.2886165
          ],
          [
            -0.3887751,
            54.2892601
          ],
          [
            -0.388583,
            54.2895513
          ],
          [
            -0.388401,
            54.2896385
          ],
          [
            -0.3880798,
            54.2896743
          ],
          [
            -0.387837,
            54.2896533
          ],
          [
            -0.3875331,
            54.2895333
          ],
          [
            -0.3856246,
            54.2875574
          ],
          [
            -0.3854422,
            54.2872395
          ],
          [
            -0.3857027,
            54.2864108
          ],
          [
            -0.3861963,
            54.2861353
          ],
          [
            -0.3862821,
            54.2856969
          ],
          [
            -0.3867724,
            54.2851253
          ],
          [
            -0.3869094,
            54.2852054
          ],
          [
            -0.3870176,
            54.2852839
          ],
          [
            -0.3871564,
            54.2853648
          ],
          [
            -0.3872676,
            54.2855126
          ],
          [
            -0.3872883,
            54.2855108
          ],
          [
            -0.3873078,
            54.2855125
          ],
          [
            -0.3873228,
            54.2855245
          ],
          [
            -0.3873244,
            54.2855363
          ],
          [
            -0.3873143,
            54.285543
          ],
          [
            -0.3873752,
            54.2856026
          ],
          [
            -0.3874875,
            54.2856813
          ],
          [
            -0.3875175,
            54.2856671
          ],
          [
            -0.3875535,
            54.2856651
          ],
          [
            -0.3875731,
            54.2856706
          ],
          [
            -0.3875902,
            54.2856843
          ],
          [
            -0.3875931,
            54.2857029
          ],
          [
            -0.387575,
            54.2857216
          ],
          [
            -0.3877934,
            54.2858539
          ],
          [
            -0.3878118,
            54.2858415
          ],
          [
            -0.3878494,
            54.2858383
          ],
          [
            -0.3878715,
            54.2858451
          ],
          [
            -0.3878866,
            54.2858573
          ],
          [
            -0.387886,
            54.2858707
          ],
          [
            -0.3878771,
            54.2858814
          ],
          [
            -0.3878532,
            54.2858928
          ],
          [
            -0.38786,
            54.2858972
          ],
          [
            -0.388033,
            54.2860025
          ],
          [
            -0.3884462,
            54.2862539
          ],
          [
            -0.3885026,
            54.2862882
          ],
          [
            -0.388508,
            54.2862925
          ],
          [
            -0.3885984,
            54.2863649
          ],
          [
            -0.388698,
            54.2864447
          ],
          [
            -0.388737,
            54.2864738
          ],
          [
            -0.3887691,
            54.2864656
          ],
          [
            -0.3888015,
            54.2864759
          ],
          [
            -0.3888222,
            54.2864984
          ],
          [
            -0.3888214,
            54.2865142
          ],
          [
            -0.3887982,
            54.2865241
          ],
          [
            -0.3890288,
            54.2866619
          ],
          [
            -0.3890661,
            54.2866457
          ],
          [
            -0.3891027,
            54.2866459
          ],
          [
            -0.3891334,
            54.2866562
          ],
          [
            -0.389151,
            54.2866729
          ],
          [
            -0.3891469,
            54.286691
          ],
          [
            -0.3891244,
            54.2867081
          ],
          [
            -0.3891546,
            54.2867241
          ],
          [
            -0.3893426,
            54.2868237
          ],
          [
            -0.3893671,
            54.2868287
          ],
          [
            -0.3894143,
            54.286831
          ],
          [
            -0.3894365,
            54.286842
          ],
          [
            -0.3894443,
            54.2868637
          ],
          [
            -0.3894386,
            54.2868835
          ],
          [
            -0.3896064,
            54.2869491
          ],
          [
            -0.3896307,
            54.2869412
          ],
          [
            -0.389653,
            54.2869395
          ],
          [
            -0.3896725,
            54.2869448
          ],
          [
            -0.389686,
            54.2869592
          ],
          [
            -0.389687,
            54.2869712
          ],
          [
            -0.389681,
            54.28698
          ],
          [
            -0.3897362,
            54.2870141
          ],
          [
            -0.3898489,
            54.2870948
          ],
          [
            -0.3898751,
            54.2871049
          ],
          [
            -0.3899025,
            54.2871161
          ],
          [
            -0.3899147,
            54.2871321
          ],
          [
            -0.3899096,
            54.2871471
          ],
          [
            -0.3898962,
            54.2871589
          ]
        ]
      },
      "id": "osm-location-of-scarborough-castle",
      "type": "Feature",
      "properties": {
        "description": "Location based on OpenStreetMap",
        "location_precision": "precise",
        "title": "OSM location of Scarborough Castle",
        "link": "http://pleiades.stoa.org/places/272290638/osm-location-of-scarborough-castle"
      }
    }
  ]
}