{
  "type": "FeatureCollection",
  "title": "Auf Schiffels",
  "id": "272861915",
  "bbox": [
    6.4532647,
    49.5020825,
    6.4532647,
    49.5020825
  ],
  "description": "A Roman road station.",
  "features": [
    {
      "type": "Feature",
      "geometry": {
        "type": "Point",
        "coordinates": [
          6.4532647,
          49.5020825
        ]
      },
      "properties": {
        "description": "representative point"
      }
    },
    {
      "geometry": {
        "type": "LineString",
        "coordinates": [
          [
            6.4532647,
            49.5020825
          ],
          [
            6.4532404,
            49.5020408
          ],
          [
            6.4533237,
            49.5020041
          ],
          [
            6.4536294,
            49.5018944
          ],
          [
            6.4537677,
            49.5017938
          ],
          [
            6.4539126,
            49.5018134
          ],
          [
            6.4540547,
            49.5018874
          ],
          [
            6.4542659,
            49.5020381
          ],
          [
            6.4542973,
            49.5020808
          ],
          [
            6.4541176,
            49.5021975
          ],
          [
            6.4537797,
            49.5023804
          ],
          [
            6.4535329,
            49.5025041
          ],
          [
            6.4534176,
            49.5025528
          ],
          [
            6.4533585,
            49.5025598
          ],
          [
            6.4532942,
            49.5025389
          ],
          [
            6.4533183,
            49.5024622
          ],
          [
            6.4534176,
            49.5023212
          ],
          [
            6.4534846,
            49.5022132
          ],
          [
            6.4534122,
            49.5021226
          ],
          [
            6.4533559,
            49.5021069
          ],
          [
            6.4532647,
            49.5020825
          ]
        ]
      },
      "id": "osm-location",
      "type": "Feature",
      "properties": {
        "description": "Location based on OpenStreetMap",
        "location_precision": "precise",
        "title": "OSM location",
        "link": "http://pleiades.stoa.org/places/272861915/osm-location"
      }
    }
  ]
}