{
  "type": "FeatureCollection",
  "title": "Souk el Arba",
  "id": "275725",
  "bbox": [
    -5.997725,
    34.692414,
    -5.997725,
    34.692414
  ],
  "description": "A Roman camp with baths and associated settlement were identified at modern Souk El Arbaa in Morocco in the late 19th and 20th centuries on high ground occupied by a qubba called \"Sidi Aïssa\". Although ancient structures and settlement extent identified previously are not visible in modern satellite imagery, the site -- bisected by a rail line predating 1941 and occupied by a cemetery and more recent structures -- can still be correlated closely with previously published photographs and plans. Recent scholarly opinion diverges from that reflected in the Barrington Atlas to lean toward identifying this site with ancient (Vo)psiciana (q.v.), attested by Ptolemy, the Antonine Itinerary, and the Ravenna Cosmographer.",
  "names": [
    "Souk el Arba du Rharb",
    "Sidi Aïssa",
    "Souk el Arba",
    "Souq el Arbaâ du Gharb",
    "Souk El Arbaa El Gharb"
  ],
  "features": [
    {
      "type": "Feature",
      "geometry": {
        "type": "Point",
        "coordinates": [
          -5.997725,
          34.692414
        ]
      },
      "properties": {
        "description": "representative point"
      }
    },
    {
      "geometry": {
        "type": "Point",
        "coordinates": [
          -5.997725,
          34.692414
        ]
      },
      "id": "imagery-location-centerpoint-of-ancient-site",
      "type": "Feature",
      "properties": {
        "description": "Centerpoint of ancient site as determined in Google Earth after registering an image overlay of a 1943 aerial photograph annotated with extent of surveyed ancient structures that was published in Euzennat 1989. Dates after BAtlDir.",
        "location_precision": "precise",
        "title": "Imagery Location: centerpoint of ancient site",
        "link": "http://pleiades.stoa.org/places/275725/imagery-location-centerpoint-of-ancient-site"
      }
    }
  ]
}