{
  "type": "FeatureCollection",
  "title": "Arco del Sacramento",
  "id": "284782743",
  "bbox": [
    14.7735856,
    41.1310723,
    14.7735856,
    41.1310723
  ],
  "description": "A Roman arch of the second century A.D. that faced on to the forum of Beneventum.",
  "connectsWith": [
    "432721"
  ],
  "features": [
    {
      "type": "Feature",
      "geometry": {
        "type": "Point",
        "coordinates": [
          14.7735856,
          41.1310723
        ]
      },
      "properties": {
        "description": "representative point"
      }
    },
    {
      "geometry": {
        "type": "LineString",
        "coordinates": [
          [
            14.7735745,
            41.1310817
          ],
          [
            14.7735907,
            41.1310727
          ],
          [
            14.773672,
            41.1310275
          ],
          [
            14.7736616,
            41.1310169
          ],
          [
            14.7736403,
            41.1309951
          ],
          [
            14.7735635,
            41.1310378
          ],
          [
            14.7735428,
            41.1310494
          ],
          [
            14.7735599,
            41.1310668
          ],
          [
            14.7735745,
            41.1310817
          ]
        ]
      },
      "id": "location-of-arco-del-sacramento",
      "type": "Feature",
      "properties": {
        "description": "Representative location based on OpenStreetMap.",
        "location_precision": "precise",
        "title": "OSM location of Arco del Sacramento",
        "link": "http://pleiades.stoa.org/places/284782743/location-of-arco-del-sacramento"
      }
    }
  ]
}