{
  "type": "FeatureCollection",
  "title": "Kom Firin",
  "id": "286397929",
  "bbox": [
    30.4821448385,
    30.8615021588,
    30.4939915033,
    30.8673005007
  ],
  "description": "Egyptian settlement located in the western half of the Nile Delta.",
  "names": [
    "Kom Firin",
    "Kom Afrin",
    "Tell Firin",
    "Kôm Firîn",
    "Kôm Afrin",
    "Kôm Férin",
    "Tell Firîn",
    "Tell Férin",
    "Tell Afrin"
  ],
  "features": [
    {
      "type": "Feature",
      "geometry": {
        "type": "Point",
        "coordinates": [
          30.4881893589,
          30.8645609515
        ]
      },
      "properties": {
        "description": "representative point"
      }
    },
    {
      "geometry": {
        "type": "Polygon",
        "coordinates": [
          [
            [
              30.48311567431221,
              30.8632930504067
            ],
            [
              30.48276572218457,
              30.86379549596257
            ],
            [
              30.48244364712135,
              30.86433177848315
            ],
            [
              30.48225210235197,
              30.86426325001923
            ],
            [
              30.48215235884975,
              30.86439404548473
            ],
            [
              30.4821448384659,
              30.86457586946889
            ],
            [
              30.48254767855308,
              30.86633941969162
            ],
            [
              30.48295607610526,
              30.86677928858706
            ],
            [
              30.48376351199749,
              30.86694771588898
            ],
            [
              30.48449324314875,
              30.86694339624468
            ],
            [
              30.4851593903671,
              30.86702352649041
            ],
            [
              30.48537819243316,
              30.86724033837184
            ],
            [
              30.4857398934256,
              30.86730050066222
            ],
            [
              30.48601622053549,
              30.86709217920481
            ],
            [
              30.4862326025723,
              30.86664180560541
            ],
            [
              30.48625549084392,
              30.86643900721418
            ],
            [
              30.4860873477953,
              30.86640898053833
            ],
            [
              30.48606209439918,
              30.86602592995341
            ],
            [
              30.48512874726858,
              30.86573537899454
            ],
            [
              30.48527301367552,
              30.86536741739231
            ],
            [
              30.48607715697928,
              30.86560418382012
            ],
            [
              30.48623459253356,
              30.86530373704846
            ],
            [
              30.48638235833344,
              30.86511061313795
            ],
            [
              30.48643304461483,
              30.86483110615386
            ],
            [
              30.48666344563331,
              30.86482418704342
            ],
            [
              30.48690937123771,
              30.86484080606863
            ],
            [
              30.48728117656666,
              30.86554439327799
            ],
            [
              30.48754873514339,
              30.86635066206633
            ],
            [
              30.48773608922234,
              30.86714624204807
            ],
            [
              30.48808678178567,
              30.86714531356123
            ],
            [
              30.48815308853968,
              30.8669127105657
            ],
            [
              30.48916645312015,
              30.86664093342025
            ],
            [
              30.49009946346549,
              30.86641213244118
            ],
            [
              30.49041576154112,
              30.86656915271625
            ],
            [
              30.4912585685849,
              30.86649363037089
            ],
            [
              30.49205315007406,
              30.86653611494022
            ],
            [
              30.49230367811375,
              30.86689348799041
            ],
            [
              30.49259181640332,
              30.8669884332114
            ],
            [
              30.49310765630933,
              30.86688672490941
            ],
            [
              30.49383699287306,
              30.86647732843669
            ],
            [
              30.49379002160264,
              30.86600658448577
            ],
            [
              30.49346716480601,
              30.86568037425485
            ],
            [
              30.49364856268318,
              30.86500951907997
            ],
            [
              30.49399150329853,
              30.86442325307974
            ],
            [
              30.49345519747544,
              30.86369446122965
            ],
            [
              30.49296859851385,
              30.86339852653708
            ],
            [
              30.49255572167502,
              30.86336374306657
            ],
            [
              30.49225753226639,
              30.8625011189515
            ],
            [
              30.49086139148443,
              30.86221447105131
            ],
            [
              30.48901999269486,
              30.86163532143705
            ],
            [
              30.48743585283087,
              30.86150215884592
            ],
            [
              30.48731125623557,
              30.86239194378393
            ],
            [
              30.48692800686273,
              30.86273096804122
            ],
            [
              30.48641045053246,
              30.86290481562287
            ],
            [
              30.48554663717887,
              30.86279196073917
            ],
            [
              30.48467673306697,
              30.86277904074635
            ],
            [
              30.48388816285768,
              30.86299784817446
            ],
            [
              30.48311567431221,
              30.8632930504067
            ]
          ]
        ]
      },
      "id": "imagery-location-kom-firin",
      "type": "Feature",
      "properties": {
        "description": "Imagery Location: visible remains of Kom Firin",
        "location_precision": "precise",
        "title": "Imagery Location: Kom Firin",
        "link": "http://pleiades.stoa.org/places/286397929/imagery-location-kom-firin"
      }
    }
  ]
}