{
  "type": "FeatureCollection",
  "title": "Castle of Serravalle",
  "id": "286808787",
  "bbox": [
    8.5040518,
    40.2969576,
    8.5053009,
    40.2980626
  ],
  "description": "The Castle of Serravalle is a twelfth century castle located in Bosa, province of Oristano, Sardinia. It is connected with the Tuscan Malaspina family.",
  "connectsWith": [
    "472014"
  ],
  "names": [
    "Castello di Serravalle"
  ],
  "features": [
    {
      "type": "Feature",
      "geometry": {
        "type": "Point",
        "coordinates": [
          8.50469885611,
          40.2974619866
        ]
      },
      "properties": {
        "description": "representative point"
      }
    },
    {
      "geometry": {
        "type": "LineString",
        "coordinates": [
          [
            8.5041222,
            40.2972737
          ],
          [
            8.5040768,
            40.2972794
          ],
          [
            8.5040518,
            40.2972408
          ],
          [
            8.5040677,
            40.2972208
          ],
          [
            8.5040995,
            40.2972216
          ],
          [
            8.5041654,
            40.2969678
          ],
          [
            8.5042125,
            40.2969576
          ],
          [
            8.5042476,
            40.2969796
          ],
          [
            8.5044336,
            40.2969873
          ],
          [
            8.5045459,
            40.2970085
          ],
          [
            8.5046046,
            40.2970196
          ],
          [
            8.5047129,
            40.2970781
          ],
          [
            8.5047556,
            40.2970678
          ],
          [
            8.5048138,
            40.2970987
          ],
          [
            8.5048013,
            40.2971285
          ],
          [
            8.5051237,
            40.2973142
          ],
          [
            8.5052599,
            40.2974076
          ],
          [
            8.5053009,
            40.2974357
          ],
          [
            8.5052929,
            40.2974595
          ],
          [
            8.5052214,
            40.2976804
          ],
          [
            8.5052126,
            40.2977076
          ],
          [
            8.505232,
            40.2977172
          ],
          [
            8.5052448,
            40.2977273
          ],
          [
            8.5051961,
            40.2977817
          ],
          [
            8.5050262,
            40.2979804
          ],
          [
            8.5050659,
            40.298
          ],
          [
            8.505013,
            40.2980626
          ],
          [
            8.504891,
            40.2980026
          ],
          [
            8.5049255,
            40.2979619
          ],
          [
            8.5045304,
            40.297735
          ],
          [
            8.5045064,
            40.2977078
          ],
          [
            8.5043312,
            40.297514
          ],
          [
            8.5043016,
            40.2975299
          ],
          [
            8.504264300000001,
            40.2974859
          ],
          [
            8.504294,
            40.2974704
          ],
          [
            8.5041222,
            40.2972737
          ]
        ]
      },
      "id": "osm-location-of-castello-di-serravalle",
      "type": "Feature",
      "properties": {
        "description": "Location based on OpenStreetMap",
        "location_precision": "precise",
        "title": "OSM location of Castello di Serravalle",
        "link": "http://pleiades.stoa.org/places/286808787/osm-location-of-castello-di-serravalle"
      }
    }
  ]
}