{
  "type": "FeatureCollection",
  "title": "Ponte Camillario",
  "id": "291526922",
  "bbox": [
    12.0687781,
    42.4149058,
    12.0687781,
    42.4149058
  ],
  "description": "A Roman bridge on the Via Cassia.",
  "connectsWith": [
    "447759107"
  ],
  "features": [
    {
      "type": "Feature",
      "geometry": {
        "type": "Point",
        "coordinates": [
          12.0687781,
          42.4149058
        ]
      },
      "properties": {
        "description": "representative point"
      }
    },
    {
      "geometry": {
        "type": "Point",
        "coordinates": [
          12.0687781,
          42.4149058
        ]
      },
      "id": "osm-location-of-ponte-camillario",
      "type": "Feature",
      "properties": {
        "description": "Location based on OpenStreetMap",
        "location_precision": "precise",
        "title": "OSM location of Ponte Camillario",
        "link": "http://pleiades.stoa.org/places/291526922/osm-location-of-ponte-camillario"
      }
    }
  ]
}