{
  "type": "FeatureCollection",
  "title": "Acquedotto Anio Novus Ponte S. Antonio",
  "id": "294009591",
  "bbox": [
    12.8298288,
    41.9025847,
    12.830515,
    41.9035758
  ],
  "description": "The Ponte S. Antonio carried the Anio Novus aqueduct.",
  "connectsWith": [
    "423559"
  ],
  "features": [
    {
      "type": "Feature",
      "geometry": {
        "type": "Point",
        "coordinates": [
          12.8301719,
          41.90308025
        ]
      },
      "properties": {
        "description": "representative point"
      }
    },
    {
      "geometry": {
        "type": "LineString",
        "coordinates": [
          [
            12.8298753,
            41.9025847
          ],
          [
            12.830515,
            41.9035589
          ],
          [
            12.8305012,
            41.9035639
          ],
          [
            12.830483,
            41.9035705
          ],
          [
            12.8304685,
            41.9035758
          ],
          [
            12.8298288,
            41.9026016
          ],
          [
            12.8298433,
            41.9025964
          ],
          [
            12.8298615,
            41.9025897
          ],
          [
            12.8298753,
            41.9025847
          ]
        ]
      },
      "id": "ponte-san-antonio",
      "type": "Feature",
      "properties": {
        "description": "Representative location based on OpenStreetMap. Chronology following Barrington Atlas.",
        "location_precision": "precise",
        "title": "OSM location of Acquedotto Anio Novus Ponte S. Antonio",
        "link": "http://pleiades.stoa.org/places/294009591/ponte-san-antonio"
      }
    }
  ]
}