{
  "type": "FeatureCollection",
  "title": "Douar Mazouna",
  "id": "295257",
  "bbox": [
    0.894896,
    36.125289,
    0.949394151271,
    36.1799997758
  ],
  "description": "An ancient place, cited: BAtlas 30 inset Douar Mazouna",
  "features": [
    {
      "type": "Feature",
      "geometry": {
        "type": "Point",
        "coordinates": [
          0.922145075635,
          36.1526443879
        ]
      },
      "properties": {
        "description": "representative point"
      }
    },
    {
      "geometry": {
        "type": "Point",
        "coordinates": [
          0.894896,
          36.125289
        ]
      },
      "id": "darmc-location-22248",
      "type": "Feature",
      "properties": {
        "description": "1:500,000 scale representative point location digitized from the Barrington Atlas of the Greek and Roman World by the Digital Atlas of Roman and Medieval Civilizations project at Harvard University.",
        "location_precision": "precise",
        "title": "DARMC location 22248",
        "link": "http://pleiades.stoa.org/places/295257/darmc-location-22248"
      }
    },
    {
      "geometry": {
        "type": "Point",
        "coordinates": [
          0.949394151270745,
          36.17999977580901
        ]
      },
      "id": "batlas-point-location",
      "type": "Feature",
      "properties": {
        "description": "Feature extracted using QGIS (2025) from raster image of BAtlas Map 30 created and georegistered to the original base map projection by the Ancient World Mapping Center in 2002. Dates after BAtlDir.",
        "location_precision": "precise",
        "title": "BAtlas Point Location",
        "link": "http://pleiades.stoa.org/places/295257/batlas-point-location"
      }
    }
  ]
}