{
  "type": "FeatureCollection",
  "title": "Bou Kisnaden",
  "id": "295231",
  "bbox": [
    2.361208,
    36.559922,
    2.361208,
    36.559922
  ],
  "description": "This site, discussed in scholarly literature in the 20th century, seems from satellite imagery to have been impinged or destroyed in the construction of the Rocade Tipaza/Autoroute Tipaza - Cherchel in the early years of the 21st century. It seems to have been a villa with a central courtyard and primary entrance facing east, with a row of rooms with arched openings overlooking the wadi to the north. Vats and presses, possibly for processing grapes for wine, were discovered. Anselmino hypothesized that another, unexcavated structure immediately to the east was a church.",
  "features": [
    {
      "type": "Feature",
      "geometry": {
        "type": "Point",
        "coordinates": [
          2.361208,
          36.559922
        ]
      },
      "properties": {
        "description": "representative point"
      }
    },
    {
      "geometry": {
        "type": "Point",
        "coordinates": [
          2.361208,
          36.559922
        ]
      },
      "id": "imagery-location",
      "type": "Feature",
      "properties": {
        "description": "Imagery location after Anselmino 1989.",
        "location_precision": "precise",
        "title": "Imagery Location",
        "link": "http://pleiades.stoa.org/places/295231/imagery-location"
      }
    }
  ]
}