{
  "type": "FeatureCollection",
  "title": "el Arba",
  "id": "295217",
  "bbox": [
    2.05146704432,
    36.4977032664,
    2.05146704432,
    36.4977032664
  ],
  "description": "An ancient place, cited: BAtlas 30 D4 el Arba",
  "features": [
    {
      "type": "Feature",
      "geometry": {
        "type": "Point",
        "coordinates": [
          2.05146704432,
          36.4977032664
        ]
      },
      "properties": {
        "description": "representative point"
      }
    },
    {
      "geometry": {
        "type": "Point",
        "coordinates": [
          2.051467044316469,
          36.49770326637992
        ]
      },
      "id": "batlas-point-location",
      "type": "Feature",
      "properties": {
        "description": "Point location extracted using QGIS (2025) from raster image of BAtlas Map 25 that was digitized and georegistered to original projection by the Ancient World Mapping Center in 2002. Dates after BAtlDir.",
        "location_precision": "precise",
        "title": "BAtlas Point Location",
        "link": "http://pleiades.stoa.org/places/295217/batlas-point-location"
      }
    }
  ]
}