{
  "type": "FeatureCollection",
  "title": "Ain Bessem",
  "id": "295210",
  "bbox": [
    3.65022679908,
    36.3199184868,
    3.65022679908,
    36.3199184868
  ],
  "description": "Gsell (AAA, whence BAtlas) noted the remains of a hexagonal fort located about 2.5 kilometers northwest of Aïn Bessem. His description relies primarily on earlier reports, since the ruins had been almost entirely quarried out by the early 20th century.",
  "names": [
    "Ain Bessem"
  ],
  "features": [
    {
      "type": "Feature",
      "geometry": {
        "type": "Point",
        "coordinates": [
          3.65022679908,
          36.3199184868
        ]
      },
      "properties": {
        "description": "representative point"
      }
    },
    {
      "geometry": {
        "type": "Point",
        "coordinates": [
          3.650226799083023,
          36.319918486785376
        ]
      },
      "id": "batlas-point-location",
      "type": "Feature",
      "properties": {
        "description": "Feature extracted using QGIS (2025) from raster image of BAtlas Map 30 created and georegistered to the original base map projection by the Ancient World Mapping Center in 2002. Dates after BAtlDir.",
        "location_precision": "precise",
        "title": "BAtlas Point Location",
        "link": "http://pleiades.stoa.org/places/295210/batlas-point-location"
      }
    }
  ]
}