{
  "type": "FeatureCollection",
  "title": "Kalaa",
  "id": "295286",
  "bbox": [
    0.861669862288,
    36.218694292,
    0.878361448744,
    36.2299375086
  ],
  "description": "Remains of a Roman settlement called, or at a place called, Kalaa in the 19th century. It occupied a ridge approximately 1 kilometer in length and ranging from 200-300 meters in width, the eastern end of which is now covered by a small settlement and cemetery known as Sidi Aissa on the border of the Algerian provinces of Chlef and Relizane.",
  "names": [
    "Sidi Aissa",
    "Kalaa"
  ],
  "features": [
    {
      "type": "Feature",
      "geometry": {
        "type": "Point",
        "coordinates": [
          0.871550001064,
          36.2247814541
        ]
      },
      "properties": {
        "description": "representative point"
      }
    },
    {
      "geometry": {
        "type": "MultiPolygon",
        "coordinates": [
          [
            [
              [
                0.862273740890986,
                36.21954528205656,
                0.0
              ],
              [
                0.861839874395196,
                36.21912026149727,
                0.0
              ],
              [
                0.861669862288483,
                36.21875431992974,
                0.0
              ],
              [
                0.861969991727045,
                36.21869466162199,
                0.0
              ],
              [
                0.861976926468007,
                36.21869429200157,
                0.0
              ],
              [
                0.862628864792272,
                36.21903858433687,
                0.0
              ],
              [
                0.863031148531352,
                36.21930111532295,
                0.0
              ],
              [
                0.86422329175625,
                36.21992948298889,
                0.0
              ],
              [
                0.865877278443841,
                36.22039165607757,
                0.0
              ],
              [
                0.866998113045991,
                36.22080185313979,
                0.0
              ],
              [
                0.867646047902919,
                36.22116915392272,
                0.0
              ],
              [
                0.868706189763637,
                36.22160175162126,
                0.0
              ],
              [
                0.86983524568913,
                36.2217678052374,
                0.0
              ],
              [
                0.870382935030509,
                36.22226178124135,
                0.0
              ],
              [
                0.870762835369876,
                36.22275254715473,
                0.0
              ],
              [
                0.871354557263719,
                36.22330171419805,
                0.0
              ],
              [
                0.872171727964086,
                36.22375788743931,
                0.0
              ],
              [
                0.872881453598608,
                36.22391523027669,
                0.0
              ],
              [
                0.873784495153462,
                36.22412291998104,
                0.0
              ],
              [
                0.874988164512427,
                36.22428705689696,
                0.0
              ],
              [
                0.876497922302992,
                36.22431212814621,
                0.0
              ],
              [
                0.877878916153927,
                36.22455804178369,
                0.0
              ],
              [
                0.878361448744351,
                36.22645255253547,
                0.0
              ],
              [
                0.877856094441387,
                36.22766773685544,
                0.0
              ],
              [
                0.876368782127419,
                36.2292048818419,
                0.0
              ],
              [
                0.876246748242002,
                36.2298952379799,
                0.0
              ],
              [
                0.875512537959111,
                36.22993750855387,
                0.0
              ],
              [
                0.874491900906418,
                36.22991126386167,
                0.0
              ],
              [
                0.873217313807513,
                36.22949178102147,
                0.0
              ],
              [
                0.872262950784504,
                36.2292297256953,
                0.0
              ],
              [
                0.87228313449133,
                36.22875579688668,
                0.0
              ],
              [
                0.872398115633977,
                36.22832349310362,
                0.0
              ],
              [
                0.872416635074518,
                36.22792420270064,
                0.0
              ],
              [
                0.872350667694359,
                36.22638671358842,
                0.0
              ],
              [
                0.872108441485349,
                36.22608788985234,
                0.0
              ],
              [
                0.871856264479391,
                36.22567049562642,
                0.0
              ],
              [
                0.871487659528489,
                36.22535339364828,
                0.0
              ],
              [
                0.87109632977121,
                36.22494442515452,
                0.0
              ],
              [
                0.870904170596338,
                36.22480026469053,
                0.0
              ],
              [
                0.87056784015654,
                36.22446262847059,
                0.0
              ],
              [
                0.870325664945175,
                36.22430351846426,
                0.0
              ],
              [
                0.869942870518918,
                36.2242670348877,
                0.0
              ],
              [
                0.869634727478235,
                36.22421304745924,
                0.0
              ],
              [
                0.869342433138582,
                36.22422480376213,
                0.0
              ],
              [
                0.869098144765672,
                36.22419203881645,
                0.0
              ],
              [
                0.868899093928119,
                36.22426742813192,
                0.0
              ],
              [
                0.868553709419906,
                36.22426956113659,
                0.0
              ],
              [
                0.867529124605295,
                36.2236610533741,
                0.0
              ],
              [
                0.866496568515684,
                36.22319749083516,
                0.0
              ],
              [
                0.865874392381152,
                36.22315749829373,
                0.0
              ],
              [
                0.86550330582253,
                36.22319390256902,
                0.0
              ],
              [
                0.86521629243957,
                36.2230635052144,
                0.0
              ],
              [
                0.863788661662714,
                36.22193456115497,
                0.0
              ],
              [
                0.862780071124127,
                36.22079828179146,
                0.0
              ],
              [
                0.862423061356479,
                36.2198485440115,
                0.0
              ],
              [
                0.862273740890986,
                36.21954528205656,
                0.0
              ]
            ]
          ]
        ]
      },
      "id": "imagery-location-outline-of-ridge-and-ruins",
      "type": "Feature",
      "properties": {
        "description": "Dates after BAtlDir.",
        "location_precision": "precise",
        "title": "Imagery Location: outline of ridge and ruins",
        "link": "http://pleiades.stoa.org/places/295286/imagery-location-outline-of-ridge-and-ruins"
      }
    }
  ]
}