{
  "type": "FeatureCollection",
  "title": "Alcimoennis",
  "id": "298394661",
  "bbox": [
    11.859725,
    48.9184881,
    11.859725,
    48.9184881
  ],
  "description": "An oppidum located on Michelsberg hill in Bavaria, occupied from ca. 500 BC until the first century BC.",
  "features": [
    {
      "type": "Feature",
      "geometry": {
        "type": "Point",
        "coordinates": [
          11.859725,
          48.9184881
        ]
      },
      "properties": {
        "description": "representative point"
      }
    },
    {
      "geometry": {
        "type": "Point",
        "coordinates": [
          11.859725,
          48.9184881
        ]
      },
      "id": "location-of-michelsberg",
      "type": "Feature",
      "properties": {
        "description": "Location based on OpenStreetMap",
        "location_precision": "precise",
        "title": "location of Michelsberg",
        "link": "http://pleiades.stoa.org/places/298394661/location-of-michelsberg"
      }
    }
  ]
}