{
  "type": "FeatureCollection",
  "title": "Qila' el-Dabba",
  "id": "301492848",
  "bbox": [
    29.2793425,
    25.5569071,
    29.2818423,
    25.5587074
  ],
  "description": "An Old Kingdom cemetery located in the Dakhla Oasis, Balat, Egypt, that contains the tombs of royal officials who governed the area of the oasis.",
  "connectsWith": [
    "776172"
  ],
  "features": [
    {
      "type": "Feature",
      "geometry": {
        "type": "Point",
        "coordinates": [
          29.2804494067,
          25.557829517
        ]
      },
      "properties": {
        "description": "representative point"
      }
    },
    {
      "geometry": {
        "type": "LineString",
        "coordinates": [
          [
            29.2795839,
            25.5587074
          ],
          [
            29.2793425,
            25.5569265
          ],
          [
            29.2801096,
            25.5569071
          ],
          [
            29.281794,
            25.5577444
          ],
          [
            29.2818423,
            25.5583106
          ],
          [
            29.2795839,
            25.5587074
          ]
        ]
      },
      "id": "osm-location-of-qila-el-dabba",
      "type": "Feature",
      "properties": {
        "description": "Representative location based on OpenStreetMap",
        "location_precision": "precise",
        "title": "OSM location of Qila' el-Dabba",
        "link": "http://pleiades.stoa.org/places/301492848/osm-location-of-qila-el-dabba"
      }
    }
  ]
}