{
  "type": "FeatureCollection",
  "title": "Tomba Campana",
  "id": "302659740",
  "bbox": [
    12.4059327,
    42.0328489,
    12.4059327,
    42.0328489
  ],
  "description": "The Grotta Campana at Veii is an Etruscan burial complex discovered by Giampietro Campana in 1843.",
  "connectsWith": [
    "423116"
  ],
  "names": [
    "Tomba Campana a Veio"
  ],
  "features": [
    {
      "type": "Feature",
      "geometry": {
        "type": "Point",
        "coordinates": [
          12.4059327,
          42.0328489
        ]
      },
      "properties": {
        "description": "representative point"
      }
    },
    {
      "geometry": {
        "type": "Point",
        "coordinates": [
          12.4059327,
          42.0328489
        ]
      },
      "id": "osm-location-of-tomba-campana",
      "type": "Feature",
      "properties": {
        "description": "Representative location based on OpenStreetMap",
        "location_precision": "precise",
        "title": "OSM location of Tomba Campana",
        "link": "http://pleiades.stoa.org/places/302659740/osm-location-of-tomba-campana"
      }
    }
  ]
}