{
  "type": "FeatureCollection",
  "title": "Torre del Giudizio",
  "id": "303999555",
  "bbox": [
    12.4597431,
    41.852823,
    12.4598491,
    41.8529129
  ],
  "description": "Torre del Giudizio is a Medieval tower built atop a pre-existing Roman site located near the fluvial harbor of vicus Alexandrini.",
  "features": [
    {
      "type": "Feature",
      "geometry": {
        "type": "Point",
        "coordinates": [
          12.4597963583,
          41.8528678874
        ]
      },
      "properties": {
        "description": "representative point"
      }
    },
    {
      "geometry": {
        "type": "LineString",
        "coordinates": [
          [
            12.4597458,
            41.8529129
          ],
          [
            12.4597431,
            41.852823
          ],
          [
            12.4598491,
            41.852825
          ],
          [
            12.4598491,
            41.8529119
          ],
          [
            12.4597458,
            41.8529129
          ]
        ]
      },
      "id": "location-of-torre-del-giudizio",
      "type": "Feature",
      "properties": {
        "description": "Representative location based on OpenStreetMap.",
        "location_precision": "precise",
        "title": "OSM location of Torre del Giudizio",
        "link": "http://pleiades.stoa.org/places/303999555/location-of-torre-del-giudizio"
      }
    }
  ]
}