{
  "type": "FeatureCollection",
  "title": "Unnamed bridge (south of Rusicade)",
  "id": "306532",
  "bbox": [
    6.86307701388,
    36.7377763052,
    6.86307701388,
    36.7377763052
  ],
  "description": "Gsell (whence BAtlas) repeats an earlier report of a well-preserved Roman bridge over the \"Oued Ameur\" upstream from its confluence with the Safsaf (ancient Thapsus).",
  "features": [
    {
      "type": "Feature",
      "geometry": {
        "type": "Point",
        "coordinates": [
          6.86307701388,
          36.7377763052
        ]
      },
      "properties": {
        "description": "representative point"
      }
    },
    {
      "geometry": {
        "type": "Point",
        "coordinates": [
          6.863077013877826,
          36.737776305184575
        ]
      },
      "id": "batlas-point-location",
      "type": "Feature",
      "properties": {
        "description": "Coordinates extracted using QGIS from a raster image of Barrington Atlas Map 31 that was georegistered to OpenStreetMap using prominent, stable landscape features. Dates after BAltDir.",
        "location_precision": "precise",
        "title": "BAtlas Point Location",
        "link": "http://pleiades.stoa.org/places/306532/batlas-point-location"
      }
    }
  ]
}