{
  "type": "FeatureCollection",
  "title": "Ad Olivam",
  "id": "311069",
  "bbox": [
    5.055828,
    36.322729,
    5.077138,
    36.328261
  ],
  "description": "An ancient place, cited: BAtlas 31 unlocated Ad Olivam",
  "connectsWith": [
    "835084120"
  ],
  "names": [
    "Ad Olivam"
  ],
  "features": [
    {
      "type": "Feature",
      "geometry": {
        "type": "Point",
        "coordinates": [
          5.066483,
          36.325495
        ]
      },
      "properties": {
        "description": "representative point"
      }
    },
    {
      "geometry": null,
      "id": "batlas-location",
      "type": "Feature",
      "properties": {
        "description": null,
        "location_precision": "unlocated",
        "title": "Barrington Atlas location",
        "link": "http://pleiades.stoa.org/places/311069/batlas-location"
      }
    }
  ]
}