{
  "type": "FeatureCollection",
  "title": "Ad Villam Serviliana",
  "id": "311078",
  "bbox": [
    7.7477403,
    36.8790042,
    7.7525321,
    36.8858691
  ],
  "description": "A villa and associated road station, located (on the basis of itinerary evidence) approximately 25-30 miles south of Hippo Regius. Its precise location has not been determined.",
  "connectsWith": [
    "305090"
  ],
  "names": [
    "Ad Villam Serviliana"
  ],
  "features": [
    {
      "type": "Feature",
      "geometry": {
        "type": "Point",
        "coordinates": [
          7.7501485304,
          36.8825320915
        ]
      },
      "properties": {
        "description": "representative point"
      }
    },
    {
      "geometry": null,
      "id": "batlas-location",
      "type": "Feature",
      "properties": {
        "description": null,
        "location_precision": "unlocated",
        "title": "Barrington Atlas location",
        "link": "http://pleiades.stoa.org/places/311078/batlas-location"
      }
    }
  ]
}