{
  "type": "FeatureCollection",
  "title": "Castra Corneli(ana)?",
  "id": "314923",
  "bbox": [
    10.118533,
    37.062694,
    10.118533,
    37.062694
  ],
  "description": "BAtlDir tentatively associates this site, attested in multiple ancient sources, with either modern Galaat-el-Andeless or modern Galaat el Oued in Tunisia.",
  "names": [
    "Castra Corneliana",
    "Castra Corneli",
    "Galaat el Oued",
    "Galaat el Andeless",
    "Castra Cornelia",
    "Kastra Korneliou"
  ],
  "features": [
    {
      "type": "Feature",
      "geometry": {
        "type": "Point",
        "coordinates": [
          10.118533,
          37.062694
        ]
      },
      "properties": {
        "description": "representative point"
      }
    },
    {
      "geometry": {
        "type": "Point",
        "coordinates": [
          10.118533,
          37.062694
        ]
      },
      "id": "darmc-location-5016",
      "type": "Feature",
      "properties": {
        "description": "1:500,000 scale representative point location digitized from the Barrington Atlas of the Greek and Roman World by the Digital Atlas of Roman and Medieval Civilizations project at Harvard University.",
        "location_precision": "precise",
        "title": "DARMC location 5016",
        "link": "http://pleiades.stoa.org/places/314923/darmc-location-5016"
      }
    }
  ]
}