{
  "type": "FeatureCollection",
  "title": "Ziquensis (mountain)",
  "id": "315272",
  "bbox": [
    10.112153,
    36.3519188,
    10.112153,
    36.3519188
  ],
  "description": "Djebel Zaghouan.",
  "names": [
    "Ziquensis Mons",
    "Djebel Zaghouan"
  ],
  "features": [
    {
      "type": "Feature",
      "geometry": {
        "type": "Point",
        "coordinates": [
          10.112153,
          36.3519188
        ]
      },
      "properties": {
        "description": "representative point"
      }
    },
    {
      "geometry": {
        "type": "Point",
        "coordinates": [
          10.112153,
          36.3519188
        ]
      },
      "id": "location-of-djebel-zaghouan",
      "type": "Feature",
      "properties": {
        "description": "Location based on OpenStreetMap",
        "location_precision": "precise",
        "title": "OSM location of Djebel Zaghouan",
        "link": "http://pleiades.stoa.org/places/315272/location-of-djebel-zaghouan"
      }
    }
  ]
}