{
  "type": "FeatureCollection",
  "title": "Nabataean Temple (Wadi Rum)",
  "id": "32144466",
  "bbox": [
    35.414113,
    29.5775354,
    35.4165345,
    29.5783932
  ],
  "description": "A Nabataean Temple at Wadi Rum",
  "connectsWith": [
    "746712"
  ],
  "features": [
    {
      "type": "Feature",
      "geometry": {
        "type": "Point",
        "coordinates": [
          35.4153582549,
          29.5779283151
        ]
      },
      "properties": {
        "description": "representative point"
      }
    },
    {
      "geometry": {
        "type": "LineString",
        "coordinates": [
          [
            35.4143893,
            29.5781926
          ],
          [
            35.4143102,
            29.5780952
          ],
          [
            35.4142311,
            29.5781197
          ],
          [
            35.414113,
            29.5779017
          ],
          [
            35.4142364,
            29.5778281
          ],
          [
            35.4142298,
            29.5778013
          ],
          [
            35.4143766,
            29.577726
          ],
          [
            35.4144202,
            29.5777745
          ],
          [
            35.4149157,
            29.57761
          ],
          [
            35.4151907,
            29.577547
          ],
          [
            35.4152644,
            29.5775389
          ],
          [
            35.4155273,
            29.5775429
          ],
          [
            35.415937,
            29.5776357
          ],
          [
            35.4159879,
            29.5775354
          ],
          [
            35.41624,
            29.5775948
          ],
          [
            35.4163044,
            29.57761
          ],
          [
            35.4164989,
            29.577796
          ],
          [
            35.4165345,
            29.5779407
          ],
          [
            35.4164761,
            29.578006
          ],
          [
            35.4164752,
            29.5780193
          ],
          [
            35.4164667,
            29.5781425
          ],
          [
            35.416283,
            29.5782847
          ],
          [
            35.4160738,
            29.5783932
          ],
          [
            35.4160146,
            29.5783902
          ],
          [
            35.4159578,
            29.5783547
          ],
          [
            35.4157619,
            29.5783483
          ],
          [
            35.4156652,
            29.5783476
          ],
          [
            35.4155829,
            29.5783355
          ],
          [
            35.4149325,
            29.5780818
          ],
          [
            35.4148988,
            29.5780794
          ],
          [
            35.4146406,
            29.5781196
          ],
          [
            35.4143893,
            29.5781926
          ]
        ]
      },
      "id": "osm-location-of-nabataean-temple",
      "type": "Feature",
      "properties": {
        "description": "Representative location based on OpenStreetMap",
        "location_precision": "precise",
        "title": "OSM location of Nabataean Temple",
        "link": "http://pleiades.stoa.org/places/32144466/osm-location-of-nabataean-temple"
      }
    }
  ]
}