{
  "type": "FeatureCollection",
  "title": "Tomba di Tulliola",
  "id": "322471975",
  "bbox": [
    13.5797262,
    41.2545647,
    13.5797262,
    41.2545647
  ],
  "description": "The so-called tomb of Tulliola is a Roman mausoleum located at Formiae. Situated about 100 meters from the so-called tomb of Cicero, this tomb is held to be that of Cicero's father.",
  "connectsWith": [
    "98979035"
  ],
  "names": [
    "Tomba di Tulliola"
  ],
  "features": [
    {
      "type": "Feature",
      "geometry": {
        "type": "Point",
        "coordinates": [
          13.5797262,
          41.2545647
        ]
      },
      "properties": {
        "description": "representative point"
      }
    },
    {
      "geometry": {
        "type": "Point",
        "coordinates": [
          13.5797262,
          41.2545647
        ]
      },
      "id": "osm-location-of-tomba-di-tulliola",
      "type": "Feature",
      "properties": {
        "description": "Representative location based on OpenStreetMap",
        "location_precision": "precise",
        "title": "OSM location of Tomba di Tulliola",
        "link": "http://pleiades.stoa.org/places/322471975/osm-location-of-tomba-di-tulliola"
      }
    }
  ]
}