{
  "type": "FeatureCollection",
  "title": "Assuras",
  "id": "324669",
  "bbox": [
    9.022305,
    35.991955,
    9.022406,
    35.993286
  ],
  "description": "Ancient Roman colony in Tunisia, today's Zanfour, Tunisia.",
  "names": [
    "Assuras"
  ],
  "features": [
    {
      "type": "Feature",
      "geometry": {
        "type": "Point",
        "coordinates": [
          9.0223555,
          35.9926205
        ]
      },
      "properties": {
        "description": "representative point"
      }
    },
    {
      "geometry": {
        "type": "Point",
        "coordinates": [
          9.022406,
          35.991955
        ]
      },
      "id": "darmc-location-3406",
      "type": "Feature",
      "properties": {
        "description": "1:500,000 scale representative point location digitized from the Barrington Atlas of the Greek and Roman World by the Digital Atlas of Roman and Medieval Civilizations project at Harvard University.",
        "location_precision": "precise",
        "title": "DARMC location 3406",
        "link": "http://pleiades.stoa.org/places/324669/darmc-location-3406"
      }
    },
    {
      "geometry": {
        "type": "Point",
        "coordinates": [
          9.022305,
          35.993286
        ]
      },
      "id": "dare-location",
      "type": "Feature",
      "properties": {
        "description": "Representative point location, site precision",
        "location_precision": "precise",
        "title": "DARE Location",
        "link": "http://pleiades.stoa.org/places/324669/dare-location"
      }
    }
  ]
}