{
  "type": "FeatureCollection",
  "title": "Pietrera tomb",
  "id": "336528878",
  "bbox": [
    10.9888064,
    42.8719659,
    10.9897479,
    42.8726208
  ],
  "description": "An Etruscan tholos tomb of the seventh century B.C. at Vetulonia.",
  "connectsWith": [
    "403291"
  ],
  "features": [
    {
      "type": "Feature",
      "geometry": {
        "type": "Point",
        "coordinates": [
          10.9892637886,
          42.8722603194
        ]
      },
      "properties": {
        "description": "representative point"
      }
    },
    {
      "geometry": {
        "type": "LineString",
        "coordinates": [
          [
            10.9888064,
            42.8720445
          ],
          [
            10.9888172,
            42.8722411
          ],
          [
            10.9889405,
            42.8724062
          ],
          [
            10.9891337,
            42.8725045
          ],
          [
            10.989367,
            42.8726208
          ],
          [
            10.9895735,
            42.8725202
          ],
          [
            10.9897479,
            42.8723692
          ],
          [
            10.9896647,
            42.8722057
          ],
          [
            10.9895574,
            42.8720563
          ],
          [
            10.9892946,
            42.8719659
          ],
          [
            10.9890371,
            42.8719698
          ],
          [
            10.9888064,
            42.8720445
          ]
        ]
      },
      "id": "location-of-tomb-of-diavolino-ii",
      "type": "Feature",
      "properties": {
        "description": "An Etruscan tholos tomb of the seventh century BC. Location based on OpenStreetMap. ",
        "location_precision": "precise",
        "title": "OSM location of 'Pietrera' tomb",
        "link": "http://pleiades.stoa.org/places/336528878/location-of-tomb-of-diavolino-ii"
      }
    }
  ]
}