{
  "type": "FeatureCollection",
  "title": "Unnamed road in the vicinity of Djenndel and Henchir Mdila",
  "id": "337508",
  "bbox": [
    7.252091,
    34.639112,
    7.403115,
    34.764097
  ],
  "description": "A hypothetical road segment in the vicinity of forts at Djenndel and Henchir Mdila (ancient Midili?) in modern Algeria's Bir El Ater province.",
  "features": [
    {
      "type": "Feature",
      "geometry": {
        "type": "Point",
        "coordinates": [
          7.33075273024,
          34.7052959034
        ]
      },
      "properties": {
        "description": "representative point"
      }
    },
    {
      "geometry": {
        "type": "LineString",
        "coordinates": [
          [
            7.403115,
            34.639112
          ],
          [
            7.397642,
            34.644861
          ],
          [
            7.39233,
            34.647357
          ],
          [
            7.390356,
            34.649041
          ],
          [
            7.387674,
            34.650565
          ],
          [
            7.386753,
            34.652053
          ],
          [
            7.386452,
            34.653152
          ],
          [
            7.386434,
            34.654534
          ],
          [
            7.385885,
            34.657351
          ],
          [
            7.386452,
            34.659477
          ],
          [
            7.385849,
            34.660522
          ],
          [
            7.384627,
            34.661727
          ],
          [
            7.383652,
            34.661975
          ],
          [
            7.383085,
            34.662312
          ],
          [
            7.382749,
            34.663251
          ],
          [
            7.381537,
            34.665051
          ],
          [
            7.381968,
            34.665584
          ],
          [
            7.382138,
            34.666287
          ],
          [
            7.381605,
            34.667603
          ],
          [
            7.380187,
            34.669145
          ],
          [
            7.378452,
            34.669803
          ],
          [
            7.377772,
            34.669485
          ],
          [
            7.377046,
            34.669859
          ],
          [
            7.376309,
            34.670676
          ],
          [
            7.37462,
            34.67173
          ],
          [
            7.373656,
            34.673556
          ],
          [
            7.373112,
            34.674123
          ],
          [
            7.370572,
            34.674157
          ],
          [
            7.367918,
            34.673953
          ],
          [
            7.367283,
            34.674316
          ],
          [
            7.363632,
            34.675609
          ],
          [
            7.362247,
            34.67536
          ],
          [
            7.359646,
            34.6754
          ],
          [
            7.358938,
            34.675898
          ],
          [
            7.357022,
            34.675834
          ],
          [
            7.355761,
            34.676192
          ],
          [
            7.355169,
            34.676737
          ],
          [
            7.354811,
            34.67764
          ],
          [
            7.354359,
            34.679727
          ],
          [
            7.349407,
            34.688291
          ],
          [
            7.34947,
            34.690082
          ],
          [
            7.346507,
            34.692692
          ],
          [
            7.345363,
            34.694225
          ],
          [
            7.344487,
            34.695757
          ],
          [
            7.343392,
            34.696439
          ],
          [
            7.33984,
            34.699991
          ],
          [
            7.338088,
            34.702887
          ],
          [
            7.336373,
            34.706713
          ],
          [
            7.334816,
            34.708722
          ],
          [
            7.333119,
            34.71003
          ],
          [
            7.329054,
            34.71573
          ],
          [
            7.328322,
            34.717863
          ],
          [
            7.328167,
            34.718984
          ],
          [
            7.327528,
            34.719732
          ],
          [
            7.325722,
            34.720386
          ],
          [
            7.325068,
            34.720448
          ],
          [
            7.322156,
            34.72199
          ],
          [
            7.319446,
            34.722223
          ],
          [
            7.318683,
            34.723158
          ],
          [
            7.318496,
            34.724077
          ],
          [
            7.318014,
            34.724808
          ],
          [
            7.316924,
            34.725104
          ],
          [
            7.314354,
            34.72864
          ],
          [
            7.312194,
            34.73003
          ],
          [
            7.308088,
            34.732169
          ],
          [
            7.305372,
            34.734029
          ],
          [
            7.303704,
            34.734778
          ],
          [
            7.299833,
            34.734821
          ],
          [
            7.29703,
            34.736899
          ],
          [
            7.296592,
            34.737871
          ],
          [
            7.295196,
            34.737775
          ],
          [
            7.294279,
            34.738063
          ],
          [
            7.293253,
            34.738788
          ],
          [
            7.285826,
            34.741236
          ],
          [
            7.284586,
            34.741814
          ],
          [
            7.276694,
            34.74269
          ],
          [
            7.2737,
            34.743332
          ],
          [
            7.27231,
            34.744679
          ],
          [
            7.272246,
            34.746155
          ],
          [
            7.27199,
            34.74731
          ],
          [
            7.271091,
            34.748678
          ],
          [
            7.270172,
            34.749641
          ],
          [
            7.267541,
            34.753939
          ],
          [
            7.265563,
            34.754773
          ],
          [
            7.265131,
            34.755826
          ],
          [
            7.262518,
            34.756371
          ],
          [
            7.260714,
            34.75763
          ],
          [
            7.259304,
            34.757855
          ],
          [
            7.258383,
            34.758401
          ],
          [
            7.256316,
            34.758401
          ],
          [
            7.255789,
            34.758682
          ],
          [
            7.255695,
            34.759378
          ],
          [
            7.254022,
            34.759491
          ],
          [
            7.253233,
            34.760111
          ],
          [
            7.252425,
            34.761408
          ],
          [
            7.252838,
            34.763118
          ],
          [
            7.252091,
            34.764097
          ]
        ]
      },
      "id": "itiner-e-location",
      "type": "Feature",
      "properties": {
        "description": "Hypothetical road segment imported from Itiner-e. Dates after BAtlDir.",
        "location_precision": "precise",
        "title": "Itiner-e Location: 19877 Djenndel-Midili",
        "link": "http://pleiades.stoa.org/places/337508/itiner-e-location"
      }
    }
  ]
}