{
  "type": "FeatureCollection",
  "title": "Harilaq",
  "id": "342573283",
  "bbox": [
    20.9965253,
    42.5779554,
    20.9987354,
    42.5787926
  ],
  "description": "A Late Roman fortified settlement located in the modern Republic of Kosovo.",
  "features": [
    {
      "type": "Feature",
      "geometry": {
        "type": "Point",
        "coordinates": [
          20.9977027884,
          42.5782791536
        ]
      },
      "properties": {
        "description": "representative point"
      }
    },
    {
      "geometry": {
        "type": "LineString",
        "coordinates": [
          [
            20.9967828,
            42.5783896
          ],
          [
            20.9973137,
            42.5785103
          ],
          [
            20.9974035,
            42.5785307
          ],
          [
            20.9976932,
            42.5786097
          ],
          [
            20.9980365,
            42.5787756
          ],
          [
            20.9982527,
            42.5787926
          ],
          [
            20.9984931,
            42.578725
          ],
          [
            20.9986288,
            42.5786126
          ],
          [
            20.9987029,
            42.5784362
          ],
          [
            20.9986829,
            42.5782659
          ],
          [
            20.998716,
            42.578115
          ],
          [
            20.9987354,
            42.5780263
          ],
          [
            20.9986466,
            42.5779554
          ],
          [
            20.9984686,
            42.5779617
          ],
          [
            20.9983578,
            42.5779626
          ],
          [
            20.9974051,
            42.5779709
          ],
          [
            20.9971092,
            42.5779709
          ],
          [
            20.996874,
            42.5779709
          ],
          [
            20.9968043,
            42.5779709
          ],
          [
            20.9966326,
            42.5780104
          ],
          [
            20.9965253,
            42.5781447
          ],
          [
            20.9965559,
            42.5782779
          ],
          [
            20.9966326,
            42.5783501
          ],
          [
            20.9967828,
            42.5783896
          ]
        ]
      },
      "id": "osm-location",
      "type": "Feature",
      "properties": {
        "description": "Representative location based on OpenStreetMap",
        "location_precision": "precise",
        "title": "OSM location of Kalaja e Harilaqit",
        "link": "http://pleiades.stoa.org/places/342573283/osm-location"
      }
    }
  ]
}