{
  "type": "FeatureCollection",
  "title": "Henchir Bu Hamed",
  "id": "344391",
  "bbox": [
    10.738368,
    33.29699,
    10.738368,
    33.29699
  ],
  "description": "An ancient place, cited: BAtlas 35 C1 Henchir Bu Hamed",
  "features": [
    {
      "type": "Feature",
      "geometry": {
        "type": "Point",
        "coordinates": [
          10.738368,
          33.29699
        ]
      },
      "properties": {
        "description": "representative point"
      }
    },
    {
      "geometry": {
        "type": "Point",
        "coordinates": [
          10.738368,
          33.29699
        ]
      },
      "id": "darmc-location-17456",
      "type": "Feature",
      "properties": {
        "description": "1:1 million scale representative point location digitized from the Barrington Atlas of the Greek and Roman World by the Digital Atlas of Roman and Medieval Civilizations project at Harvard University.",
        "location_precision": "precise",
        "title": "DARMC location 17456",
        "link": "http://pleiades.stoa.org/places/344391/darmc-location-17456"
      }
    }
  ]
}