{
  "type": "FeatureCollection",
  "title": "Villa Magna",
  "id": "344536",
  "bbox": [
    11.216424,
    33.181823,
    11.216424,
    33.181823
  ],
  "description": "An ancient place, cited: BAtlas 35 D1 Villa Magna",
  "names": [
    "Villa Magna",
    "Villa Privata"
  ],
  "features": [
    {
      "type": "Feature",
      "geometry": {
        "type": "Point",
        "coordinates": [
          11.216424,
          33.181823
        ]
      },
      "properties": {
        "description": "representative point"
      }
    },
    {
      "geometry": {
        "type": "Point",
        "coordinates": [
          11.216424,
          33.181823
        ]
      },
      "id": "darmc-location-17646",
      "type": "Feature",
      "properties": {
        "description": "1:1 million scale representative point location digitized from the Barrington Atlas of the Greek and Roman World by the Digital Atlas of Roman and Medieval Civilizations project at Harvard University.",
        "location_precision": "precise",
        "title": "DARMC location 17646",
        "link": "http://pleiades.stoa.org/places/344536/darmc-location-17646"
      }
    }
  ]
}