{
  "type": "FeatureCollection",
  "title": "Untitled",
  "id": "347304",
  "bbox": [
    13.681433,
    31.746343,
    13.681433,
    31.746343
  ],
  "description": "An ancient place, cited: BAtlas 35 F3 unnamed monument (N Wadi Meseuggi)",
  "features": [
    {
      "type": "Feature",
      "geometry": {
        "type": "Point",
        "coordinates": [
          13.681433,
          31.746343
        ]
      },
      "properties": {
        "description": "representative point"
      }
    },
    {
      "geometry": {
        "type": "Point",
        "coordinates": [
          13.681433,
          31.746343
        ]
      },
      "id": "darmc-location-25777",
      "type": "Feature",
      "properties": {
        "description": "1:500,000 scale representative point location digitized from the Barrington Atlas of the Greek and Roman World by the Digital Atlas of Roman and Medieval Civilizations project at Harvard University.",
        "location_precision": "precise",
        "title": "DARMC location 25777",
        "link": "http://pleiades.stoa.org/places/347304/darmc-location-25777"
      }
    }
  ]
}