{
  "type": "FeatureCollection",
  "title": "Roman theater at Helikore/Nicaea",
  "id": "347812262",
  "bbox": [
    29.7163641,
    40.4263234,
    29.7174503,
    40.4269598
  ],
  "description": "Pliny the Younger discussed the restoration of the theater in a letter sent to the Roman emperor Trajan.",
  "connectsWith": [
    "511268"
  ],
  "features": [
    {
      "type": "Feature",
      "geometry": {
        "type": "Point",
        "coordinates": [
          29.7169062065,
          40.4267005413
        ]
      },
      "properties": {
        "description": "representative point"
      }
    },
    {
      "geometry": {
        "type": "MultiLineString",
        "coordinates": [
          [
            [
              29.7167602,
              40.4267933
            ],
            [
              29.7167437,
              40.4267505
            ],
            [
              29.7167457,
              40.4267036
            ],
            [
              29.7167687,
              40.42666
            ],
            [
              29.7168099,
              40.4266251
            ],
            [
              29.7168644,
              40.4266029
            ],
            [
              29.7168992,
              40.4265971
            ],
            [
              29.7169607,
              40.4265999
            ],
            [
              29.7170174,
              40.4266186
            ],
            [
              29.7170622,
              40.4266509
            ],
            [
              29.7170898,
              40.4266928
            ],
            [
              29.717097,
              40.4267384
            ],
            [
              29.7170832,
              40.4267842
            ],
            [
              29.7172015,
              40.426806
            ],
            [
              29.7174297,
              40.4268532
            ],
            [
              29.7174462,
              40.4268113
            ],
            [
              29.7174503,
              40.4267681
            ],
            [
              29.7174482,
              40.4266908
            ],
            [
              29.7174321,
              40.4266247
            ],
            [
              29.7173888,
              40.4265462
            ],
            [
              29.717337,
              40.426481
            ],
            [
              29.7172819,
              40.426431
            ],
            [
              29.7171966,
              40.4263845
            ],
            [
              29.7170893,
              40.4263476
            ],
            [
              29.7169633,
              40.4263234
            ],
            [
              29.7168688,
              40.4263236
            ],
            [
              29.7167746,
              40.4263337
            ],
            [
              29.7166711,
              40.4263631
            ],
            [
              29.7165795,
              40.4264048
            ],
            [
              29.716503,
              40.426459
            ],
            [
              29.7164505,
              40.4265101
            ],
            [
              29.71639,
              40.4266097
            ],
            [
              29.7163641,
              40.4267066
            ],
            [
              29.716367,
              40.4267863
            ],
            [
              29.7163838,
              40.4268498
            ],
            [
              29.7165954,
              40.426817
            ],
            [
              29.7167602,
              40.4267933
            ]
          ],
          [
            [
              29.7165999,
              40.4269598
            ],
            [
              29.717206,
              40.4269487
            ],
            [
              29.7172015,
              40.426806
            ],
            [
              29.7165954,
              40.426817
            ],
            [
              29.7165999,
              40.4269598
            ]
          ]
        ]
      },
      "id": "osm-location-of-roma-antik-tiyatrosu",
      "type": "Feature",
      "properties": {
        "description": "Representative location based on OpenStreetMap",
        "location_precision": "precise",
        "title": "OSM location of  Roma Antik Tiyatrosu",
        "link": "http://pleiades.stoa.org/places/347812262/osm-location-of-roma-antik-tiyatrosu"
      }
    }
  ]
}