{
  "type": "FeatureCollection",
  "title": "Vivios",
  "id": "373365337",
  "bbox": [
    3.171736,
    43.2563512,
    3.1722859,
    43.256779
  ],
  "description": "Remains of a Roman villa.",
  "features": [
    {
      "type": "Feature",
      "geometry": {
        "type": "Point",
        "coordinates": [
          3.17199054888,
          43.2565508455
        ]
      },
      "properties": {
        "description": "representative point"
      }
    },
    {
      "geometry": {
        "type": "LineString",
        "coordinates": [
          [
            3.171736,
            43.256779
          ],
          [
            3.1720069,
            43.256779
          ],
          [
            3.1722859,
            43.2566012
          ],
          [
            3.1722859,
            43.2563727
          ],
          [
            3.1717602,
            43.2563512
          ],
          [
            3.171736,
            43.256779
          ]
        ]
      },
      "id": "location-of-roman-villa",
      "type": "Feature",
      "properties": {
        "description": "Location based on OpenStreetMap",
        "location_precision": "precise",
        "title": "OSM location of Roman villa",
        "link": "http://pleiades.stoa.org/places/373365337/location-of-roman-villa"
      }
    }
  ]
}