{
  "type": "FeatureCollection",
  "title": "Erythron",
  "id": "373785",
  "bbox": [
    22.2758393,
    32.8727044,
    22.2793905,
    32.873583000000004
  ],
  "description": "An ancient place, cited: BAtlas 38 D1 Erythron",
  "names": [
    "Erythron",
    "Erythrae"
  ],
  "features": [
    {
      "type": "Feature",
      "geometry": {
        "type": "Point",
        "coordinates": [
          22.2776092414,
          32.8731574129
        ]
      },
      "properties": {
        "description": "representative point"
      }
    },
    {
      "geometry": {
        "type": "LineString",
        "coordinates": [
          [
            22.2758393,
            32.873583000000004
          ],
          [
            22.2758983,
            32.8731099
          ],
          [
            22.2768156,
            32.8729522
          ],
          [
            22.277293,
            32.8728486
          ],
          [
            22.2776042,
            32.872799
          ],
          [
            22.2778831,
            32.8727765
          ],
          [
            22.2782586,
            32.872772
          ],
          [
            22.2784732,
            32.8727044
          ],
          [
            22.2791277,
            32.8727044
          ],
          [
            22.2792886,
            32.8728306
          ],
          [
            22.2793905,
            32.8732811
          ],
          [
            22.27931,
            32.8733126
          ],
          [
            22.2758393,
            32.873583000000004
          ]
        ]
      },
      "id": "location-of-archaeological-area",
      "type": "Feature",
      "properties": {
        "description": "Representative location based on OpenStreetMap.",
        "location_precision": "precise",
        "title": "OSM location of archaeological area, including Wadi el-Atrun and Latrun",
        "link": "http://pleiades.stoa.org/places/373785/location-of-archaeological-area"
      }
    }
  ]
}