{
  "type": "FeatureCollection",
  "title": "Bertelles",
  "id": "375256",
  "bbox": [
    21.991947,
    32.834993,
    21.991947,
    32.834993
  ],
  "description": "A \"fortified basilica\" in Cyrenaica, probably dating to the 6th century CE and associated with nearby farmsteads and tombs, the latter dating to the Roman period, but reused in late antiquity.",
  "names": [
    "BAtlas 38 D1 20",
    "Berteleis"
  ],
  "features": [
    {
      "type": "Feature",
      "geometry": {
        "type": "Point",
        "coordinates": [
          21.991947,
          32.834993
        ]
      },
      "properties": {
        "description": "representative point"
      }
    },
    {
      "geometry": {
        "type": "Point",
        "coordinates": [
          21.991947,
          32.834993
        ]
      },
      "id": "imagery-location",
      "type": "Feature",
      "properties": {
        "description": null,
        "location_precision": "precise",
        "title": "Imagery Location",
        "link": "http://pleiades.stoa.org/places/375256/imagery-location"
      }
    }
  ]
}