{
  "type": "FeatureCollection",
  "title": "Narbek",
  "id": "375241",
  "bbox": [
    21.6135,
    32.6152,
    21.6135,
    32.6152
  ],
  "description": "A rock-cut church located about 5km west of the modern town of Omar Mukhtar in Libya.",
  "features": [
    {
      "type": "Feature",
      "geometry": {
        "type": "Point",
        "coordinates": [
          21.6135,
          32.6152
        ]
      },
      "properties": {
        "description": "representative point"
      }
    },
    {
      "geometry": {
        "type": "Point",
        "coordinates": [
          21.6135,
          32.6152
        ]
      },
      "id": "batlas-location",
      "type": "Feature",
      "properties": {
        "description": null,
        "location_precision": "precise",
        "title": "Barrington Atlas map location",
        "link": "http://pleiades.stoa.org/places/375241/batlas-location"
      }
    }
  ]
}