{
  "type": "FeatureCollection",
  "title": "Temple of Augustus",
  "id": "391553443",
  "bbox": [
    13.8417338,
    44.870086,
    13.8419457,
    44.8702827
  ],
  "description": "The Temple of Augustus in Pula is a Roman temple that dates to the time of Augustus. The tetrastyle Corinthian temple sites a high podium.",
  "connectsWith": [
    "197448"
  ],
  "features": [
    {
      "type": "Feature",
      "geometry": {
        "type": "Point",
        "coordinates": [
          13.84183975,
          44.87018435
        ]
      },
      "properties": {
        "description": "representative point"
      }
    },
    {
      "geometry": {
        "type": "LineString",
        "coordinates": [
          [
            13.8417338,
            44.870248
          ],
          [
            13.8418377,
            44.870086
          ],
          [
            13.8419457,
            44.8701207
          ],
          [
            13.8418418,
            44.8702827
          ],
          [
            13.8417338,
            44.870248
          ]
        ]
      },
      "id": "temple-of-augustus",
      "type": "Feature",
      "properties": {
        "description": "Location based on OpenStreetMap",
        "location_precision": "precise",
        "title": "OSM location of Temple of Augustus",
        "link": "http://pleiades.stoa.org/places/391553443/temple-of-augustus"
      }
    }
  ]
}