{
  "type": "FeatureCollection",
  "title": "Anagrana/Negram",
  "id": "39286",
  "bbox": [
    44.18,
    17.477,
    44.18,
    17.477
  ],
  "description": "A large archaeological site in modern Saudi Arabia's Najrān oasis: al-Ukhdūd.",
  "names": [
    "Anagrana",
    "Negram",
    "Negrana",
    "Nagran",
    "al-Ukhdūd"
  ],
  "features": [
    {
      "type": "Feature",
      "geometry": {
        "type": "Point",
        "coordinates": [
          44.18,
          17.477
        ]
      },
      "properties": {
        "description": "representative point"
      }
    },
    {
      "geometry": {
        "type": "Point",
        "coordinates": [
          44.18,
          17.477
        ]
      },
      "id": "imagery-location-of-najran",
      "type": "Feature",
      "properties": {
        "description": "Location determined in Google Earth. Dates after BAtlas.",
        "location_precision": "precise",
        "title": "Imagery location of Najran",
        "link": "http://pleiades.stoa.org/places/39286/imagery-location-of-najran"
      }
    }
  ]
}