{
  "type": "FeatureCollection",
  "title": "Aualites",
  "id": "39304",
  "bbox": [
    42.733333,
    11.467623,
    43.463265,
    13.016667
  ],
  "description": "An ancient place, cited: BAtlas 4 B3 Aualites",
  "names": [
    "Aualites",
    "Aualites"
  ],
  "features": [
    {
      "type": "Feature",
      "geometry": {
        "type": "Point",
        "coordinates": [
          43.098299,
          12.242145
        ]
      },
      "properties": {
        "description": "representative point"
      }
    },
    {
      "geometry": {
        "type": "Point",
        "coordinates": [
          43.463265,
          11.467623
        ]
      },
      "id": "darmc-location-9635",
      "type": "Feature",
      "properties": {
        "description": "5M scale representative point location digitized from the Barrington Atlas of the Greek and Roman World by the Digital Atlas of Roman and Medieval Civilizations project at Harvard University.",
        "location_precision": "precise",
        "title": "DARMC location 9635",
        "link": "http://pleiades.stoa.org/places/39304/darmc-location-9635"
      }
    },
    {
      "geometry": {
        "type": "Point",
        "coordinates": [
          42.733333,
          13.016667
        ]
      },
      "id": "google-earth",
      "type": "Feature",
      "properties": {
        "description": "Coordinates after GeoHack, verified in Google Earth 2013.",
        "location_precision": "precise",
        "title": "Imagery location of Aualites",
        "link": "http://pleiades.stoa.org/places/39304/google-earth"
      }
    }
  ]
}