{
  "type": "FeatureCollection",
  "title": "Acelum",
  "id": "393357",
  "bbox": [
    11.912808,
    45.793247,
    11.912808,
    45.793247
  ],
  "description": "Acelum (modern Asolo) was an ancient settlement of the Veneti.",
  "names": [
    "Acelum",
    "Asolo"
  ],
  "features": [
    {
      "type": "Feature",
      "geometry": {
        "type": "Point",
        "coordinates": [
          11.912808,
          45.793247
        ]
      },
      "properties": {
        "description": "representative point"
      }
    },
    {
      "geometry": {
        "type": "Point",
        "coordinates": [
          11.912808,
          45.793247
        ]
      },
      "id": "darmc-location-6052",
      "type": "Feature",
      "properties": {
        "description": "1:500,000 scale representative point location digitized from the Barrington Atlas of the Greek and Roman World by the Digital Atlas of Roman and Medieval Civilizations project at Harvard University.",
        "location_precision": "precise",
        "title": "DARMC location 6052",
        "link": "http://pleiades.stoa.org/places/393357/darmc-location-6052"
      }
    }
  ]
}