{
  "type": "FeatureCollection",
  "title": "Brundulum",
  "id": "393393",
  "bbox": [
    12.2842163,
    45.1948519,
    12.2842163,
    45.1948519
  ],
  "description": "An ancient place, cited: BAtlas 40 C2 Brundulum",
  "names": [
    "Brundulum"
  ],
  "features": [
    {
      "type": "Feature",
      "geometry": {
        "type": "Point",
        "coordinates": [
          12.2842163,
          45.1948519
        ]
      },
      "properties": {
        "description": "representative point"
      }
    },
    {
      "geometry": {
        "type": "Point",
        "coordinates": [
          12.2842163,
          45.1948519
        ]
      },
      "id": "osm-location-of-brondolo",
      "type": "Feature",
      "properties": {
        "description": "Location based on OpenStreetMap",
        "location_precision": "precise",
        "title": "OSM location of Brondolo",
        "link": "http://pleiades.stoa.org/places/393393/osm-location-of-brondolo"
      }
    }
  ]
}