{
  "type": "FeatureCollection",
  "title": "Aponus",
  "id": "393376",
  "bbox": [
    11.7920809,
    45.3286363,
    11.7935622,
    45.3300848
  ],
  "description": "An ancient thermal site known as Aponi fons or Aquae Patavinae.",
  "names": [
    "Aponus",
    "Fons Aponi"
  ],
  "features": [
    {
      "type": "Feature",
      "geometry": {
        "type": "Point",
        "coordinates": [
          11.7927628953,
          45.3293833157
        ]
      },
      "properties": {
        "description": "representative point"
      }
    },
    {
      "geometry": {
        "type": "LineString",
        "coordinates": [
          [
            11.7926266,
            45.3300848
          ],
          [
            11.7935622,
            45.3297921
          ],
          [
            11.7927935,
            45.3286363
          ],
          [
            11.7920809,
            45.3288931
          ],
          [
            11.7924344,
            45.3294165
          ],
          [
            11.792229,
            45.3294827
          ],
          [
            11.7922857,
            45.3295705
          ],
          [
            11.7926266,
            45.3300848
          ]
        ]
      },
      "id": "osm-location",
      "type": "Feature",
      "properties": {
        "description": "Representative location based on OpenStreetMap",
        "location_precision": "precise",
        "title": "OSM location of Area Archeologica Via Scavi",
        "link": "http://pleiades.stoa.org/places/393376/osm-location"
      }
    }
  ]
}