{
  "type": "FeatureCollection",
  "title": "Bobadela Roman amphitheater",
  "id": "393959242",
  "bbox": [
    -7.8937621,
    40.3608044,
    -7.8932497,
    40.3613608
  ],
  "description": "The Bobadela Roman amphitheater dates to the second century.",
  "connectsWith": [
    "236458"
  ],
  "features": [
    {
      "type": "Feature",
      "geometry": {
        "type": "Point",
        "coordinates": [
          -7.89350413832,
          40.3610760795
        ]
      },
      "properties": {
        "description": "representative point"
      }
    },
    {
      "geometry": {
        "type": "MultiLineString",
        "coordinates": [
          [
            [
              -7.8934039,
              40.3613062
            ],
            [
              -7.893448,
              40.3613123
            ],
            [
              -7.8934574,
              40.3613117
            ],
            [
              -7.8934943,
              40.3613092
            ],
            [
              -7.8935411,
              40.3612969
            ],
            [
              -7.8935865,
              40.361276
            ],
            [
              -7.8936287,
              40.3612473
            ],
            [
              -7.8936663,
              40.3612118
            ],
            [
              -7.8936977,
              40.3611709
            ],
            [
              -7.8937218,
              40.3611262
            ],
            [
              -7.8937375,
              40.3610794
            ],
            [
              -7.8937443,
              40.3610323
            ],
            [
              -7.893742,
              40.3609867
            ],
            [
              -7.8937306,
              40.3609444
            ],
            [
              -7.8937106,
              40.360907
            ],
            [
              -7.8936827,
              40.3608759
            ],
            [
              -7.893648,
              40.3608523
            ],
            [
              -7.8936078,
              40.3608372
            ],
            [
              -7.8935637,
              40.3608311
            ],
            [
              -7.8935174,
              40.3608342
            ],
            [
              -7.8934707,
              40.3608464
            ],
            [
              -7.8934253,
              40.3608673
            ],
            [
              -7.893383,
              40.3608961
            ],
            [
              -7.8933454,
              40.3609316
            ],
            [
              -7.893314,
              40.3609725
            ],
            [
              -7.89329,
              40.3610172
            ],
            [
              -7.8932743,
              40.361064
            ],
            [
              -7.8932674,
              40.3611111
            ],
            [
              -7.8932698,
              40.3611567
            ],
            [
              -7.8932812,
              40.361199
            ],
            [
              -7.8933012,
              40.3612364
            ],
            [
              -7.8933291,
              40.3612675
            ],
            [
              -7.8933638,
              40.361291
            ],
            [
              -7.8933712,
              40.3612938
            ],
            [
              -7.8934039,
              40.3613062
            ]
          ],
          [
            [
              -7.8934522,
              40.3613255
            ],
            [
              -7.893498,
              40.3613225
            ],
            [
              -7.8935486,
              40.3613092
            ],
            [
              -7.893597,
              40.3612869
            ],
            [
              -7.8936416,
              40.3612566
            ],
            [
              -7.8936809,
              40.3612194
            ],
            [
              -7.8937136,
              40.3611769
            ],
            [
              -7.8937386,
              40.3611304
            ],
            [
              -7.8937549,
              40.3610818
            ],
            [
              -7.8937621,
              40.3610328
            ],
            [
              -7.8937596,
              40.3609851
            ],
            [
              -7.8937476,
              40.3609405
            ],
            [
              -7.8937262,
              40.3609006
            ],
            [
              -7.893696,
              40.3608669
            ],
            [
              -7.893658,
              40.3608411
            ],
            [
              -7.893628,
              40.3608298
            ],
            [
              -7.8936333,
              40.3608161
            ],
            [
              -7.8935811,
              40.3608044
            ],
            [
              -7.8935754,
              40.360819
            ],
            [
              -7.8935646,
              40.3608175
            ],
            [
              -7.8935137,
              40.3608209
            ],
            [
              -7.8934632,
              40.3608342
            ],
            [
              -7.8934148,
              40.3608565
            ],
            [
              -7.8933702,
              40.3608868
            ],
            [
              -7.8933309,
              40.3609239
            ],
            [
              -7.8932982,
              40.3609665
            ],
            [
              -7.8932732,
              40.3610129
            ],
            [
              -7.8932568,
              40.3610616
            ],
            [
              -7.8932497,
              40.3611106
            ],
            [
              -7.8932521,
              40.3611583
            ],
            [
              -7.8932642,
              40.3612029
            ],
            [
              -7.8932855,
              40.3612428
            ],
            [
              -7.8933157,
              40.3612764
            ],
            [
              -7.8933538,
              40.3613023
            ],
            [
              -7.8933662,
              40.361307
            ],
            [
              -7.8933531,
              40.3613421
            ],
            [
              -7.893439,
              40.3613608
            ],
            [
              -7.8934522,
              40.3613255
            ]
          ]
        ]
      },
      "id": "osm-location-of-anfiteatro-romano-de-bobadela",
      "type": "Feature",
      "properties": {
        "description": "Representative location based on OpenStreetMap",
        "location_precision": "precise",
        "title": "OSM location of Anfiteatro Romano de Bobadela",
        "link": "http://pleiades.stoa.org/places/393959242/osm-location-of-anfiteatro-romano-de-bobadela"
      }
    }
  ]
}