{
  "type": "FeatureCollection",
  "title": "Unnamed centuriation (Caesena)",
  "id": "396392",
  "bbox": [
    12.241165,
    44.1345598,
    12.2424262,
    44.1355528
  ],
  "description": "An ancient place, cited: BAtlas 40 C4 unnamed centuriation (Caesena)",
  "connectsWith": [
    "393397"
  ],
  "features": [
    {
      "type": "Feature",
      "geometry": {
        "type": "Point",
        "coordinates": [
          12.2417796041,
          44.1351031781
        ]
      },
      "properties": {
        "description": "representative point"
      }
    },
    {
      "geometry": {
        "type": "Polygon",
        "coordinates": [
          [
            [
              12.0,
              44.0
            ],
            [
              12.0,
              44.5
            ],
            [
              12.5,
              44.5
            ],
            [
              12.5,
              44.0
            ],
            [
              12.0,
              44.0
            ]
          ]
        ]
      },
      "id": "batlas-location",
      "type": "Feature",
      "properties": {
        "description": null,
        "location_precision": "rough",
        "title": "Barrington Atlas location",
        "link": "http://pleiades.stoa.org/places/396392/batlas-location"
      }
    }
  ]
}