{
  "type": "FeatureCollection",
  "title": "Withdrawn: Scytala (duplicate)",
  "id": "40301",
  "description": "Duplicate inherited from BAtlDir for https://pleiades.stoa.org/places/767858",
  "names": [
    "Scytala"
  ],
  "features": [
    {
      "type": "Feature",
      "geometry": null,
      "properties": {
        "description": "representative point"
      }
    },
    {
      "geometry": null,
      "id": "batlas-location",
      "type": "Feature",
      "properties": {
        "description": null,
        "location_precision": "unlocated",
        "title": "Barrington Atlas location",
        "link": "http://pleiades.stoa.org/errata/40301/batlas-location"
      }
    }
  ]
}