{
  "type": "FeatureCollection",
  "title": "S. Maria del Giudice",
  "id": "403273",
  "bbox": [
    10.4571433,
    43.7795666,
    10.4571433,
    43.7795666
  ],
  "description": "An ancient place, cited: BAtlas 41 C2 S. Maria del Giudice",
  "names": [
    "S. Maria del Giudice"
  ],
  "features": [
    {
      "type": "Feature",
      "geometry": {
        "type": "Point",
        "coordinates": [
          10.4571433,
          43.7795666
        ]
      },
      "properties": {
        "description": "representative point"
      }
    },
    {
      "geometry": {
        "type": "Point",
        "coordinates": [
          10.4571433,
          43.7795666
        ]
      },
      "id": "osm-location-of-santa-maria-del-giudice",
      "type": "Feature",
      "properties": {
        "description": "Location based on OpenStreetMap",
        "location_precision": "precise",
        "title": "OSM location of Santa Maria del Giudice",
        "link": "http://pleiades.stoa.org/places/403273/osm-location-of-santa-maria-del-giudice"
      }
    }
  ]
}