{
  "type": "FeatureCollection",
  "title": "Fufluna/Populonium",
  "id": "403212",
  "bbox": [
    10.488999,
    42.987762,
    10.4903315,
    42.9885941
  ],
  "description": "Populonia likely derives its name from the Etruscan god 'Fufluns' and was an important maritime and commercial center of Etruria located in the Colline Metallifere.",
  "connectsWith": [
    "413122"
  ],
  "names": [
    "Fufluna",
    "Populonium",
    "Populonia",
    "Poplṓnion",
    "Populonenses",
    "Populonio"
  ],
  "features": [
    {
      "type": "Feature",
      "geometry": {
        "type": "Point",
        "coordinates": [
          10.4896465247,
          42.9882438975
        ]
      },
      "properties": {
        "description": "representative point"
      }
    },
    {
      "geometry": {
        "type": "MultiLineString",
        "coordinates": [
          [
            [
              10.4893636,
              42.9885154
            ],
            [
              10.4895215,
              42.9884666
            ],
            [
              10.4896288,
              42.9884685
            ],
            [
              10.4897012,
              42.9884764
            ],
            [
              10.4897549,
              42.9885078
            ],
            [
              10.4900258,
              42.9885902
            ],
            [
              10.4901036,
              42.9885568
            ],
            [
              10.490184,
              42.9885941
            ]
          ],
          [
            [
              10.4896148,
              42.987762
            ],
            [
              10.488999,
              42.9879825
            ],
            [
              10.4890658,
              42.9882036
            ],
            [
              10.4893636,
              42.9885154
            ]
          ],
          [
            [
              10.4901492,
              42.9882939
            ],
            [
              10.489893,
              42.9883459
            ],
            [
              10.4897415,
              42.9880212
            ],
            [
              10.4896148,
              42.987762
            ]
          ],
          [
            [
              10.490184,
              42.9885941
            ],
            [
              10.4903315,
              42.9884725
            ],
            [
              10.4901492,
              42.9882939
            ]
          ]
        ]
      },
      "id": "osm-location-of-populonia",
      "type": "Feature",
      "properties": {
        "description": "Location based on OpenStreetMap",
        "location_precision": "precise",
        "title": "OSM location of Populonia",
        "link": "http://pleiades.stoa.org/places/403212/osm-location-of-populonia"
      }
    }
  ]
}