{
  "type": "FeatureCollection",
  "title": "Bwrdd Arthur",
  "id": "40432758",
  "bbox": [
    -4.1257918,
    53.3095451,
    -4.1209494,
    53.3129585
  ],
  "description": "Bwrdd Arthur is the site of an Iron Age hill fort atop a limestone hill in Anglesey, Wales.",
  "connectsWith": [
    "79601"
  ],
  "features": [
    {
      "type": "Feature",
      "geometry": {
        "type": "Point",
        "coordinates": [
          -4.12333921509,
          53.3111204999
        ]
      },
      "properties": {
        "description": "representative point"
      }
    },
    {
      "geometry": {
        "type": "LineString",
        "coordinates": [
          [
            -4.1256688,
            53.3115785
          ],
          [
            -4.1253681,
            53.3117826
          ],
          [
            -4.1249307,
            53.3120113
          ],
          [
            -4.1246027,
            53.3122073
          ],
          [
            -4.1242473,
            53.3124441
          ],
          [
            -4.1239329,
            53.3126482
          ],
          [
            -4.1235639,
            53.3127952
          ],
          [
            -4.1230992,
            53.3129422
          ],
          [
            -4.1228532,
            53.3129585
          ],
          [
            -4.1227387,
            53.3128905
          ],
          [
            -4.1226445,
            53.3128345
          ],
          [
            -4.1224901,
            53.3127428
          ],
          [
            -4.1223163,
            53.3126047
          ],
          [
            -4.1218691,
            53.3121093
          ],
          [
            -4.1216367,
            53.3118561
          ],
          [
            -4.1215137,
            53.311554
          ],
          [
            -4.121336,
            53.3112927
          ],
          [
            -4.1210763,
            53.311162
          ],
          [
            -4.1209494,
            53.3110086
          ],
          [
            -4.1209826,
            53.3109196
          ],
          [
            -4.1210313,
            53.3108527
          ],
          [
            -4.121049,
            53.310819
          ],
          [
            -4.121172,
            53.3106394
          ],
          [
            -4.121254,
            53.3103127
          ],
          [
            -4.1214727,
            53.3100106
          ],
          [
            -4.1215957,
            53.3098881
          ],
          [
            -4.1217597,
            53.3097492
          ],
          [
            -4.1221424,
            53.3097737
          ],
          [
            -4.1227165,
            53.3099452
          ],
          [
            -4.1227827,
            53.3099294
          ],
          [
            -4.1229898,
            53.3098799
          ],
          [
            -4.1232905,
            53.3097411
          ],
          [
            -4.1235776,
            53.3096104
          ],
          [
            -4.1239466,
            53.3095451
          ],
          [
            -4.1243156,
            53.3095859
          ],
          [
            -4.124548,
            53.3097247
          ],
          [
            -4.124794,
            53.3099371
          ],
          [
            -4.1250537,
            53.3101902
          ],
          [
            -4.1252587,
            53.3105006
          ],
          [
            -4.1253817,
            53.3107292
          ],
          [
            -4.1256414,
            53.3109334
          ],
          [
            -4.1257644,
            53.3110804
          ],
          [
            -4.1257644,
            53.3112437
          ],
          [
            -4.1257918,
            53.311456
          ],
          [
            -4.1256688,
            53.3115785
          ]
        ]
      },
      "id": "location-of-bwrdd-arthur-hill-fort",
      "type": "Feature",
      "properties": {
        "description": "Representative location based on OpenStreetMap",
        "location_precision": "precise",
        "title": "OSM location of Bwrdd Arthur hill fort",
        "link": "http://pleiades.stoa.org/places/40432758/location-of-bwrdd-arthur-hill-fort"
      }
    }
  ]
}