{
  "type": "FeatureCollection",
  "title": "Monastero di San Mamiliano",
  "id": "406949",
  "bbox": [
    10.3019945,
    42.3376802,
    10.3019945,
    42.3376802
  ],
  "description": "The monastery of San Mamiliano located on the island of Montecristo.",
  "connectsWith": [
    "403247"
  ],
  "names": [
    "Monastero di San Mamiliano"
  ],
  "features": [
    {
      "type": "Feature",
      "geometry": {
        "type": "Point",
        "coordinates": [
          10.3019945,
          42.3376802
        ]
      },
      "properties": {
        "description": "representative point"
      }
    },
    {
      "geometry": {
        "type": "Point",
        "coordinates": [
          10.3019945,
          42.3376802
        ]
      },
      "id": "osm-location-of-monastero-di-san-mamiliano",
      "type": "Feature",
      "properties": {
        "description": "Representative location based on OpenStreetMap.",
        "location_precision": "precise",
        "title": "OSM location of Monastero di San Mamiliano",
        "link": "http://pleiades.stoa.org/places/406949/osm-location-of-monastero-di-san-mamiliano"
      }
    }
  ]
}