{
  "type": "FeatureCollection",
  "title": "Unnamed monastery (Urgo)",
  "id": "406948",
  "bbox": [
    9.8881379,
    43.4197864,
    9.9089801,
    43.43949
  ],
  "description": "An ancient place, cited: BAtlas 41 B3 unnamed monastery (Urgo)",
  "connectsWith": [
    "403286"
  ],
  "features": [
    {
      "type": "Feature",
      "geometry": {
        "type": "Point",
        "coordinates": [
          9.89889322894,
          43.4293375827
        ]
      },
      "properties": {
        "description": "representative point"
      }
    },
    {
      "geometry": {
        "type": "Polygon",
        "coordinates": [
          [
            [
              9.5,
              43.0
            ],
            [
              9.5,
              43.5
            ],
            [
              10.0,
              43.5
            ],
            [
              10.0,
              43.0
            ],
            [
              9.5,
              43.0
            ]
          ]
        ]
      },
      "id": "batlas-location",
      "type": "Feature",
      "properties": {
        "description": null,
        "location_precision": "rough",
        "title": "Barrington Atlas location",
        "link": "http://pleiades.stoa.org/places/406948/batlas-location"
      }
    }
  ]
}