{
  "type": "FeatureCollection",
  "title": "Turrita",
  "id": "409240",
  "bbox": [
    10.4763275,
    43.5582174,
    10.4775621,
    43.5586073
  ],
  "description": "Now unlocated, Turrita was a station (statio) near Pisae.",
  "connectsWith": [
    "502042016"
  ],
  "names": [
    "Turrita",
    "Tuirtta"
  ],
  "features": [
    {
      "type": "Feature",
      "geometry": {
        "type": "Point",
        "coordinates": [
          10.4769785875,
          43.5584023613
        ]
      },
      "properties": {
        "description": "representative point"
      }
    },
    {
      "geometry": {
        "type": "LineString",
        "coordinates": [
          [
            10.4763352,
            43.5583772
          ],
          [
            10.4763275,
            43.5582887
          ],
          [
            10.4774496,
            43.5582174
          ],
          [
            10.4775244,
            43.5584171
          ],
          [
            10.4775621,
            43.5586073
          ],
          [
            10.4765168,
            43.5585062
          ],
          [
            10.4763352,
            43.5583772
          ]
        ]
      },
      "id": "osm-location-of-parco-archeologico-di-torretta",
      "type": "Feature",
      "properties": {
        "description": "Representative location based on OpenStreetMap",
        "location_precision": "precise",
        "title": "OSM location of Parco archeologico di Torretta Vecchia",
        "link": "http://pleiades.stoa.org/places/409240/osm-location-of-parco-archeologico-di-torretta"
      }
    }
  ]
}