{
  "type": "FeatureCollection",
  "title": "Domus Aurea",
  "id": "410440793",
  "bbox": [
    12.4944697,
    41.8908305,
    12.4957944,
    41.8920058
  ],
  "description": "A sprawling palace complex begun by Nero after A.D. 64 that aimed to connect the Esquiline, Caelian, and Palatine hills.",
  "connectsWith": [
    "423025",
    "378562728"
  ],
  "names": [
    "Domus Aurea"
  ],
  "features": [
    {
      "type": "Feature",
      "geometry": {
        "type": "Point",
        "coordinates": [
          12.4948761436,
          41.8913960588
        ]
      },
      "properties": {
        "description": "representative point"
      }
    },
    {
      "geometry": {
        "type": "LineString",
        "coordinates": [
          [
            12.4944697,
            41.8909326
          ],
          [
            12.4945026,
            41.8912057
          ],
          [
            12.4945147,
            41.8912049
          ],
          [
            12.4944828,
            41.8909411
          ],
          [
            12.494621799999999,
            41.8909364
          ],
          [
            12.4947132,
            41.8919284
          ],
          [
            12.4948338,
            41.8919229
          ],
          [
            12.494818,
            41.8917299
          ],
          [
            12.4947233,
            41.8917342
          ],
          [
            12.494724,
            41.8917431
          ],
          [
            12.4948067,
            41.8917394
          ],
          [
            12.4948211,
            41.8919145
          ],
          [
            12.4947245,
            41.8919189
          ],
          [
            12.4946815,
            41.8913958
          ],
          [
            12.4948541,
            41.891388
          ],
          [
            12.4948138,
            41.8914206
          ],
          [
            12.494835,
            41.8915275
          ],
          [
            12.4950109,
            41.8917973
          ],
          [
            12.494962,
            41.8919951
          ],
          [
            12.4948155,
            41.8919724
          ],
          [
            12.4947012,
            41.8919665
          ],
          [
            12.4946681,
            41.8918271
          ],
          [
            12.4946017,
            41.8917541
          ],
          [
            12.4945039,
            41.8917252
          ],
          [
            12.4944995,
            41.8917336
          ],
          [
            12.4945938,
            41.8917614
          ],
          [
            12.4946567,
            41.8918306
          ],
          [
            12.494691,
            41.891975
          ],
          [
            12.4948138,
            41.8919813
          ],
          [
            12.4949716,
            41.8920058
          ],
          [
            12.4950235,
            41.8917961
          ],
          [
            12.4948467,
            41.8915248
          ],
          [
            12.494826400000001,
            41.8914222
          ],
          [
            12.4949599,
            41.8913142
          ],
          [
            12.4951305,
            41.8912406
          ],
          [
            12.4953229,
            41.8912083
          ],
          [
            12.4955195,
            41.89122
          ],
          [
            12.4957024,
            41.8912748
          ],
          [
            12.4957876,
            41.8913267
          ],
          [
            12.4957944,
            41.8913205
          ],
          [
            12.4957079,
            41.8912679
          ],
          [
            12.495522,
            41.8912122
          ],
          [
            12.4953221,
            41.8912002
          ],
          [
            12.4951266,
            41.8912331
          ],
          [
            12.4949531,
            41.8913079
          ],
          [
            12.4948659,
            41.8913784
          ],
          [
            12.4946805,
            41.8913869
          ],
          [
            12.4946334,
            41.8909315
          ],
          [
            12.4946627,
            41.8909305
          ],
          [
            12.4946572,
            41.8908416
          ],
          [
            12.4948464,
            41.8908352
          ],
          [
            12.4948501,
            41.890895
          ],
          [
            12.4952619,
            41.8908832
          ],
          [
            12.4952616,
            41.8908788
          ],
          [
            12.4948558,
            41.8908903
          ],
          [
            12.4948521,
            41.8908305
          ],
          [
            12.4946509,
            41.8908373
          ],
          [
            12.4946564,
            41.8909262
          ],
          [
            12.4946329,
            41.890927
          ],
          [
            12.4944697,
            41.8909326
          ]
        ]
      },
      "id": "osm-location-esquiline-wing-of-the-domus-aurea",
      "type": "Feature",
      "properties": {
        "description": "Representative location based on OpenStreetMap.",
        "location_precision": "precise",
        "title": "OSM location of Esquiline wing of the Domus Aurea",
        "link": "http://pleiades.stoa.org/places/410440793/osm-location-esquiline-wing-of-the-domus-aurea"
      }
    }
  ]
}