{
  "type": "FeatureCollection",
  "title": "Clitumnus (river)",
  "id": "413091",
  "bbox": [
    12.6087358,
    42.9312039,
    12.6089347,
    42.9314293
  ],
  "description": "A small river of Umbria.",
  "connectsWith": [
    "423080"
  ],
  "names": [
    "Clitumnus",
    "Fiume Clitunno"
  ],
  "features": [
    {
      "type": "Feature",
      "geometry": {
        "type": "Point",
        "coordinates": [
          12.60883525,
          42.9313166
        ]
      },
      "properties": {
        "description": "representative point"
      }
    },
    {
      "geometry": {
        "type": "LineString",
        "coordinates": [
          [
            12.6089347,
            42.9314293
          ],
          [
            12.6087358,
            42.9312039
          ]
        ]
      },
      "id": "osm-location-of-fiume-clitunno",
      "type": "Feature",
      "properties": {
        "description": "Associated modern location based on OpenStreetMap.",
        "location_precision": "precise",
        "title": "OSM location of Fiume Clitunno",
        "link": "http://pleiades.stoa.org/places/413091/osm-location-of-fiume-clitunno"
      }
    }
  ]
}