{
  "type": "FeatureCollection",
  "title": "*Cingulus (mountain)",
  "id": "413083",
  "bbox": [
    13.0606101,
    43.3316671,
    13.0606101,
    43.3316671
  ],
  "description": "Monte S. Vicino.",
  "names": [
    "Cingulus",
    "Monte San Vicino"
  ],
  "features": [
    {
      "type": "Feature",
      "geometry": {
        "type": "Point",
        "coordinates": [
          13.0606101,
          43.3316671
        ]
      },
      "properties": {
        "description": "representative point"
      }
    },
    {
      "geometry": {
        "type": "Point",
        "coordinates": [
          13.0606101,
          43.3316671
        ]
      },
      "id": "osm-location",
      "type": "Feature",
      "properties": {
        "description": "Representative modern location based on OpenStreetMap.",
        "location_precision": "precise",
        "title": "OSM location of Monte San Vicino",
        "link": "http://pleiades.stoa.org/places/413083/osm-location"
      }
    }
  ]
}