{
  "type": "FeatureCollection",
  "title": "Heba",
  "id": "413164",
  "bbox": [
    11.3075971,
    42.585634400000004,
    11.3075971,
    42.585634400000004
  ],
  "description": "A Roman colony that was established in the third or second century B.C., Heba lay near modern Magliano. Funerary evidence indicates previous Etruscan occupation at the site.",
  "names": [
    "Heba"
  ],
  "features": [
    {
      "type": "Feature",
      "geometry": {
        "type": "Point",
        "coordinates": [
          11.3075971,
          42.585634400000004
        ]
      },
      "properties": {
        "description": "representative point"
      }
    },
    {
      "geometry": {
        "type": "Point",
        "coordinates": [
          11.3075971,
          42.585634400000004
        ]
      },
      "id": "location-of-heba",
      "type": "Feature",
      "properties": {
        "description": "Location based on OpenStreetMap",
        "location_precision": "precise",
        "title": "OSM location of Heba",
        "link": "http://pleiades.stoa.org/places/413164/location-of-heba"
      }
    }
  ]
}