{
  "type": "FeatureCollection",
  "title": "Sestinum",
  "id": "413315",
  "bbox": [
    12.298883,
    43.710612,
    12.298883,
    43.710612
  ],
  "description": "Sestinum was an ancient place in Umbria near the headwaters of the river Pisaurus. Pliny mentions the site, and its ancient name is preserved in modern toponymy.",
  "connectsWith": [
    "943743265",
    "413257"
  ],
  "names": [
    "Sestinum",
    "Sestino",
    "Sestinates"
  ],
  "features": [
    {
      "type": "Feature",
      "geometry": {
        "type": "Point",
        "coordinates": [
          12.298883,
          43.710612
        ]
      },
      "properties": {
        "description": "representative point"
      }
    },
    {
      "geometry": {
        "type": "Point",
        "coordinates": [
          12.298883,
          43.710612
        ]
      },
      "id": "darmc-location-18881",
      "type": "Feature",
      "properties": {
        "description": "500K scale point location",
        "location_precision": "precise",
        "title": "DARMC location 18881",
        "link": "http://pleiades.stoa.org/places/413315/darmc-location-18881"
      }
    }
  ]
}