{
  "type": "FeatureCollection",
  "title": "Statulae",
  "id": "413322",
  "bbox": [
    13.773125,
    42.087576,
    13.773125,
    42.087576
  ],
  "description": "Statulae is a station marked on the Peutinger map. It was located in the territory of the Paeligni, 7 miles from Corfinium.",
  "names": [
    "Statulae",
    "Statule"
  ],
  "features": [
    {
      "type": "Feature",
      "geometry": {
        "type": "Point",
        "coordinates": [
          13.773125,
          42.087576
        ]
      },
      "properties": {
        "description": "representative point"
      }
    },
    {
      "geometry": {
        "type": "Point",
        "coordinates": [
          13.773125,
          42.087576
        ]
      },
      "id": "darmc-location-19356",
      "type": "Feature",
      "properties": {
        "description": "500K scale point location",
        "location_precision": "precise",
        "title": "DARMC location 19356",
        "link": "http://pleiades.stoa.org/places/413322/darmc-location-19356"
      }
    }
  ]
}