{
  "type": "FeatureCollection",
  "title": "Untitled",
  "id": "414501",
  "bbox": [
    11.9929855,
    42.1786591,
    11.9932133,
    42.1787997
  ],
  "description": "An ancient place, cited: BAtlas 42 B4 unnamed bridge (near Aquae Apollinares? on road to Tarquinii at La Mola)",
  "connectsWith": [
    "413202",
    "413022"
  ],
  "features": [
    {
      "type": "Feature",
      "geometry": {
        "type": "Point",
        "coordinates": [
          11.9930994221,
          42.1787294158
        ]
      },
      "properties": {
        "description": "representative point"
      }
    },
    {
      "geometry": {
        "type": "LineString",
        "coordinates": [
          [
            11.9930363,
            42.1787997
          ],
          [
            11.9932133,
            42.1787262
          ],
          [
            11.9931626,
            42.1786591
          ],
          [
            11.9929855,
            42.1787327
          ],
          [
            11.9930363,
            42.1787997
          ]
        ]
      },
      "id": "osm-location-of-la-mola",
      "type": "Feature",
      "properties": {
        "description": "Location based on OpenStreetMap",
        "location_precision": "precise",
        "title": "OSM location of La Mola",
        "link": "http://pleiades.stoa.org/places/414501/osm-location-of-la-mola"
      }
    }
  ]
}