{
  "type": "FeatureCollection",
  "title": "Ponte d'Arli",
  "id": "415397391",
  "bbox": [
    13.4607361,
    42.7978273,
    13.4607361,
    42.7978273
  ],
  "description": "A Roman bridge along the Via Salaria near Ascoli Piceno.",
  "connectsWith": [
    "18271457"
  ],
  "features": [
    {
      "type": "Feature",
      "geometry": {
        "type": "Point",
        "coordinates": [
          13.4607361,
          42.7978273
        ]
      },
      "properties": {
        "description": "representative point"
      }
    },
    {
      "geometry": {
        "type": "LineString",
        "coordinates": [
          [
            13.4606397,
            42.7983337
          ],
          [
            13.4606319,
            42.7982525
          ],
          [
            13.4606443,
            42.7981389
          ],
          [
            13.4606509,
            42.7980659
          ],
          [
            13.4606668,
            42.7980014
          ],
          [
            13.4607212,
            42.7978114
          ]
        ]
      },
      "id": "location-of-roman-bridge",
      "type": "Feature",
      "properties": {
        "description": "Representative location based on OpenStreetMap.",
        "location_precision": "precise",
        "title": "OSM location of Ponte D'Arli",
        "link": "http://pleiades.stoa.org/places/415397391/location-of-roman-bridge"
      }
    }
  ]
}