{
  "type": "FeatureCollection",
  "title": "Withdrawn: Cutiliensis L.",
  "id": "416798",
  "description": "Duplicate inherited from BAtlas/BAtlDir for https://pleiades.stoa.org/places/413115",
  "names": [
    "Cutiliensis L."
  ],
  "features": [
    {
      "type": "Feature",
      "geometry": null,
      "properties": {
        "description": "representative point"
      }
    },
    {
      "geometry": null,
      "id": "batlas-location",
      "type": "Feature",
      "properties": {
        "description": null,
        "location_precision": "unlocated",
        "title": "Barrington Atlas location",
        "link": "http://pleiades.stoa.org/errata/416798/batlas-location"
      }
    }
  ]
}