{
  "type": "FeatureCollection",
  "title": "Ad Sextum",
  "id": "416771",
  "description": "Ad Sextum was a Roman road station located between Populonium and Saena.",
  "names": [
    "Ad Sextum"
  ],
  "features": [
    {
      "type": "Feature",
      "geometry": null,
      "properties": {
        "description": "representative point"
      }
    },
    {
      "geometry": null,
      "id": "batlas-location",
      "type": "Feature",
      "properties": {
        "description": null,
        "location_precision": "unlocated",
        "title": "Barrington Atlas location",
        "link": "http://pleiades.stoa.org/places/416771/batlas-location"
      }
    }
  ]
}