{
  "type": "FeatureCollection",
  "title": "Ad Tine Recine",
  "id": "416772",
  "description": "‘Ad Tine Recine’ was a Roman road station between Tres Tabernae and Fanum Fugitivi.",
  "names": [
    "Ad Tine Recine"
  ],
  "features": [
    {
      "type": "Feature",
      "geometry": null,
      "properties": {
        "description": "representative point"
      }
    },
    {
      "geometry": null,
      "id": "batlas-location",
      "type": "Feature",
      "properties": {
        "description": null,
        "location_precision": "unlocated",
        "title": "Barrington Atlas location",
        "link": "http://pleiades.stoa.org/places/416772/batlas-location"
      }
    }
  ]
}