{
  "type": "FeatureCollection",
  "title": "Ad Ioglandem",
  "id": "416765",
  "description": "Ad Ioglandem was a Roman road station located between Florentia and Clusium.",
  "names": [
    "Ad Ioglandem"
  ],
  "features": [
    {
      "type": "Feature",
      "geometry": null,
      "properties": {
        "description": "representative point"
      }
    },
    {
      "geometry": null,
      "id": "batlas-location",
      "type": "Feature",
      "properties": {
        "description": null,
        "location_precision": "unlocated",
        "title": "Barrington Atlas location",
        "link": "http://pleiades.stoa.org/places/416765/batlas-location"
      }
    }
  ]
}