{
  "type": "FeatureCollection",
  "title": "Casali",
  "id": "422874",
  "bbox": [
    12.998237,
    41.53754,
    12.998237,
    41.53754
  ],
  "description": "An ancient place, cited: BAtlas 43 D3 Casali",
  "features": [
    {
      "type": "Feature",
      "geometry": {
        "type": "Point",
        "coordinates": [
          12.998237,
          41.53754
        ]
      },
      "properties": {
        "description": "representative point"
      }
    },
    {
      "geometry": {
        "type": "Point",
        "coordinates": [
          12.998237,
          41.53754
        ]
      },
      "id": "darmc-location-18304",
      "type": "Feature",
      "properties": {
        "description": "1:150,000 scale representative point location digitized from the Barrington Atlas of the Greek and Roman World by the Digital Atlas of Roman and Medieval Civilizations project at Harvard University.",
        "location_precision": "precise",
        "title": "DARMC location 18304",
        "link": "http://pleiades.stoa.org/places/422874/darmc-location-18304"
      }
    }
  ]
}