{
  "type": "FeatureCollection",
  "title": "Macellum Liviae",
  "id": "422819772",
  "description": "The Macellum Liviae or \"market of Livia\" is traditionally understood to be a commercial complex dedicated by Augustus on the Esquiline Hill in the name of his wife Livia Drusilla.",
  "connectsWith": [
    "423025",
    "679976755"
  ],
  "names": [
    "Macellum Liviae"
  ],
  "features": [
    {
      "type": "Feature",
      "geometry": null,
      "properties": {
        "description": "representative point"
      }
    }
  ]
}