{
  "type": "FeatureCollection",
  "title": "Castra Albana",
  "id": "422885",
  "bbox": [
    12.6529198,
    41.722411,
    12.6656297,
    41.7329403
  ],
  "description": "Castra Albana was a permanent, fortified camp of the Legio II Parthica constructed during the Severan period.",
  "connectsWith": [
    "356966898"
  ],
  "names": [
    "Castra Albana"
  ],
  "features": [
    {
      "type": "Feature",
      "geometry": {
        "type": "Point",
        "coordinates": [
          12.6602125859,
          41.7290233612
        ]
      },
      "properties": {
        "description": "representative point"
      }
    }
  ]
}