{
  "type": "FeatureCollection",
  "title": "Marina di S. Nicola",
  "id": "422970",
  "bbox": [
    12.1247603,
    41.9263183,
    12.1259492,
    41.9271565
  ],
  "description": "Marina di S. Nicola is located close to Alsium.",
  "connectsWith": [
    "422831"
  ],
  "names": [
    "Marina di S. Nicola"
  ],
  "features": [
    {
      "type": "Feature",
      "geometry": {
        "type": "Point",
        "coordinates": [
          12.1253595153,
          41.9267375322
        ]
      },
      "properties": {
        "description": "representative point"
      }
    },
    {
      "geometry": {
        "type": "LineString",
        "coordinates": [
          [
            12.1247603,
            41.9267897
          ],
          [
            12.1255286,
            41.9263183
          ],
          [
            12.1259492,
            41.9266825
          ],
          [
            12.125237,
            41.9271565
          ],
          [
            12.1247603,
            41.9267897
          ]
        ]
      },
      "id": "osm-location-villa-di-pompeo",
      "type": "Feature",
      "properties": {
        "description": "Representative location based on OpenStreetMap",
        "location_precision": "precise",
        "title": "OSM location: Villa di Pompeo",
        "link": "http://pleiades.stoa.org/places/422970/osm-location-villa-di-pompeo"
      }
    }
  ]
}