{
  "type": "FeatureCollection",
  "title": "Tusculum",
  "id": "423108",
  "bbox": [
    12.7028486,
    41.7957839,
    12.7112291,
    41.7996259
  ],
  "description": "Tusculum was a Latin city of the Alban Hills in central Italy. After 381 B.C., Tusculum became the first \"municipium cum suffragio\".",
  "connectsWith": [
    "74935822",
    "93042695",
    "174457453"
  ],
  "names": [
    "Tusculum",
    "Tuscolo",
    "Tousklon",
    "Touskoulon"
  ],
  "features": [
    {
      "type": "Feature",
      "geometry": {
        "type": "Point",
        "coordinates": [
          12.7072072835,
          41.7980767008
        ]
      },
      "properties": {
        "description": "representative point"
      }
    },
    {
      "geometry": {
        "type": "LineString",
        "coordinates": [
          [
            12.7083932,
            41.799106
          ],
          [
            12.7070545,
            41.7991652
          ],
          [
            12.7039338,
            41.7996259
          ],
          [
            12.7038079,
            41.7995231
          ],
          [
            12.7028486,
            41.7987398
          ],
          [
            12.7040698,
            41.7978414
          ],
          [
            12.7073924,
            41.7971884
          ],
          [
            12.7076648,
            41.7958489
          ],
          [
            12.7087769,
            41.7957839
          ],
          [
            12.7086192,
            41.7971565
          ],
          [
            12.7092264,
            41.7974399
          ],
          [
            12.7096337,
            41.7975585
          ],
          [
            12.7100776,
            41.7976199
          ],
          [
            12.710178,
            41.7978229
          ],
          [
            12.7103501,
            41.7980141
          ],
          [
            12.7105835,
            41.798041
          ],
          [
            12.7106631,
            41.7980779
          ],
          [
            12.7111117,
            41.7981071
          ],
          [
            12.7111907,
            41.7981151
          ],
          [
            12.7112291,
            41.7984228
          ],
          [
            12.7109416,
            41.7986207
          ],
          [
            12.710821,
            41.7988221
          ],
          [
            12.7103714,
            41.7987757
          ],
          [
            12.7083932,
            41.799106
          ]
        ]
      },
      "id": "osm-location-of-tusculum",
      "type": "Feature",
      "properties": {
        "description": "Location based on OpenStreetMap",
        "location_precision": "precise",
        "title": "OSM location of Tusculum",
        "link": "http://pleiades.stoa.org/places/423108/osm-location-of-tusculum"
      }
    }
  ]
}