{
  "type": "FeatureCollection",
  "title": "Aqua Claudia",
  "id": "423563",
  "bbox": [
    12.5123169,
    41.8364607,
    12.5705729,
    41.8910705
  ],
  "description": "The Aqua Claudia was one of the four great aqueducts of the ancient city of Rome. It was begun by Caius in A.D. 38 and completed by Claudius in A.D. 52.",
  "connectsWith": [
    "423025"
  ],
  "names": [
    "Aqua Claudia"
  ],
  "features": [
    {
      "type": "Feature",
      "geometry": {
        "type": "Point",
        "coordinates": [
          12.5396504806,
          41.8661529314
        ]
      },
      "properties": {
        "description": "representative point"
      }
    },
    {
      "geometry": {
        "type": "LineString",
        "coordinates": [
          [
            12.5143428,
            41.8909979
          ],
          [
            12.5143293,
            41.8909997
          ],
          [
            12.5143086,
            41.8910025
          ],
          [
            12.5142902,
            41.8910044
          ],
          [
            12.5142105,
            41.8910114
          ],
          [
            12.514176,
            41.8910163
          ],
          [
            12.5141514,
            41.8910203
          ],
          [
            12.5140102,
            41.8910433
          ],
          [
            12.5139879,
            41.8910347
          ],
          [
            12.5139555,
            41.8910221
          ],
          [
            12.5138418,
            41.8909733
          ],
          [
            12.5136245,
            41.890878
          ],
          [
            12.5134289,
            41.8907873
          ],
          [
            12.5132516,
            41.8907057
          ],
          [
            12.513192,
            41.8906909
          ],
          [
            12.513143,
            41.8906821
          ],
          [
            12.5131204,
            41.8906813
          ],
          [
            12.5130953,
            41.8906778
          ],
          [
            12.5130616,
            41.8906792
          ],
          [
            12.5129344,
            41.8907026
          ],
          [
            12.5127669,
            41.8906042
          ],
          [
            12.5127706,
            41.8905912
          ],
          [
            12.5123362,
            41.8903594
          ],
          [
            12.5123169,
            41.8903794
          ],
          [
            12.5127545,
            41.8906134
          ],
          [
            12.5129532,
            41.8907229
          ],
          [
            12.5130698,
            41.8906987
          ],
          [
            12.5130841,
            41.8906916
          ],
          [
            12.5131024,
            41.8906916
          ],
          [
            12.5131189,
            41.8906924
          ],
          [
            12.5131385,
            41.8906924
          ],
          [
            12.5131519,
            41.8906923
          ],
          [
            12.5131815,
            41.8906987
          ],
          [
            12.5132466,
            41.8907173
          ],
          [
            12.5133955,
            41.8907841
          ],
          [
            12.5134211,
            41.8907948
          ],
          [
            12.5134329,
            41.8908003
          ],
          [
            12.5136057,
            41.8908801
          ],
          [
            12.5136187,
            41.890887
          ],
          [
            12.5138286,
            41.8909894
          ],
          [
            12.5138987,
            41.8910173
          ],
          [
            12.5138931,
            41.8910243
          ],
          [
            12.513941,
            41.8910429
          ],
          [
            12.5139754,
            41.8910566
          ],
          [
            12.5140102,
            41.8910705
          ],
          [
            12.5141565,
            41.8910489
          ],
          [
            12.5141822,
            41.8910451
          ],
          [
            12.5142126,
            41.8910404
          ],
          [
            12.5142926,
            41.8910281
          ],
          [
            12.5143133,
            41.8910247
          ],
          [
            12.5143311,
            41.891022
          ],
          [
            12.5144117,
            41.8910094
          ]
        ]
      },
      "id": "location-of-aqua-claudia",
      "type": "Feature",
      "properties": {
        "description": "Representative location based on OpenStreetMap.",
        "location_precision": "precise",
        "title": "OSM location of Aqua Neroniana",
        "link": "http://pleiades.stoa.org/places/423563/location-of-aqua-claudia"
      }
    },
    {
      "geometry": {
        "type": "LineString",
        "coordinates": [
          [
            12.5705297,
            41.8364607
          ],
          [
            12.5703089,
            41.8370099
          ],
          [
            12.5653945,
            41.8422217
          ],
          [
            12.5627507,
            41.8448354
          ],
          [
            12.5617842,
            41.8456419
          ],
          [
            12.5609807,
            41.8462475
          ],
          [
            12.5609974,
            41.8462591
          ],
          [
            12.5610013,
            41.8462618
          ],
          [
            12.5610115,
            41.8462689
          ],
          [
            12.5618096,
            41.8456596
          ],
          [
            12.5627795,
            41.8448523
          ],
          [
            12.5654328,
            41.8422415
          ],
          [
            12.5703467,
            41.8370227
          ],
          [
            12.5705729,
            41.8364693
          ],
          [
            12.5705588,
            41.8364665
          ],
          [
            12.5705518,
            41.8364651
          ],
          [
            12.5705297,
            41.8364607
          ]
        ]
      },
      "id": "osm-location-aqua-claudia-ruins-in-parco-degli",
      "type": "Feature",
      "properties": {
        "description": "Location based on OpenStreetMap",
        "location_precision": "precise",
        "title": "OSM Location: Aqua Claudia ruins in Parco degli Acquedotti ",
        "link": "http://pleiades.stoa.org/places/423563/osm-location-aqua-claudia-ruins-in-parco-degli"
      }
    }
  ]
}