{
  "type": "FeatureCollection",
  "title": "Roman siege camp",
  "id": "426375172",
  "bbox": [
    35.3620397,
    31.3156706,
    35.3620397,
    31.3156706
  ],
  "description": "A siege camp dating to the Roman siege of the fortress of Masada in A.D. 72.",
  "connectsWith": [
    "687968"
  ],
  "features": [
    {
      "type": "Feature",
      "geometry": {
        "type": "Point",
        "coordinates": [
          35.3620397,
          31.3156706
        ]
      },
      "properties": {
        "description": "representative point"
      }
    },
    {
      "geometry": {
        "type": "LineString",
        "coordinates": [
          [
            35.362037,
            31.3156179
          ],
          [
            35.3619914,
            31.3151596
          ],
          [
            35.3620425,
            31.3151138
          ],
          [
            35.3626647,
            31.315022
          ],
          [
            35.3627264,
            31.3150541
          ],
          [
            35.3627747,
            31.315556
          ],
          [
            35.3627184,
            31.3156018
          ],
          [
            35.3620988,
            31.3156546
          ],
          [
            35.362037,
            31.3156179
          ]
        ]
      },
      "id": "location-of-roman-siege-camp",
      "type": "Feature",
      "properties": {
        "description": "Representative location based on OpenStreetMap.",
        "location_precision": "precise",
        "title": "OSM location of Camp C'",
        "link": "http://pleiades.stoa.org/places/426375172/location-of-roman-siege-camp"
      }
    }
  ]
}