{
  "type": "FeatureCollection",
  "title": "Unnamed temple (Tre Fontane)",
  "id": "426588",
  "bbox": [
    12.25,
    41.75,
    12.5,
    42.0
  ],
  "description": "M. Cristofani describes terracotta antefixes discovered at Tre Fontane, in the general location of the abbey of the same name. These antefixes form part of a set of evidence relevant to a discussion of the functioning of regional coroplastic workshops in central Italy in the late archaic period. They are dated from the later sixth to the early fifth centuries BCE.",
  "connectsWith": [
    "423025"
  ],
  "features": [
    {
      "type": "Feature",
      "geometry": {
        "type": "Point",
        "coordinates": [
          12.375,
          41.875
        ]
      },
      "properties": {
        "description": "representative point"
      }
    },
    {
      "geometry": {
        "type": "Polygon",
        "coordinates": [
          [
            [
              12.25,
              41.75
            ],
            [
              12.25,
              42.0
            ],
            [
              12.5,
              42.0
            ],
            [
              12.5,
              41.75
            ],
            [
              12.25,
              41.75
            ]
          ]
        ]
      },
      "id": "batlas-location",
      "type": "Feature",
      "properties": {
        "description": null,
        "location_precision": "rough",
        "title": "Barrington Atlas location",
        "link": "http://pleiades.stoa.org/places/426588/batlas-location"
      }
    }
  ]
}