{
  "type": "FeatureCollection",
  "title": "Roman Villa at Lago di Nemi",
  "id": "426622",
  "bbox": [
    12.6977522,
    41.7166154,
    12.6977522,
    41.7166154
  ],
  "description": "A Roman Villa on the shores of Lago di Nemi.",
  "connectsWith": [
    "422984"
  ],
  "features": [
    {
      "type": "Feature",
      "geometry": {
        "type": "Point",
        "coordinates": [
          12.6977522,
          41.7166154
        ]
      },
      "properties": {
        "description": "representative point"
      }
    },
    {
      "geometry": {
        "type": "Point",
        "coordinates": [
          12.6977522,
          41.7166154
        ]
      },
      "id": "osm-location-of-roman-villa-at-lago-di-nemi",
      "type": "Feature",
      "properties": {
        "description": "Location based on OpenStreetMap",
        "location_precision": "precise",
        "title": "OSM location of Roman Villa at Lago di Nemi",
        "link": "http://pleiades.stoa.org/places/426622/osm-location-of-roman-villa-at-lago-di-nemi"
      }
    }
  ]
}