{
  "type": "FeatureCollection",
  "title": "Ponte Loreto",
  "id": "426629",
  "bbox": [
    12.6940103,
    41.6439348,
    12.6943858,
    41.6469413
  ],
  "description": "A Roman bridge at Lanuvium.",
  "features": [
    {
      "type": "Feature",
      "geometry": {
        "type": "Point",
        "coordinates": [
          12.6941709413,
          41.6454443453
        ]
      },
      "properties": {
        "description": "representative point"
      }
    },
    {
      "geometry": {
        "type": "LineString",
        "coordinates": [
          [
            12.6940103,
            41.6469373
          ],
          [
            12.6940961,
            41.6469413
          ],
          [
            12.6943858,
            41.6439348
          ],
          [
            12.6941176,
            41.644452
          ],
          [
            12.6940819,
            41.6445808
          ],
          [
            12.6940598,
            41.6446981
          ],
          [
            12.694052,
            41.6448059
          ],
          [
            12.6941122,
            41.6457628
          ],
          [
            12.6940103,
            41.6469373
          ]
        ]
      },
      "id": "osm-location-ponte-loreto",
      "type": "Feature",
      "properties": {
        "description": "Representative location based on OpenStreetMap",
        "location_precision": "precise",
        "title": "OSM location: Ponte Loreto",
        "link": "http://pleiades.stoa.org/places/426629/osm-location-ponte-loreto"
      }
    }
  ]
}