{
  "type": "FeatureCollection",
  "title": "Bridge over Fosso di Acqua Rossa",
  "id": "426612",
  "bbox": [
    12.79031,
    41.904633,
    12.79031,
    41.904633
  ],
  "description": "The remains of a Roman bridge that once carried a road over the Fosso di Acqua Rossa. Ward-Perkins posits a date of the second or first century BCE based on comparanda in the vicinity.",
  "features": [
    {
      "type": "Feature",
      "geometry": {
        "type": "Point",
        "coordinates": [
          12.79031,
          41.904633
        ]
      },
      "properties": {
        "description": "representative point"
      }
    },
    {
      "geometry": {
        "type": "Point",
        "coordinates": [
          12.79031,
          41.904633
        ]
      },
      "id": "vici-org-location-of-ponte-fosso-di-acqua-rossa",
      "type": "Feature",
      "properties": {
        "description": "coordinates following vici.org",
        "location_precision": "precise",
        "title": "vici.org location of Ponte Fosso di Acqua Rossa",
        "link": "http://pleiades.stoa.org/places/426612/vici-org-location-of-ponte-fosso-di-acqua-rossa"
      }
    }
  ]
}