{
  "type": "FeatureCollection",
  "title": "Villas at Castelporziano",
  "id": "426625",
  "bbox": [
    12.357962,
    41.700681,
    12.357962,
    41.700681
  ],
  "description": "Since antiquity, the 6,000-ha estate at Castelporziano has been an elite seaside compound. Where a modern pleasure villa for the Italian president now sits are remains of Roman villas on the Laurentine shore; these remains have been the object of continued study since 1983.",
  "connectsWith": [
    "423121"
  ],
  "features": [
    {
      "type": "Feature",
      "geometry": {
        "type": "Point",
        "coordinates": [
          12.357962,
          41.700681
        ]
      },
      "properties": {
        "description": "representative point"
      }
    },
    {
      "geometry": {
        "type": "Point",
        "coordinates": [
          12.357962,
          41.700681
        ]
      },
      "id": "darmc-location-30696",
      "type": "Feature",
      "properties": {
        "description": "150K scale point location",
        "location_precision": "precise",
        "title": "DARMC location 30696",
        "link": "http://pleiades.stoa.org/places/426625/darmc-location-30696"
      }
    }
  ]
}