{
  "type": "FeatureCollection",
  "title": "Villa of Horace",
  "id": "431558511",
  "bbox": [
    12.9004217,
    42.065113,
    12.9019237,
    42.0665148
  ],
  "description": "The archaeological remains of a villa near Licenza, Italy, that are traditionally connected with the Latin poet Horace.",
  "names": [
    "Villa di Orazio"
  ],
  "features": [
    {
      "type": "Feature",
      "geometry": {
        "type": "Point",
        "coordinates": [
          12.901174295,
          42.0658599677
        ]
      },
      "properties": {
        "description": "representative point"
      }
    },
    {
      "geometry": {
        "type": "LineString",
        "coordinates": [
          [
            12.9008133,
            42.0664312
          ],
          [
            12.9009823,
            42.066473
          ],
          [
            12.901162,
            42.0665148
          ],
          [
            12.9013149,
            42.0665068
          ],
          [
            12.9014383,
            42.0664809
          ],
          [
            12.901564,
            42.0664384
          ],
          [
            12.9016059,
            42.0664172
          ],
          [
            12.9016273,
            42.0663964
          ],
          [
            12.9016238,
            42.0663389
          ],
          [
            12.901615,
            42.0662964
          ],
          [
            12.9015815,
            42.066254
          ],
          [
            12.9015581,
            42.0662194
          ],
          [
            12.9014892,
            42.0661683
          ],
          [
            12.9015482,
            42.0659971
          ],
          [
            12.9016555,
            42.0658159
          ],
          [
            12.9017816,
            42.0656407
          ],
          [
            12.9019237,
            42.0654913
          ],
          [
            12.9016984,
            42.0653081
          ],
          [
            12.9013739,
            42.065113
          ],
          [
            12.9012425,
            42.0651209
          ],
          [
            12.9008509,
            42.0653718
          ],
          [
            12.9007259,
            42.0655013
          ],
          [
            12.900647,
            42.0655829
          ],
          [
            12.9006202,
            42.065784
          ],
          [
            12.900639,
            42.0659652
          ],
          [
            12.9006282,
            42.0660727
          ],
          [
            12.9006095,
            42.0661325
          ],
          [
            12.9004772,
            42.066097
          ],
          [
            12.9004217,
            42.0661584
          ],
          [
            12.9005505,
            42.0662818
          ],
          [
            12.9006551,
            42.0663694
          ],
          [
            12.9008133,
            42.0664312
          ]
        ]
      },
      "id": "location-of-villa-of-horace",
      "type": "Feature",
      "properties": {
        "description": "Representative location based on OpenStreetMap.",
        "location_precision": "precise",
        "title": "OSM location of Villa of Horace",
        "link": "http://pleiades.stoa.org/places/431558511/location-of-villa-of-horace"
      }
    }
  ]
}