{
  "type": "FeatureCollection",
  "title": "Caiatia",
  "id": "432733",
  "bbox": [
    14.364282,
    41.178153,
    14.364282,
    41.178153
  ],
  "description": "A Samnite town that eventually became a Roman municipium of the tribus Falerna ca. 89 B.C.",
  "connectsWith": [
    "45806447",
    "534380454"
  ],
  "names": [
    "Caiatia",
    "Caiazzo",
    "Gazatie",
    "Gazatiae"
  ],
  "features": [
    {
      "type": "Feature",
      "geometry": {
        "type": "Point",
        "coordinates": [
          14.364282,
          41.178153
        ]
      },
      "properties": {
        "description": "representative point"
      }
    },
    {
      "geometry": {
        "type": "Point",
        "coordinates": [
          14.364282,
          41.178153
        ]
      },
      "id": "darmc-location-18270",
      "type": "Feature",
      "properties": {
        "description": "1:500,000 scale representative point location digitized from the Barrington Atlas of the Greek and Roman World by the Digital Atlas of Roman and Medieval Civilizations project at Harvard University.",
        "location_precision": "precise",
        "title": "DARMC location 18270",
        "link": "http://pleiades.stoa.org/places/432733/darmc-location-18270"
      }
    }
  ]
}