{
  "type": "FeatureCollection",
  "title": "Clostra (Romana)",
  "id": "432788",
  "bbox": [
    12.872401,
    41.414938,
    12.872401,
    41.414938
  ],
  "description": "Clostra (Romana) was a place in Latium along the Via Severiana. It was located 15 miles from Circei and 9 miles from Astura.",
  "connectsWith": [
    "835948519",
    "441075550",
    "458658927"
  ],
  "names": [
    "Clostra Romana",
    "Clostra",
    "Clostris"
  ],
  "features": [
    {
      "type": "Feature",
      "geometry": {
        "type": "Point",
        "coordinates": [
          12.872401,
          41.414938
        ]
      },
      "properties": {
        "description": "representative point"
      }
    },
    {
      "geometry": {
        "type": "Point",
        "coordinates": [
          12.872401,
          41.414938
        ]
      },
      "id": "darmc-location-19260",
      "type": "Feature",
      "properties": {
        "description": "1:500,000 scale representative point location digitized from the Barrington Atlas of the Greek and Roman World by the Digital Atlas of Roman and Medieval Civilizations project at Harvard University.",
        "location_precision": "precise",
        "title": "DARMC location 19260",
        "link": "http://pleiades.stoa.org/places/432788/darmc-location-19260"
      }
    }
  ]
}