{
  "type": "FeatureCollection",
  "title": "Herculaneum",
  "id": "432873",
  "bbox": [
    14.3448804,
    40.8038005,
    14.3495804,
    40.8069293
  ],
  "description": "An ancient Roman town of Campania destroyed by the eruption of Mt. Vesuvius in A.D. 79. Named as a UNESCO World Heritage Site in 1997.",
  "connectsWith": [
    "441075550"
  ],
  "names": [
    "Herculaneum",
    "Ercolano",
    "Herculaneum",
    "Herakleion",
    "Resina",
    "Herclanium"
  ],
  "features": [
    {
      "type": "Feature",
      "geometry": {
        "type": "Point",
        "coordinates": [
          14.3473828114,
          40.8054053939
        ]
      },
      "properties": {
        "description": "representative point"
      }
    },
    {
      "geometry": {
        "type": "LineString",
        "coordinates": [
          [
            14.3448804,
            40.805461
          ],
          [
            14.3456172,
            40.8046958
          ],
          [
            14.3461684,
            40.8050207
          ],
          [
            14.3464232,
            40.8048258
          ],
          [
            14.3465894,
            40.8047587
          ],
          [
            14.3468581,
            40.8047335
          ],
          [
            14.3472442,
            40.8043099
          ],
          [
            14.3471796,
            40.8042681
          ],
          [
            14.347364,
            40.8040866
          ],
          [
            14.3474462,
            40.8040322
          ],
          [
            14.3476669,
            40.8038005
          ],
          [
            14.3479709,
            40.8039591
          ],
          [
            14.3481494,
            40.8040653
          ],
          [
            14.3481988,
            40.8041017
          ],
          [
            14.3483796,
            40.8041932
          ],
          [
            14.3489372,
            40.8045173
          ],
          [
            14.3489284,
            40.8045372
          ],
          [
            14.3488439,
            40.8046448
          ],
          [
            14.3487419,
            40.8046001
          ],
          [
            14.3486199,
            40.8047636
          ],
          [
            14.3487326,
            40.8048387
          ],
          [
            14.3486266,
            40.8049372
          ],
          [
            14.3487956,
            40.8050214
          ],
          [
            14.3487822,
            40.8052437
          ],
          [
            14.3491656,
            40.8052729
          ],
          [
            14.349164,
            40.805309
          ],
          [
            14.3492977,
            40.8054136
          ],
          [
            14.349396,
            40.8054613
          ],
          [
            14.3494452,
            40.8054218
          ],
          [
            14.3495804,
            40.8055055
          ],
          [
            14.3492517,
            40.8058609
          ],
          [
            14.349174,
            40.8058294
          ],
          [
            14.3491035,
            40.8058439
          ],
          [
            14.3490681,
            40.8058756
          ],
          [
            14.3490534,
            40.8058875
          ],
          [
            14.3490272,
            40.8059215
          ],
          [
            14.3490218,
            40.8059306
          ],
          [
            14.3490153,
            40.8059509
          ],
          [
            14.3490225,
            40.8059788
          ],
          [
            14.3489082,
            40.8059181
          ],
          [
            14.3487777,
            40.8060578
          ],
          [
            14.3486395,
            40.8062231
          ],
          [
            14.3481616,
            40.8068049
          ],
          [
            14.3480991,
            40.8068444
          ],
          [
            14.3479803,
            40.8069293
          ],
          [
            14.3473031,
            40.806612199999996
          ],
          [
            14.3470696,
            40.8067405
          ],
          [
            14.3470495,
            40.8067408
          ],
          [
            14.3469636,
            40.8066717
          ],
          [
            14.3468885,
            40.8066113
          ],
          [
            14.3467591,
            40.8065064
          ],
          [
            14.3467393,
            40.8064947
          ],
          [
            14.3467131,
            40.8064869
          ],
          [
            14.3463764,
            40.8064303
          ],
          [
            14.345993,
            40.8063427
          ],
          [
            14.345896,
            40.8063095
          ],
          [
            14.3457222,
            40.8062289
          ],
          [
            14.3454397,
            40.8059772
          ],
          [
            14.3454093,
            40.8059657
          ],
          [
            14.3451963,
            40.8057552
          ],
          [
            14.3452208,
            40.80574
          ],
          [
            14.3451209,
            40.8056435
          ],
          [
            14.3450871,
            40.8056446
          ],
          [
            14.3449903,
            40.8055528
          ],
          [
            14.3448804,
            40.805461
          ]
        ]
      },
      "id": "osm-location-of-herculaneum",
      "type": "Feature",
      "properties": {
        "description": "Representative location based on OpenStreetMap",
        "location_precision": "precise",
        "title": "OSM location of Herculaneum",
        "link": "http://pleiades.stoa.org/places/432873/osm-location-of-herculaneum"
      }
    }
  ]
}