{
  "type": "FeatureCollection",
  "title": "Fucinus (lake)",
  "id": "432853",
  "bbox": [
    13.547222,
    41.995,
    13.547222,
    41.995
  ],
  "description": "A lake of ancient Italy, the site of a major battle of 89 BC. Both Claudius and Hadrian attempted flood and drainage controls in antiquity. The Torlonia family drained the lake in the nineteenth century.",
  "names": [
    "Fucinus L.",
    "Fucine Lake",
    "Phoukina limne"
  ],
  "features": [
    {
      "type": "Feature",
      "geometry": {
        "type": "Point",
        "coordinates": [
          13.547222,
          41.995
        ]
      },
      "properties": {
        "description": "representative point"
      }
    },
    {
      "geometry": {
        "type": "Point",
        "coordinates": [
          13.547222,
          41.995
        ]
      },
      "id": "location-of-fucinus-l",
      "type": "Feature",
      "properties": {
        "description": "coordinates after GeoHack, verified in Google Earth.",
        "location_precision": "precise",
        "title": "Imagery location of Fucinus L.",
        "link": "http://pleiades.stoa.org/places/432853/location-of-fucinus-l"
      }
    }
  ]
}