{
  "type": "FeatureCollection",
  "title": "Minturnae",
  "id": "432940",
  "bbox": [
    13.7661458,
    41.240975,
    13.7707812,
    41.2429648
  ],
  "description": "Originally an Ausonian town that fought against Rome in 314 B.C., Minturnae became a colony in 296 B.C. The site is located on the Garigliano river (ancient Liris) and served an important economic function. The Via Appia passes through the city.",
  "connectsWith": [
    "432910",
    "432711",
    "356966898",
    "438787",
    "441075550"
  ],
  "names": [
    "Minturnae",
    "Mintoúrnas",
    "Menturnis"
  ],
  "features": [
    {
      "type": "Feature",
      "geometry": {
        "type": "Point",
        "coordinates": [
          13.7684175702,
          41.2421529896
        ]
      },
      "properties": {
        "description": "representative point"
      }
    },
    {
      "geometry": {
        "type": "Point",
        "coordinates": [
          13.768749,
          41.242413
        ]
      },
      "id": "darmc-location-18624",
      "type": "Feature",
      "properties": {
        "description": "1:500,000 scale representative point location digitized from the Barrington Atlas of the Greek and Roman World by the Digital Atlas of Roman and Medieval Civilizations project at Harvard University.",
        "location_precision": "precise",
        "title": "DARMC location 18624",
        "link": "http://pleiades.stoa.org/places/432940/darmc-location-18624"
      }
    },
    {
      "geometry": {
        "type": "Point",
        "coordinates": [
          13.768185,
          41.241973
        ]
      },
      "id": "dare-location",
      "type": "Feature",
      "properties": {
        "description": "Representative point location, site precision",
        "location_precision": "precise",
        "title": "DARE Location",
        "link": "http://pleiades.stoa.org/places/432940/dare-location"
      }
    },
    {
      "geometry": {
        "type": "LineString",
        "coordinates": [
          [
            13.7704437,
            41.2426437
          ],
          [
            13.7707274,
            41.2425853
          ],
          [
            13.7707812,
            41.2420014
          ],
          [
            13.7698314,
            41.2421384
          ],
          [
            13.7695297,
            41.2421047
          ],
          [
            13.7693565,
            41.2417117
          ],
          [
            13.7691336,
            41.2417489
          ],
          [
            13.7687114,
            41.2418195
          ],
          [
            13.7686653,
            41.2417786
          ],
          [
            13.7686284,
            41.2417459
          ],
          [
            13.7685441,
            41.2416712
          ],
          [
            13.7685354,
            41.2416453
          ],
          [
            13.7685182,
            41.2415939
          ],
          [
            13.7684313,
            41.241334
          ],
          [
            13.7683789,
            41.2411906
          ],
          [
            13.7683473,
            41.2410799
          ],
          [
            13.7683016,
            41.2410264
          ],
          [
            13.7682652,
            41.2409761
          ],
          [
            13.768132,
            41.240975
          ],
          [
            13.7673674,
            41.2417049
          ],
          [
            13.7671434,
            41.2410873
          ],
          [
            13.766785,
            41.2412221
          ],
          [
            13.7661458,
            41.2413456
          ],
          [
            13.7664953,
            41.2426257
          ],
          [
            13.7672479,
            41.2424909
          ],
          [
            13.7673435,
            41.2429648
          ],
          [
            13.7704437,
            41.2426437
          ]
        ]
      },
      "id": "osm-location-of-minturnae",
      "type": "Feature",
      "properties": {
        "description": "Representative location based on OpenStreetMap",
        "location_precision": "precise",
        "title": "OSM location of Minturnae",
        "link": "http://pleiades.stoa.org/places/432940/osm-location-of-minturnae"
      }
    }
  ]
}