{
  "type": "FeatureCollection",
  "title": "Paludes Minturnenses",
  "id": "433009",
  "bbox": [
    13.3775937,
    41.2231091,
    13.8947953,
    41.9638555
  ],
  "description": "The Marshes of Mintumae were located near the mouth of the river Liris.",
  "connectsWith": [
    "432910"
  ],
  "names": [
    "Paludes Minturnenses"
  ],
  "features": [
    {
      "type": "Feature",
      "geometry": {
        "type": "Point",
        "coordinates": [
          13.6485288036,
          41.549575742
        ]
      },
      "properties": {
        "description": "representative point"
      }
    },
    {
      "geometry": {
        "type": "Polygon",
        "coordinates": [
          [
            [
              13.5,
              41.0
            ],
            [
              13.5,
              41.5
            ],
            [
              14.0,
              41.5
            ],
            [
              14.0,
              41.0
            ],
            [
              13.5,
              41.0
            ]
          ]
        ]
      },
      "id": "batlas-location",
      "type": "Feature",
      "properties": {
        "description": null,
        "location_precision": "rough",
        "title": "Barrington Atlas location",
        "link": "http://pleiades.stoa.org/places/433009/batlas-location"
      }
    }
  ]
}