{
  "type": "FeatureCollection",
  "title": "Pyrgi",
  "id": "433061",
  "bbox": [
    11.9587212,
    42.0138658,
    11.9650715,
    42.0176904
  ],
  "description": "Pyrgi is an ancient Etruscan port city on the Tyrrhenian coast of Italy. A Roman colony was established at the site by 191 B.C. In 1964, the bilingual 'Pyrgi Plaques' were discovered during the course of excavations.",
  "connectsWith": [
    "174900201",
    "1356",
    "413122",
    "422831"
  ],
  "names": [
    "Pyrgi",
    "Santa Severa",
    "Pyrgos",
    "Pyrgoi"
  ],
  "features": [
    {
      "type": "Feature",
      "geometry": {
        "type": "Point",
        "coordinates": [
          11.9626995307,
          42.0155261018
        ]
      },
      "properties": {
        "description": "representative point"
      }
    },
    {
      "geometry": {
        "type": "Point",
        "coordinates": [
          11.963496,
          42.01537
        ]
      },
      "id": "darmc-location-7118",
      "type": "Feature",
      "properties": {
        "description": "1:500,000 scale representative point location digitized from the Barrington Atlas of the Greek and Roman World by the Digital Atlas of Roman and Medieval Civilizations project at Harvard University.",
        "location_precision": "precise",
        "title": "DARMC location 7118",
        "link": "http://pleiades.stoa.org/places/433061/darmc-location-7118"
      }
    },
    {
      "geometry": {
        "type": "Point",
        "coordinates": [
          11.962938,
          42.015321
        ]
      },
      "id": "dare-location",
      "type": "Feature",
      "properties": {
        "description": "Representative point location, site precision",
        "location_precision": "precise",
        "title": "DARE Location",
        "link": "http://pleiades.stoa.org/places/433061/dare-location"
      }
    },
    {
      "geometry": {
        "type": "MultiLineString",
        "coordinates": [
          [
            [
              11.9588223,
              42.0164545
            ],
            [
              11.9589498,
              42.0163824
            ],
            [
              11.9589647,
              42.0163743
            ],
            [
              11.9589686,
              42.0163773
            ],
            [
              11.9590754,
              42.0165358
            ],
            [
              11.9590915,
              42.0165696
            ],
            [
              11.9591428,
              42.0166558
            ]
          ],
          [
            [
              11.9591428,
              42.0166558
            ],
            [
              11.9592032,
              42.0166317
            ],
            [
              11.9592814,
              42.0167396
            ],
            [
              11.9592903,
              42.0167546
            ],
            [
              11.9595034,
              42.0169794
            ],
            [
              11.9595431,
              42.0170201
            ]
          ],
          [
            [
              11.9595431,
              42.0170201
            ],
            [
              11.9596092,
              42.0170937
            ],
            [
              11.9596299,
              42.0171151
            ],
            [
              11.959662,
              42.0171486
            ],
            [
              11.9596911,
              42.0171336
            ],
            [
              11.9597237,
              42.017117
            ],
            [
              11.9599305,
              42.0173129
            ],
            [
              11.9596912,
              42.0174503
            ],
            [
              11.9596351,
              42.0174046
            ],
            [
              11.9594815,
              42.0174909
            ],
            [
              11.9596791,
              42.0176904
            ],
            [
              11.9599343,
              42.0175736
            ],
            [
              11.9599828,
              42.0175515
            ]
          ],
          [
            [
              11.9599828,
              42.0175515
            ],
            [
              11.9605505,
              42.0172916
            ],
            [
              11.9610496,
              42.0170632
            ],
            [
              11.9604942,
              42.0163701
            ],
            [
              11.9608171,
              42.0162515
            ],
            [
              11.9610803,
              42.0161314
            ],
            [
              11.9613113,
              42.0160143
            ],
            [
              11.961367,
              42.015981
            ],
            [
              11.9614564,
              42.01592
            ]
          ],
          [
            [
              11.9614564,
              42.01592
            ],
            [
              11.9615423,
              42.0158616
            ]
          ],
          [
            [
              11.9615423,
              42.0158616
            ],
            [
              11.9615616,
              42.0158593
            ],
            [
              11.9615814,
              42.0158651
            ],
            [
              11.9621278,
              42.0162668
            ],
            [
              11.9622603,
              42.0163089
            ],
            [
              11.9636679,
              42.0157398
            ]
          ],
          [
            [
              11.9636679,
              42.0157398
            ],
            [
              11.9641291,
              42.0155376
            ],
            [
              11.9643736,
              42.0153922
            ],
            [
              11.9647519,
              42.0151911
            ]
          ],
          [
            [
              11.9647519,
              42.0151911
            ],
            [
              11.9650715,
              42.0147938
            ],
            [
              11.964668,
              42.0140845
            ]
          ],
          [
            [
              11.964668,
              42.0140845
            ],
            [
              11.9645435,
              42.0138658
            ]
          ],
          [
            [
              11.9645435,
              42.0138658
            ],
            [
              11.9642503,
              42.0140726
            ],
            [
              11.9640093,
              42.0142167
            ],
            [
              11.9637223,
              42.0143861
            ],
            [
              11.9635935,
              42.0144678
            ],
            [
              11.9635023,
              42.0145256
            ],
            [
              11.9634583,
              42.0145749
            ],
            [
              11.9633763,
              42.0146053
            ],
            [
              11.9632255,
              42.0147401
            ],
            [
              11.9629921,
              42.0148916
            ],
            [
              11.9627266,
              42.0150391
            ],
            [
              11.9624798,
              42.0151606
            ],
            [
              11.962304,
              42.0152018
            ],
            [
              11.9622017,
              42.0151261
            ],
            [
              11.9621635,
              42.0151416
            ],
            [
              11.9621872,
              42.015192
            ],
            [
              11.9621927,
              42.0152869
            ],
            [
              11.9621309,
              42.0153858
            ],
            [
              11.9619836,
              42.0154799
            ],
            [
              11.9618129,
              42.015568
            ],
            [
              11.9616351,
              42.0156381
            ],
            [
              11.9614011,
              42.0157136
            ],
            [
              11.9609797,
              42.0158477
            ],
            [
              11.9604412,
              42.0159629
            ],
            [
              11.9602614,
              42.015963
            ],
            [
              11.9600527,
              42.0159363
            ],
            [
              11.9599632,
              42.0158828
            ],
            [
              11.9598513,
              42.015845
            ],
            [
              11.9595018,
              42.0158201
            ],
            [
              11.9593707,
              42.0158445
            ],
            [
              11.9592256,
              42.0158566
            ],
            [
              11.9589345,
              42.015889
            ],
            [
              11.9587212,
              42.0158934
            ],
            [
              11.9587692,
              42.0159733
            ],
            [
              11.9588595,
              42.0160489
            ],
            [
              11.9588643,
              42.0160703
            ],
            [
              11.9588829,
              42.0160678
            ],
            [
              11.9588934,
              42.0161072
            ],
            [
              11.958875,
              42.01611
            ],
            [
              11.9589075,
              42.0162315
            ],
            [
              11.9589238,
              42.016229
            ],
            [
              11.9589324,
              42.0162613
            ],
            [
              11.9589151,
              42.0162638
            ],
            [
              11.9589168,
              42.016282
            ]
          ],
          [
            [
              11.9589168,
              42.016282
            ],
            [
              11.9587964,
              42.0164292
            ]
          ],
          [
            [
              11.9587964,
              42.0164292
            ],
            [
              11.9588223,
              42.0164545
            ]
          ]
        ]
      },
      "id": "osm-location-pyrgi-archaeological-site",
      "type": "Feature",
      "properties": {
        "description": "Location based on OpenStreetMap",
        "location_precision": "precise",
        "title": "OSM Location: Pyrgi archaeological site",
        "link": "http://pleiades.stoa.org/places/433061/osm-location-pyrgi-archaeological-site"
      }
    }
  ]
}