{
  "type": "FeatureCollection",
  "title": "Salinae Herculeae",
  "id": "433076",
  "bbox": [
    14.485429,
    40.74941,
    14.485429,
    40.74941
  ],
  "description": "The Salinae Herculeae, known from both epigraphic and literary testimony, were salt pans located in the vicinity of Pompeii and Herculaneum.",
  "connectsWith": [
    "433032"
  ],
  "names": [
    "Salinae Herculeae"
  ],
  "features": [
    {
      "type": "Feature",
      "geometry": {
        "type": "Point",
        "coordinates": [
          14.485429,
          40.74941
        ]
      },
      "properties": {
        "description": "representative point"
      }
    }
  ]
}