{
  "type": "FeatureCollection",
  "title": "Kelten-Wall",
  "id": "436858295",
  "bbox": [
    9.0064091,
    50.3103942,
    9.0064091,
    50.3103942
  ],
  "description": "An ancient fortification system at the multiperiod Glauberg site in Germany.",
  "connectsWith": [
    "118701"
  ],
  "features": [
    {
      "type": "Feature",
      "geometry": {
        "type": "Point",
        "coordinates": [
          9.0064091,
          50.3103942
        ]
      },
      "properties": {
        "description": "representative point"
      }
    },
    {
      "geometry": {
        "type": "LineString",
        "coordinates": [
          [
            9.0075369,
            50.3108839
          ],
          [
            9.0075166,
            50.3108014
          ],
          [
            9.0075264,
            50.3107362
          ],
          [
            9.0075506,
            50.3107006
          ],
          [
            9.0075879,
            50.3106796
          ],
          [
            9.0076416,
            50.3106603
          ],
          [
            9.0077119,
            50.3106565
          ],
          [
            9.0077674,
            50.3106687
          ],
          [
            9.0077921,
            50.3106904
          ],
          [
            9.007924,
            50.3109329
          ],
          [
            9.0085539,
            50.312252
          ],
          [
            9.0085514,
            50.3122883
          ],
          [
            9.0085352,
            50.3123096
          ],
          [
            9.0084939,
            50.312326
          ],
          [
            9.0084443,
            50.3123369
          ],
          [
            9.0083945,
            50.3123337
          ],
          [
            9.0083476,
            50.3123136
          ],
          [
            9.0075369,
            50.3108839
          ]
        ]
      },
      "id": "osm-location-of-wall",
      "type": "Feature",
      "properties": {
        "description": "Location based on OpenStreetMap",
        "location_precision": "precise",
        "title": "OSM location of Kelten-Wall",
        "link": "http://pleiades.stoa.org/places/436858295/osm-location-of-wall"
      }
    }
  ]
}