{
  "type": "FeatureCollection",
  "title": "In Monte Carbonario",
  "id": "438757",
  "description": "Now an unlocated place, \"In Monte Carbonario\" is included on the Peutinger map. It should be located in either the Sabine or Marsic region, between Carsioli and Sublaqueum.",
  "names": [
    "In Monte Carbonario"
  ],
  "features": [
    {
      "type": "Feature",
      "geometry": null,
      "properties": {
        "description": "representative point"
      }
    },
    {
      "geometry": null,
      "id": "batlas-location",
      "type": "Feature",
      "properties": {
        "description": null,
        "location_precision": "unlocated",
        "title": "Barrington Atlas location",
        "link": "http://pleiades.stoa.org/places/438757/batlas-location"
      }
    }
  ]
}