{
  "type": "FeatureCollection",
  "title": "Syllae",
  "id": "438844",
  "bbox": [
    14.4327989,
    41.1558165,
    14.4327989,
    41.1558165
  ],
  "description": "An ancient place, cited: BAtlas 44 unlocated Syllae",
  "names": [
    "Syllae",
    "Syllas",
    "Squille"
  ],
  "features": [
    {
      "type": "Feature",
      "geometry": {
        "type": "Point",
        "coordinates": [
          14.4327989,
          41.1558165
        ]
      },
      "properties": {
        "description": "representative point"
      }
    },
    {
      "geometry": {
        "type": "Point",
        "coordinates": [
          14.4327989,
          41.1558165
        ]
      },
      "id": "osm-location-of-squille",
      "type": "Feature",
      "properties": {
        "description": "Location based on OpenStreetMap",
        "location_precision": "precise",
        "title": "OSM location of Squille",
        "link": "http://pleiades.stoa.org/places/438844/osm-location-of-squille"
      }
    }
  ]
}