{
  "type": "FeatureCollection",
  "title": "Panna",
  "id": "438802",
  "description": "Now unlocated, Panna was an ancient place in Samnium mentioned only by Strabo.",
  "names": [
    "Panna",
    "Panna"
  ],
  "features": [
    {
      "type": "Feature",
      "geometry": null,
      "properties": {
        "description": "representative point"
      }
    },
    {
      "geometry": null,
      "id": "batlas-location",
      "type": "Feature",
      "properties": {
        "description": null,
        "location_precision": "unlocated",
        "title": "Barrington Atlas location",
        "link": "http://pleiades.stoa.org/places/438802/batlas-location"
      }
    }
  ]
}