{
  "type": "FeatureCollection",
  "title": "Roman theater of Aspendos",
  "id": "439693240",
  "bbox": [
    31.1717896,
    36.9385268,
    31.1725983,
    36.9394118
  ],
  "description": "The Roman theater at Aspendos dates ca. AD 155 and is perhaps the best preserved example of a Roman theater building.",
  "connectsWith": [
    "638776"
  ],
  "names": [
    "Roman Theatre of Aspendos"
  ],
  "features": [
    {
      "type": "Feature",
      "geometry": {
        "type": "Point",
        "coordinates": [
          31.1722519608,
          36.9389711389
        ]
      },
      "properties": {
        "description": "representative point"
      }
    },
    {
      "geometry": {
        "type": "LineString",
        "coordinates": [
          [
            31.1723848,
            36.9385287
          ],
          [
            31.1723337,
            36.9385275
          ],
          [
            31.1722827,
            36.93853
          ],
          [
            31.1722322,
            36.9385363
          ],
          [
            31.1721827,
            36.9385463
          ],
          [
            31.1721345,
            36.9385599
          ],
          [
            31.1720881,
            36.938577
          ],
          [
            31.1720439,
            36.9385975
          ],
          [
            31.1720022,
            36.9386211
          ],
          [
            31.1719634,
            36.9386477
          ],
          [
            31.1719279,
            36.9386771
          ],
          [
            31.1718959,
            36.9387089
          ],
          [
            31.1718677,
            36.938743
          ],
          [
            31.1718435,
            36.938779
          ],
          [
            31.1718237,
            36.9388166
          ],
          [
            31.1718082,
            36.9388556
          ],
          [
            31.1717973,
            36.9388955
          ],
          [
            31.1717911,
            36.938936
          ],
          [
            31.1717896,
            36.9389769
          ],
          [
            31.1717928,
            36.9390176
          ],
          [
            31.1718007,
            36.939058
          ],
          [
            31.1718132,
            36.9390976
          ],
          [
            31.1718302,
            36.9391361
          ],
          [
            31.1718516,
            36.9391732
          ],
          [
            31.1718772,
            36.9392086
          ],
          [
            31.1719068,
            36.9392419
          ],
          [
            31.1719401,
            36.9392729
          ],
          [
            31.1719768,
            36.9393013
          ],
          [
            31.1720166,
            36.9393268
          ],
          [
            31.1720593,
            36.9393494
          ],
          [
            31.1721043,
            36.9393687
          ],
          [
            31.1721514,
            36.9393846
          ],
          [
            31.1722001,
            36.9393969
          ],
          [
            31.1722501,
            36.9394056
          ],
          [
            31.1723008,
            36.9394106
          ],
          [
            31.1723519,
            36.9394118
          ],
          [
            31.1724029,
            36.9394092
          ],
          [
            31.1725419,
            36.9394074
          ],
          [
            31.1725387,
            36.9392518
          ],
          [
            31.1725983,
            36.939251
          ],
          [
            31.1725867,
            36.9386812
          ],
          [
            31.172527,
            36.938682
          ],
          [
            31.1725238,
            36.9385268
          ],
          [
            31.1723848,
            36.9385287
          ]
        ]
      },
      "id": "osm-location-roman-theatre-of-aspendos",
      "type": "Feature",
      "properties": {
        "description": "Location based on OpenStreetMap. Dates after BAtlDir",
        "location_precision": "precise",
        "title": "OSM Location: Roman Theatre of Aspendos",
        "link": "http://pleiades.stoa.org/places/439693240/osm-location-roman-theatre-of-aspendos"
      }
    }
  ]
}