{
  "type": "FeatureCollection",
  "title": "Forentum?",
  "id": "442584",
  "bbox": [
    15.790762,
    41.045625,
    15.790762,
    41.045625
  ],
  "description": "Scholars associated the ancient place Forentum with Lavello in south Italy. In antiquity, this was an indigenous center active from the Early Iron Age that gradually manifested the material culture of Greek colonists in Magna Graecia.",
  "names": [
    "Forentum",
    "Forentani"
  ],
  "features": [
    {
      "type": "Feature",
      "geometry": {
        "type": "Point",
        "coordinates": [
          15.790762,
          41.045625
        ]
      },
      "properties": {
        "description": "representative point"
      }
    },
    {
      "geometry": {
        "type": "Point",
        "coordinates": [
          15.790762,
          41.045625
        ]
      },
      "id": "osm-location-of-modern-lavello",
      "type": "Feature",
      "properties": {
        "description": "Representative location based on OpenStreetMap.",
        "location_precision": "precise",
        "title": "OSM location of modern Lavello",
        "link": "http://pleiades.stoa.org/places/442584/osm-location-of-modern-lavello"
      }
    }
  ]
}