{
  "type": "FeatureCollection",
  "title": "Croccia Cognato Fortified Settlement",
  "id": "442560",
  "bbox": [
    16.184577,
    40.535317,
    16.184577,
    40.535317
  ],
  "description": "Fourth-century B.C.E. fortifications located in the Croccia Cognato forest near Oliveto Lucano in Lucania, south Italy.",
  "names": [
    "Croccia Cognato",
    "Accettura"
  ],
  "features": [
    {
      "type": "Feature",
      "geometry": {
        "type": "Point",
        "coordinates": [
          16.184577,
          40.535317
        ]
      },
      "properties": {
        "description": "representative point"
      }
    },
    {
      "geometry": {
        "type": "Point",
        "coordinates": [
          16.184577,
          40.535317
        ]
      },
      "id": "osm-location-of-oliveto-lucano",
      "type": "Feature",
      "properties": {
        "description": "Location based on OpenStreetMap",
        "location_precision": "precise",
        "title": "OSM location of Oliveto Lucano",
        "link": "http://pleiades.stoa.org/places/442560/osm-location-of-oliveto-lucano"
      }
    }
  ]
}