{
  "type": "FeatureCollection",
  "title": "Bitetto",
  "id": "442506",
  "bbox": [
    16.748738,
    41.039253,
    16.748738,
    41.039253
  ],
  "description": "An ancient place, cited: BAtlas 45 E2 Bitetto",
  "names": [
    "Bitetto"
  ],
  "features": [
    {
      "type": "Feature",
      "geometry": {
        "type": "Point",
        "coordinates": [
          16.748738,
          41.039253
        ]
      },
      "properties": {
        "description": "representative point"
      }
    },
    {
      "geometry": {
        "type": "Point",
        "coordinates": [
          16.748738,
          41.039253
        ]
      },
      "id": "darmc-location-18251",
      "type": "Feature",
      "properties": {
        "description": "1:500,000 scale representative point location digitized from the Barrington Atlas of the Greek and Roman World by the Digital Atlas of Roman and Medieval Civilizations project at Harvard University.",
        "location_precision": "precise",
        "title": "DARMC location 18251",
        "link": "http://pleiades.stoa.org/places/442506/darmc-location-18251"
      }
    }
  ]
}