{
  "type": "FeatureCollection",
  "title": "Matera",
  "id": "442650",
  "bbox": [
    16.606281,
    40.668888,
    16.606281,
    40.668888
  ],
  "description": "Matera is an ancient settlement in the Basilicata region of Italy where human occupation is evident beginning from 9,000 years BP.",
  "features": [
    {
      "type": "Feature",
      "geometry": {
        "type": "Point",
        "coordinates": [
          16.606281,
          40.668888
        ]
      },
      "properties": {
        "description": "representative point"
      }
    },
    {
      "geometry": {
        "type": "Point",
        "coordinates": [
          16.606281,
          40.668888
        ]
      },
      "id": "darmc-location-18606",
      "type": "Feature",
      "properties": {
        "description": "1:500,000 scale representative point location digitized from the Barrington Atlas of the Greek and Roman World by the Digital Atlas of Roman and Medieval Civilizations project at Harvard University.",
        "location_precision": "precise",
        "title": "DARMC location 18606",
        "link": "http://pleiades.stoa.org/places/442650/darmc-location-18606"
      }
    }
  ]
}