{
  "type": "FeatureCollection",
  "title": "Leucosia (island)",
  "id": "442633",
  "bbox": [
    14.8999017,
    40.2505036,
    14.9009876,
    40.2519476
  ],
  "description": "An island on the coast of Lucania.",
  "names": [
    "Leucosia",
    "Isola Licosa"
  ],
  "features": [
    {
      "type": "Feature",
      "geometry": {
        "type": "Point",
        "coordinates": [
          14.9003822746,
          40.2513146471
        ]
      },
      "properties": {
        "description": "representative point"
      }
    },
    {
      "geometry": {
        "type": "LineString",
        "coordinates": [
          [
            14.9008652,
            40.251216
          ],
          [
            14.900862,
            40.2512385
          ],
          [
            14.9004505,
            40.251267
          ],
          [
            14.9005401,
            40.2515374
          ],
          [
            14.9006509,
            40.251724
          ],
          [
            14.9008244,
            40.2518567
          ],
          [
            14.9009876,
            40.251933
          ],
          [
            14.9007807,
            40.2519476
          ],
          [
            14.9002338,
            40.2517193
          ],
          [
            14.9001011,
            40.2516096
          ],
          [
            14.9000038,
            40.2514907
          ],
          [
            14.899979,
            40.251431
          ],
          [
            14.8999288,
            40.2512997
          ],
          [
            14.8999178,
            40.2510808
          ],
          [
            14.8999071,
            40.2508577
          ],
          [
            14.8999017,
            40.2507247
          ],
          [
            14.8999312,
            40.2506182
          ],
          [
            14.9000139,
            40.2505066
          ],
          [
            14.9000841,
            40.2505036
          ],
          [
            14.9001519,
            40.2505413
          ],
          [
            14.90023,
            40.2506726
          ],
          [
            14.900265600000001,
            40.2508611
          ],
          [
            14.9003118,
            40.2510387
          ],
          [
            14.9004473,
            40.2512524
          ],
          [
            14.9008652,
            40.251216
          ]
        ]
      },
      "id": "location-of-Leucosia-Ins",
      "type": "Feature",
      "properties": {
        "description": "Location based on OpenStreetMap",
        "location_precision": "precise",
        "title": "OSM location of Isola Licosa",
        "link": "http://pleiades.stoa.org/places/442633/location-of-Leucosia-Ins"
      }
    }
  ]
}