{
  "type": "FeatureCollection",
  "title": "Sipous/Sipontum",
  "id": "442797",
  "bbox": [
    15.8887108,
    41.6078993,
    15.8925921,
    41.6109226
  ],
  "description": "Sipous/Sipontum was a Greek colony that fell first under Samnite control, then was later taken by Alexander of Epirus. The site became a Roman colony in 189 BC. Legend ascribed its foundation to the hero Diomedes.",
  "names": [
    "Sipous",
    "Sipontum",
    "Siponto",
    "Siponto"
  ],
  "features": [
    {
      "type": "Feature",
      "geometry": {
        "type": "Point",
        "coordinates": [
          15.8906336309,
          41.609389939
        ]
      },
      "properties": {
        "description": "representative point"
      }
    },
    {
      "geometry": {
        "type": "LineString",
        "coordinates": [
          [
            15.8887108,
            41.6087518
          ],
          [
            15.8890617,
            41.6083935
          ],
          [
            15.8890274,
            41.6082844
          ],
          [
            15.8894651,
            41.6078993
          ],
          [
            15.8906872,
            41.6086543
          ],
          [
            15.8916271,
            41.609192
          ],
          [
            15.8923996,
            41.6098722
          ],
          [
            15.8925921,
            41.610062
          ],
          [
            15.8916061,
            41.6109226
          ],
          [
            15.8895176,
            41.6093807
          ],
          [
            15.8887568,
            41.6087876
          ],
          [
            15.8887108,
            41.6087518
          ]
        ]
      },
      "id": "osm-location-parco-archeologico-di-siponto",
      "type": "Feature",
      "properties": {
        "description": "Location based on OpenStreetMap. Dates after BAtlDir.",
        "location_precision": "precise",
        "title": "OSM Location: Parco archeologico di Siponto",
        "link": "http://pleiades.stoa.org/places/442797/osm-location-parco-archeologico-di-siponto"
      }
    }
  ]
}