{
  "type": "FeatureCollection",
  "title": "Valetium/Balesium",
  "id": "442845",
  "bbox": [
    18.0254557,
    40.5019834,
    18.0376804,
    40.5115415
  ],
  "description": "An ancient place, cited: BAtlas 45 H3 Valetium/Balesium",
  "connectsWith": [
    "442657"
  ],
  "names": [
    "Valetium",
    "Balesium",
    "Valentia",
    "Balentium",
    "Valesio"
  ],
  "features": [
    {
      "type": "Feature",
      "geometry": {
        "type": "Point",
        "coordinates": [
          18.0318716352,
          40.5073232287
        ]
      },
      "properties": {
        "description": "representative point"
      }
    },
    {
      "geometry": {
        "type": "LineString",
        "coordinates": [
          [
            18.0256877,
            40.5097083
          ],
          [
            18.0255081,
            40.5088948
          ],
          [
            18.0254557,
            40.5082748
          ],
          [
            18.025495,
            40.5075156
          ],
          [
            18.0255086,
            40.5070562
          ],
          [
            18.0256358,
            40.5064484
          ],
          [
            18.0258566,
            40.5058558
          ],
          [
            18.0259384,
            40.5055312
          ],
          [
            18.0262927,
            40.5051306
          ],
          [
            18.0265743,
            40.5048266
          ],
          [
            18.0268786,
            40.5045952
          ],
          [
            18.027837,
            40.5041566
          ],
          [
            18.0287068,
            40.5037811
          ],
          [
            18.0302032,
            40.5032065
          ],
          [
            18.0307045,
            40.5030302
          ],
          [
            18.0316098,
            40.5028083
          ],
          [
            18.032994,
            40.5020004
          ],
          [
            18.0331436,
            40.5019834
          ],
          [
            18.0353134,
            40.5029619
          ],
          [
            18.0359868,
            40.503235
          ],
          [
            18.0361589,
            40.5034284
          ],
          [
            18.0366063,
            40.5044872
          ],
          [
            18.0369128,
            40.5056739
          ],
          [
            18.0370475,
            40.5063813
          ],
          [
            18.0375033,
            40.5076045
          ],
          [
            18.0376759,
            40.5084057
          ],
          [
            18.0376804,
            40.5090895
          ],
          [
            18.0375623,
            40.5102154
          ],
          [
            18.0374397,
            40.5108197
          ],
          [
            18.0372671,
            40.5111651
          ],
          [
            18.0369945,
            40.5114448
          ],
          [
            18.0364949,
            40.5114759
          ],
          [
            18.0362905,
            40.5115415
          ],
          [
            18.0340875,
            40.511317
          ],
          [
            18.0331517,
            40.511317
          ],
          [
            18.0317936,
            40.5114275
          ],
          [
            18.0301175,
            40.5111202
          ],
          [
            18.0290909,
            40.5110718
          ],
          [
            18.0279326,
            40.5108819
          ],
          [
            18.0270832,
            40.5104399
          ],
          [
            18.0260618,
            40.5099643
          ],
          [
            18.0256877,
            40.5097083
          ]
        ]
      },
      "id": "osm-location-of-parco-archeologico-di-valesio",
      "type": "Feature",
      "properties": {
        "description": "Representative location based on OpenStreetMap, chronology following the Barrington Atlas.",
        "location_precision": "precise",
        "title": "OSM location of Parco Archeologico di Valesio",
        "link": "http://pleiades.stoa.org/places/442845/osm-location-of-parco-archeologico-di-valesio"
      }
    }
  ]
}