{
  "type": "FeatureCollection",
  "title": "Roman odeon, Vienne",
  "id": "44398170",
  "bbox": [
    4.8774352,
    45.5241677,
    4.8774352,
    45.5241677
  ],
  "description": "The Roman odeon at Vienne.",
  "connectsWith": [
    "167719"
  ],
  "features": [
    {
      "type": "Feature",
      "geometry": {
        "type": "Point",
        "coordinates": [
          4.8774352,
          45.5241677
        ]
      },
      "properties": {
        "description": "representative point"
      }
    },
    {
      "geometry": {
        "type": "LineString",
        "coordinates": [
          [
            4.8774352,
            45.5241677
          ],
          [
            4.8772919,
            45.5240939
          ],
          [
            4.8772724,
            45.523866
          ],
          [
            4.8774286,
            45.5235795
          ],
          [
            4.8777195,
            45.5235643
          ],
          [
            4.8780798,
            45.523675
          ],
          [
            4.8782165,
            45.5239246
          ],
          [
            4.8778714,
            45.5239962
          ],
          [
            4.8774352,
            45.5241677
          ]
        ]
      },
      "id": "location-of-roman-odeon",
      "type": "Feature",
      "properties": {
        "description": "Location based on OpenStreetMap",
        "location_precision": "precise",
        "title": "OSM location of Roman odeon",
        "link": "http://pleiades.stoa.org/places/44398170/location-of-roman-odeon"
      }
    }
  ]
}