{
  "type": "FeatureCollection",
  "title": "Untitled",
  "id": "443957",
  "bbox": [
    15.2290134,
    40.1838639,
    15.7044253,
    40.6334026
  ],
  "description": "An ancient place, cited: BAtlas 45 C4 unnamed bridge (Ponte Silla, over R. Tanagro, SE Tegianum)",
  "connectsWith": [
    "442809",
    "442816"
  ],
  "features": [
    {
      "type": "Feature",
      "geometry": {
        "type": "Point",
        "coordinates": [
          15.4795700582,
          40.4442840322
        ]
      },
      "properties": {
        "description": "representative point"
      }
    },
    {
      "geometry": {
        "type": "Polygon",
        "coordinates": [
          [
            [
              15.5,
              40.0
            ],
            [
              15.5,
              40.5
            ],
            [
              16.0,
              40.5
            ],
            [
              16.0,
              40.0
            ],
            [
              15.5,
              40.0
            ]
          ]
        ]
      },
      "id": "batlas-location",
      "type": "Feature",
      "properties": {
        "description": null,
        "location_precision": "rough",
        "title": "Barrington Atlas location",
        "link": "http://pleiades.stoa.org/places/443957/batlas-location"
      }
    }
  ]
}