{
  "type": "FeatureCollection",
  "title": "Katarakta",
  "id": "446258",
  "description": "Now unlocated, Katarakta was a place in Apulia. The Romans reportedly captured it during the Second Samnite War in 311 BCE.",
  "names": [
    "Katarakta"
  ],
  "features": [
    {
      "type": "Feature",
      "geometry": null,
      "properties": {
        "description": "representative point"
      }
    },
    {
      "geometry": null,
      "id": "batlas-location",
      "type": "Feature",
      "properties": {
        "description": null,
        "location_precision": "unlocated",
        "title": "Barrington Atlas location",
        "link": "http://pleiades.stoa.org/places/446258/batlas-location"
      }
    }
  ]
}