{
  "type": "FeatureCollection",
  "title": "Fratuertium/Fratuentium",
  "id": "446244",
  "description": "Pliny the Elder describes the now-unlocated Fratuertium/Fratuentium in south Italy. Based on Pliny's description, one encounters Fratuertium/Fratuentium following the deserted place Soletum, but before the Portus Tarentinus.",
  "connectsWith": [
    "442630"
  ],
  "names": [
    "Fratuertium",
    "Fratuentium"
  ],
  "features": [
    {
      "type": "Feature",
      "geometry": null,
      "properties": {
        "description": "representative point"
      }
    },
    {
      "geometry": null,
      "id": "batlas-location",
      "type": "Feature",
      "properties": {
        "description": null,
        "location_precision": "unlocated",
        "title": "Barrington Atlas location",
        "link": "http://pleiades.stoa.org/places/446244/batlas-location"
      }
    }
  ]
}