{
  "type": "FeatureCollection",
  "title": "Sontini",
  "id": "446293",
  "bbox": [
    15.5,
    40.5,
    16.0,
    41.0
  ],
  "description": "A people of ancient Lucania.",
  "connectsWith": [
    "442639"
  ],
  "names": [
    "Sontini"
  ],
  "features": [
    {
      "type": "Feature",
      "geometry": {
        "type": "Point",
        "coordinates": [
          15.75,
          40.75
        ]
      },
      "properties": {
        "description": "representative point"
      }
    },
    {
      "geometry": null,
      "id": "batlas-location",
      "type": "Feature",
      "properties": {
        "description": null,
        "location_precision": "unlocated",
        "title": "Barrington Atlas location",
        "link": "http://pleiades.stoa.org/places/446293/batlas-location"
      }
    }
  ]
}