{
  "type": "FeatureCollection",
  "title": "Turiostu",
  "id": "446300",
  "bbox": [
    16.6626286,
    40.21668,
    16.6782305,
    40.2224384
  ],
  "description": "An ancient place, cited: BAtlas 45 unlocated Turiostu",
  "connectsWith": [
    "452333"
  ],
  "names": [
    "Turiostu"
  ],
  "features": [
    {
      "type": "Feature",
      "geometry": {
        "type": "Point",
        "coordinates": [
          16.6703645625,
          40.219645068
        ]
      },
      "properties": {
        "description": "representative point"
      }
    },
    {
      "geometry": null,
      "id": "batlas-location",
      "type": "Feature",
      "properties": {
        "description": null,
        "location_precision": "unlocated",
        "title": "Barrington Atlas location",
        "link": "http://pleiades.stoa.org/places/446300/batlas-location"
      }
    }
  ]
}