{
  "type": "FeatureCollection",
  "title": "Ulurtini",
  "id": "446302",
  "description": "The Ulurtini were an ancient people found in the interior of Calabria.",
  "connectsWith": [
    "441075551"
  ],
  "names": [
    "Ulurtini"
  ],
  "features": [
    {
      "type": "Feature",
      "geometry": null,
      "properties": {
        "description": "representative point"
      }
    },
    {
      "geometry": null,
      "id": "batlas-location",
      "type": "Feature",
      "properties": {
        "description": null,
        "location_precision": "unlocated",
        "title": "Barrington Atlas location",
        "link": "http://pleiades.stoa.org/places/446302/batlas-location"
      }
    }
  ]
}