{
  "type": "FeatureCollection",
  "title": "Comblessac",
  "id": "44707452",
  "bbox": [
    -2.0999713,
    47.8454042,
    -2.099691,
    47.8455923
  ],
  "description": "A heptagonal Gallo-Roman temple.",
  "features": [
    {
      "type": "Feature",
      "geometry": {
        "type": "Point",
        "coordinates": [
          -2.09983050256,
          47.8454984465
        ]
      },
      "properties": {
        "description": "representative point"
      }
    },
    {
      "geometry": {
        "type": "LineString",
        "coordinates": [
          [
            -2.0997083,
            47.8454515
          ],
          [
            -2.0996923,
            47.8454803
          ],
          [
            -2.099691,
            47.8455111
          ],
          [
            -2.0997044,
            47.8455405
          ],
          [
            -2.0997312,
            47.8455654
          ],
          [
            -2.0997685,
            47.8455833
          ],
          [
            -2.0998135,
            47.8455923
          ],
          [
            -2.0998604,
            47.8455908
          ],
          [
            -2.099904,
            47.8455791
          ],
          [
            -2.0999394,
            47.8455584
          ],
          [
            -2.0999627,
            47.8455311
          ],
          [
            -2.0999713,
            47.8455001
          ],
          [
            -2.0999643,
            47.8454689
          ],
          [
            -2.0999424,
            47.8454411
          ],
          [
            -2.0999081,
            47.8454196
          ],
          [
            -2.0998662,
            47.845407
          ],
          [
            -2.0998206,
            47.8454042
          ],
          [
            -2.099776,
            47.8454113
          ],
          [
            -2.0997372,
            47.8454277
          ],
          [
            -2.0997083,
            47.8454515
          ]
        ]
      },
      "id": "osm-location-of-temple-romano-celtique-heptagonal",
      "type": "Feature",
      "properties": {
        "description": "Representative location based on OpenStreetMap.",
        "location_precision": "precise",
        "title": "OSM location of Temple romano-celtique heptagonal",
        "link": "http://pleiades.stoa.org/places/44707452/osm-location-of-temple-romano-celtique-heptagonal"
      }
    }
  ]
}