{
  "type": "FeatureCollection",
  "title": "Forum of Theodosius",
  "id": "448320942",
  "bbox": [
    28.962124,
    41.009345,
    28.9657484,
    41.0111974
  ],
  "description": "The Forum of Theodosius in Constantinople was founded by Constantine as the Forum Tauri. In 393, Theodosius I rebuilt and remodelled the forum to resemble the Forum of Trajan in Rome. The forum occupied the area of what is now Beyazıt Square in Istanbul.",
  "connectsWith": [
    "520998"
  ],
  "names": [
    "Forum of Theodosius"
  ],
  "features": [
    {
      "type": "Feature",
      "geometry": {
        "type": "Point",
        "coordinates": [
          28.9640841923,
          41.0102782081
        ]
      },
      "properties": {
        "description": "representative point"
      }
    },
    {
      "geometry": {
        "type": "MultiLineString",
        "coordinates": [
          [
            [
              28.965032,
              41.0101723
            ],
            [
              28.9649147,
              41.0102801
            ],
            [
              28.9647244,
              41.0104551
            ],
            [
              28.9651583,
              41.0107247
            ],
            [
              28.9653536,
              41.0105492
            ],
            [
              28.9654793,
              41.0104362
            ],
            [
              28.9656042,
              41.0105146
            ],
            [
              28.9655859,
              41.0105371
            ],
            [
              28.9656364,
              41.0105751
            ],
            [
              28.9656607,
              41.0105549
            ],
            [
              28.9657484,
              41.0106122
            ],
            [
              28.9652053,
              41.0110919
            ],
            [
              28.965177,
              41.0111258
            ],
            [
              28.9651172,
              41.0111974
            ],
            [
              28.9649029,
              41.0110531
            ],
            [
              28.9648359,
              41.0110349
            ],
            [
              28.9648413,
              41.0110005
            ],
            [
              28.9648171,
              41.0109803
            ],
            [
              28.9647616,
              41.0109765
            ],
            [
              28.964734,
              41.0109884
            ],
            [
              28.9647232,
              41.0110187
            ],
            [
              28.9646508,
              41.0109985
            ],
            [
              28.9644241,
              41.010962
            ],
            [
              28.9644013,
              41.0109331
            ],
            [
              28.9643564,
              41.0109301
            ],
            [
              28.9643195,
              41.010956
            ],
            [
              28.9642318,
              41.0109433
            ],
            [
              28.9641505,
              41.0109317
            ],
            [
              28.9641318,
              41.0109018
            ],
            [
              28.9640873,
              41.0108997
            ],
            [
              28.9640542,
              41.0109251
            ],
            [
              28.963814,
              41.0108771
            ],
            [
              28.9637416,
              41.0108568
            ],
            [
              28.9637496,
              41.0108265
            ],
            [
              28.9637335,
              41.0108001
            ],
            [
              28.9636825,
              41.010786
            ],
            [
              28.9636396,
              41.0108103
            ],
            [
              28.9636289,
              41.0108447
            ],
            [
              28.9635565,
              41.0108386
            ],
            [
              28.9634312,
              41.0108599
            ],
            [
              28.9633194,
              41.0108764
            ],
            [
              28.9632449,
              41.0108365
            ],
            [
              28.9631932,
              41.010817
            ],
            [
              28.9631106,
              41.0108098
            ],
            [
              28.963111,
              41.0107864
            ],
            [
              28.9631143,
              41.0107574
            ],
            [
              28.9631988,
              41.0107591
            ],
            [
              28.9632177,
              41.0106797
            ],
            [
              28.9628808,
              41.0106655
            ],
            [
              28.9627943,
              41.0106602
            ],
            [
              28.9624229,
              41.0106497
            ],
            [
              28.9623759,
              41.0106245
            ],
            [
              28.9623452,
              41.0106081
            ],
            [
              28.962124,
              41.0106015
            ],
            [
              28.9621316,
              41.0105388
            ],
            [
              28.9626398,
              41.0105213
            ],
            [
              28.9628978,
              41.0104531
            ],
            [
              28.9628911,
              41.0101664
            ],
            [
              28.9628942,
              41.0101449
            ],
            [
              28.9633153,
              41.0103866
            ],
            [
              28.9637268,
              41.0100049
            ],
            [
              28.9634218,
              41.0098296
            ],
            [
              28.9634725,
              41.0097463
            ],
            [
              28.9630992,
              41.0095359
            ],
            [
              28.9632984,
              41.0095041
            ],
            [
              28.9635167,
              41.0094814
            ],
            [
              28.9646266,
              41.009394
            ],
            [
              28.9647055,
              41.0093842
            ],
            [
              28.9648907,
              41.0093741
            ],
            [
              28.9654221,
              41.009345
            ],
            [
              28.9654263,
              41.0094492
            ],
            [
              28.9654279,
              41.0094894
            ],
            [
              28.9652813,
              41.0095569
            ],
            [
              28.9652423,
              41.0095748
            ],
            [
              28.96505,
              41.0096633
            ],
            [
              28.9647755,
              41.0100012
            ],
            [
              28.965032,
              41.0101723
            ]
          ]
        ]
      },
      "id": "osm-location-of-beyazit-square",
      "type": "Feature",
      "properties": {
        "description": "Location based on OpenStreetMap",
        "location_precision": "precise",
        "title": "OSM location of Beyazit Square",
        "link": "http://pleiades.stoa.org/places/448320942/osm-location-of-beyazit-square"
      }
    }
  ]
}