{
  "type": "FeatureCollection",
  "title": "Lametikos Kolpos",
  "id": "452358",
  "bbox": [
    16.06667,
    38.85,
    16.06667,
    38.85
  ],
  "description": "Lametikos Kolpos (sometimes also referred to as Vibonensis Sinus) is the modern-day Gulf of Saint Euphemia (Italian: Golfo di Santa Eufemia or Golfo di Sant'Eufemia) and is part of the Tyrrhenian Sea. It is located on the west coast of Calabria.",
  "connectsWith": [
    "1356"
  ],
  "names": [
    "Lametikos Kolpos",
    "Golfo di Sant'Eufemia",
    "Gulf of Saint Euphemia",
    "Terinaeus sinus",
    "Hipponiates kolpos",
    "sinus Vibonensis",
    "Terinaios kolpos"
  ],
  "features": [
    {
      "type": "Feature",
      "geometry": {
        "type": "Point",
        "coordinates": [
          16.06667,
          38.85
        ]
      },
      "properties": {
        "description": "representative point"
      }
    },
    {
      "geometry": {
        "type": "Point",
        "coordinates": [
          16.06667,
          38.85
        ]
      },
      "id": "location-of-golfo-di-santeufemia",
      "type": "Feature",
      "properties": {
        "description": "coordinates after GeoNames",
        "location_precision": "precise",
        "title": "GeoNames location of Golfo di Sant'Eufemia ",
        "link": "http://pleiades.stoa.org/places/452358/location-of-golfo-di-santeufemia"
      }
    }
  ]
}