{
  "type": "FeatureCollection",
  "title": "Doss Trento",
  "id": "452494691",
  "bbox": [
    11.111775,
    46.0724404,
    11.1121475,
    46.0727139
  ],
  "description": "Doss Trento is a small hill that lies along the course of the Adige River. A Paleochristian basilica was located on the hillside.",
  "features": [
    {
      "type": "Feature",
      "geometry": {
        "type": "Point",
        "coordinates": [
          11.1119902262,
          46.072559831
        ]
      },
      "properties": {
        "description": "representative point"
      }
    },
    {
      "geometry": {
        "type": "LineString",
        "coordinates": [
          [
            11.111775,
            46.0725646
          ],
          [
            11.1120052,
            46.072565
          ],
          [
            11.1120051,
            46.0726155
          ],
          [
            11.1120032,
            46.072712
          ],
          [
            11.1120824,
            46.0727139
          ],
          [
            11.1120832,
            46.0726846
          ],
          [
            11.112109,
            46.0726828
          ],
          [
            11.1121291,
            46.0726753
          ],
          [
            11.1121402,
            46.0726666
          ],
          [
            11.1121475,
            46.0726551
          ],
          [
            11.1121445,
            46.0726395
          ],
          [
            11.1121376,
            46.0726269
          ],
          [
            11.1121229,
            46.0726198
          ],
          [
            11.1121068,
            46.0726154
          ],
          [
            11.1121055,
            46.0725624
          ],
          [
            11.1121216,
            46.0725559
          ],
          [
            11.1121363,
            46.0725447
          ],
          [
            11.1121417,
            46.0725326
          ],
          [
            11.112143,
            46.0725186
          ],
          [
            11.112139,
            46.0725066
          ],
          [
            11.1121281,
            46.0724966
          ],
          [
            11.1121158,
            46.0724902
          ],
          [
            11.1121055,
            46.0724842
          ],
          [
            11.1121056,
            46.0724404
          ],
          [
            11.1120714,
            46.0724409
          ],
          [
            11.112071,
            46.0724598
          ],
          [
            11.112029,
            46.0724593
          ],
          [
            11.1120078,
            46.0724593
          ],
          [
            11.1120077,
            46.0724843
          ],
          [
            11.1117752,
            46.072484
          ],
          [
            11.111775,
            46.0725646
          ]
        ]
      },
      "id": "osm-location-of-paleochristian-basilica",
      "type": "Feature",
      "properties": {
        "description": "Location based on OpenStreetMap",
        "location_precision": "precise",
        "title": "OSM location of Paleochristian basilica",
        "link": "http://pleiades.stoa.org/places/452494691/osm-location-of-paleochristian-basilica"
      }
    }
  ]
}