{
  "type": "FeatureCollection",
  "title": "Spezzano Albanese",
  "id": "452454",
  "bbox": [
    16.31049,
    39.668801,
    16.311421,
    39.669841
  ],
  "description": "An ancient place, cited: BAtlas 46 D2 Spezzano Albanese",
  "names": [
    "Spezzano Albanese"
  ],
  "features": [
    {
      "type": "Feature",
      "geometry": {
        "type": "Point",
        "coordinates": [
          16.3110861333,
          39.6694357667
        ]
      },
      "properties": {
        "description": "representative point"
      }
    },
    {
      "geometry": {
        "type": "Point",
        "coordinates": [
          16.311421,
          39.669841
        ]
      },
      "id": "darmc-location-18898",
      "type": "Feature",
      "properties": {
        "description": "500K scale point location",
        "location_precision": "precise",
        "title": "DARMC location 18898",
        "link": "http://pleiades.stoa.org/places/452454/darmc-location-18898"
      }
    },
    {
      "geometry": {
        "type": "Point",
        "coordinates": [
          16.31134739999993,
          39.6696653
        ]
      },
      "id": "dare-location",
      "type": "Feature",
      "properties": {
        "description": "Representative point location, village precision",
        "location_precision": "precise",
        "title": "DARE Location",
        "link": "http://pleiades.stoa.org/places/452454/dare-location"
      }
    },
    {
      "geometry": {
        "type": "Point",
        "coordinates": [
          16.31049,
          39.668801
        ]
      },
      "id": "osm-location-of-spezzano-albanese",
      "type": "Feature",
      "properties": {
        "description": "Representative location based on OpenStreetMap",
        "location_precision": "precise",
        "title": "OSM location of Spezzano Albanese",
        "link": "http://pleiades.stoa.org/places/452454/osm-location-of-spezzano-albanese"
      }
    }
  ]
}