{
  "type": "FeatureCollection",
  "title": "Terina?",
  "id": "452470",
  "bbox": [
    16.233021,
    38.9384736,
    16.2348165,
    38.940154
  ],
  "description": "An ancient place, cited: BAtlas 46 D4 Terina?",
  "connectsWith": [
    "1113"
  ],
  "names": [
    "Terina",
    "Terina",
    "Santa Eufemia Vetere"
  ],
  "features": [
    {
      "type": "Feature",
      "geometry": {
        "type": "Point",
        "coordinates": [
          16.2340000297,
          38.9393420228
        ]
      },
      "properties": {
        "description": "representative point"
      }
    },
    {
      "geometry": {
        "type": "LineString",
        "coordinates": [
          [
            16.2344354,
            38.9385328
          ],
          [
            16.2335914,
            38.9384736
          ],
          [
            16.233021,
            38.9396626
          ],
          [
            16.2345971,
            38.9400955
          ],
          [
            16.2346244,
            38.9400794
          ],
          [
            16.2346669,
            38.94009
          ],
          [
            16.23468,
            38.9401164
          ],
          [
            16.2348165,
            38.940154
          ],
          [
            16.2344354,
            38.9385328
          ]
        ]
      },
      "id": "osm-location-of-terina",
      "type": "Feature",
      "properties": {
        "description": "Representative location based on OpenStreetMap, chronology following the Barrington Atlas",
        "location_precision": "precise",
        "title": "OSM location of Terina",
        "link": "http://pleiades.stoa.org/places/452470/osm-location-of-terina"
      }
    }
  ]
}