{
  "type": "FeatureCollection",
  "title": "So-called Arch of Hadrian (Capua)",
  "id": "457780134",
  "bbox": [
    14.247687,
    41.0840181,
    14.247687,
    41.0840181
  ],
  "description": "The remains of a triple arch in opus latericium marking the pomerium of Capua. It is perhaps originally constructed under the Flavians.",
  "connectsWith": [
    "432754",
    "356966898"
  ],
  "names": [
    "Arco di Adriano"
  ],
  "features": [
    {
      "type": "Feature",
      "geometry": {
        "type": "Point",
        "coordinates": [
          14.247687,
          41.0840181
        ]
      },
      "properties": {
        "description": "representative point"
      }
    },
    {
      "geometry": {
        "type": "Point",
        "coordinates": [
          14.247687,
          41.0840181
        ]
      },
      "id": "osm-location-of-arco-di-adriano",
      "type": "Feature",
      "properties": {
        "description": "Representative location based on OpenStreetMap",
        "location_precision": "precise",
        "title": "OSM location of Arco di Adriano",
        "link": "http://pleiades.stoa.org/places/457780134/osm-location-of-arco-di-adriano"
      }
    }
  ]
}