{
  "type": "FeatureCollection",
  "title": "Tongeren Gallo-Roman temple complex",
  "id": "459717793",
  "bbox": [
    5.4593991,
    50.7831314,
    5.4603962,
    50.7841995
  ],
  "description": "The Gallo-Roman temple complex of Tongeren is located in the northwestern part of the city of Tongeren. The site pre-dates the Roman city wall.",
  "connectsWith": [
    "108765"
  ],
  "names": [
    "Gallo-Roman temple complex Tongeren"
  ],
  "features": [
    {
      "type": "Feature",
      "geometry": {
        "type": "Point",
        "coordinates": [
          5.45997827568,
          50.7837294953
        ]
      },
      "properties": {
        "description": "representative point"
      }
    },
    {
      "geometry": {
        "type": "LineString",
        "coordinates": [
          [
            5.460127,
            50.7834363
          ],
          [
            5.4601369,
            50.7834464
          ],
          [
            5.4602806,
            50.7835316
          ],
          [
            5.4602738,
            50.7835477
          ],
          [
            5.4602533,
            50.7835954
          ],
          [
            5.4601685,
            50.7836577
          ],
          [
            5.4602137,
            50.7836995
          ],
          [
            5.4601814,
            50.783766
          ],
          [
            5.4603962,
            50.7839421
          ],
          [
            5.4603141,
            50.7841995
          ],
          [
            5.4593991,
            50.7840172
          ],
          [
            5.4595049,
            50.7837829
          ],
          [
            5.4596474,
            50.7835625
          ],
          [
            5.4598462,
            50.7834082
          ],
          [
            5.4602621,
            50.7831314
          ],
          [
            5.460127,
            50.7834363
          ]
        ]
      },
      "id": "osm-location-of-tempelsite",
      "type": "Feature",
      "properties": {
        "description": "Representative location based on OpenStreetMap.",
        "location_precision": "precise",
        "title": "OSM location of Tempelsite",
        "link": "http://pleiades.stoa.org/places/459717793/osm-location-of-tempelsite"
      }
    }
  ]
}