{
  "type": "FeatureCollection",
  "title": "Aegates (islands)",
  "id": "462075",
  "bbox": [
    12.0280225,
    37.9310758,
    12.3390689,
    37.9931046
  ],
  "description": "The Egadi Islands, a small group of mountainous islands northwest of Sicily.",
  "connectsWith": [
    "1043"
  ],
  "names": [
    "Aegates",
    "Aigousai Nesoi",
    "Aegadian Islands",
    "Isole Egadi",
    "Aegates Insulae"
  ],
  "features": [
    {
      "type": "Feature",
      "geometry": {
        "type": "Point",
        "coordinates": [
          12.1939105652,
          37.9508717413
        ]
      },
      "properties": {
        "description": "representative point"
      }
    }
  ]
}