{
  "type": "FeatureCollection",
  "title": "Assorus",
  "id": "462106",
  "bbox": [
    14.4238862,
    37.6279049,
    14.4238862,
    37.6279049
  ],
  "description": "Assorus was a settlement of the Siculi in interior Sicily that never received a Greek colony.",
  "connectsWith": [
    "462492"
  ],
  "names": [
    "Assorus",
    "Assorum",
    "Assoros",
    "Assoro",
    "Asaro",
    "Assorini"
  ],
  "features": [
    {
      "type": "Feature",
      "geometry": {
        "type": "Point",
        "coordinates": [
          14.4238862,
          37.6279049
        ]
      },
      "properties": {
        "description": "representative point"
      }
    },
    {
      "geometry": {
        "type": "Point",
        "coordinates": [
          14.4238862,
          37.6279049
        ]
      },
      "id": "assoro",
      "type": "Feature",
      "properties": {
        "description": "Location of the modern town of Assoro, thought to be in the area of the ancient settlement of Assorus, based on a representative point derived from an OpenStreetMap node",
        "location_precision": "precise",
        "title": "OSM location of Assoro",
        "link": "http://pleiades.stoa.org/places/462106/assoro"
      }
    }
  ]
}