{
  "type": "FeatureCollection",
  "title": "Maroneus (mountain)",
  "id": "462302",
  "bbox": [
    14.0251862,
    37.8941169,
    14.0251862,
    37.8941169
  ],
  "description": "Pizzo Carbonara, in the Madonie.",
  "names": [
    "Maroneus",
    "Pizzo Carbonara"
  ],
  "features": [
    {
      "type": "Feature",
      "geometry": {
        "type": "Point",
        "coordinates": [
          14.0251862,
          37.8941169
        ]
      },
      "properties": {
        "description": "representative point"
      }
    },
    {
      "geometry": {
        "type": "Point",
        "coordinates": [
          14.0251862,
          37.8941169
        ]
      },
      "id": "osm-location-pizzo-carbonara",
      "type": "Feature",
      "properties": {
        "description": "Highest peak on Maroneus mons (modern Madonie mountains)",
        "location_precision": "precise",
        "title": "OSM Location: Pizzo Carbonara",
        "link": "http://pleiades.stoa.org/places/462302/osm-location-pizzo-carbonara"
      }
    }
  ]
}