{
  "type": "FeatureCollection",
  "title": "Soluntum",
  "id": "462498",
  "bbox": [
    13.5295328,
    38.0905306,
    13.5345145,
    38.0955819
  ],
  "description": "An ancient settlement on the north-west coast of Sicily, some 16 km east of modern Palermo.",
  "connectsWith": [
    "462492"
  ],
  "names": [
    "Soluntum",
    "Solunto",
    "Solous",
    "Solantum",
    "Selentos"
  ],
  "features": [
    {
      "type": "Feature",
      "geometry": {
        "type": "Point",
        "coordinates": [
          13.5316956318,
          38.0931395441
        ]
      },
      "properties": {
        "description": "representative point"
      }
    },
    {
      "geometry": {
        "type": "Point",
        "coordinates": [
          13.531659,
          38.09335
        ]
      },
      "id": "dare-location",
      "type": "Feature",
      "properties": {
        "description": "Representative point location, site precision",
        "location_precision": "precise",
        "title": "DARE Location",
        "link": "http://pleiades.stoa.org/places/462498/dare-location"
      }
    },
    {
      "geometry": {
        "type": "LineString",
        "coordinates": [
          [
            13.5295328,
            38.0932168
          ],
          [
            13.5296514,
            38.092869
          ],
          [
            13.5298158,
            38.0922578
          ],
          [
            13.5299531,
            38.091443
          ],
          [
            13.5299407,
            38.0911857
          ],
          [
            13.5298873,
            38.0908612
          ],
          [
            13.5299522,
            38.0906396
          ],
          [
            13.5302112,
            38.0905306
          ],
          [
            13.5307654,
            38.0908788
          ],
          [
            13.5311851,
            38.0910463
          ],
          [
            13.5314799,
            38.091112
          ],
          [
            13.5315855,
            38.0911788
          ],
          [
            13.5316991,
            38.0914165
          ],
          [
            13.5319858,
            38.0917426
          ],
          [
            13.5322133,
            38.0918791
          ],
          [
            13.5324648,
            38.0920042
          ],
          [
            13.5333371,
            38.0915291
          ],
          [
            13.5336173,
            38.0915472
          ],
          [
            13.5337859,
            38.0916442
          ],
          [
            13.5341235,
            38.0917162
          ],
          [
            13.5343277,
            38.0917627
          ],
          [
            13.5344732,
            38.0919283
          ],
          [
            13.5345145,
            38.0920888
          ],
          [
            13.5344387,
            38.0922207
          ],
          [
            13.5339648,
            38.0924358
          ],
          [
            13.533894,
            38.0925504
          ],
          [
            13.5338775,
            38.092783
          ],
          [
            13.5339391,
            38.0930322
          ],
          [
            13.5339151,
            38.0932725
          ],
          [
            13.5337584,
            38.0934105
          ],
          [
            13.5337529,
            38.0935626
          ],
          [
            13.5337098,
            38.0936505
          ],
          [
            13.533478,
            38.0937563
          ],
          [
            13.5332421,
            38.093932
          ],
          [
            13.5331363,
            38.0942579
          ],
          [
            13.5326273,
            38.0944315
          ],
          [
            13.5322772,
            38.0948731
          ],
          [
            13.5320979,
            38.0949257
          ],
          [
            13.5320282,
            38.0950666
          ],
          [
            13.5318389,
            38.0951781
          ],
          [
            13.531687,
            38.0953528
          ],
          [
            13.5316593,
            38.0954796
          ],
          [
            13.5315968,
            38.0955327
          ],
          [
            13.5315045,
            38.0955416
          ],
          [
            13.5313557,
            38.0954982
          ],
          [
            13.5311737,
            38.095514
          ],
          [
            13.5310197,
            38.0955768
          ],
          [
            13.5308984,
            38.0955819
          ],
          [
            13.5305925,
            38.0953717
          ],
          [
            13.5304597,
            38.0952651
          ],
          [
            13.5303513,
            38.0951033
          ],
          [
            13.530252,
            38.0946089
          ],
          [
            13.5300229,
            38.0942344
          ],
          [
            13.5298542,
            38.0941399
          ],
          [
            13.5295935,
            38.0936787
          ],
          [
            13.5295328,
            38.0932168
          ]
        ]
      },
      "id": "location-of-soluntum",
      "type": "Feature",
      "properties": {
        "description": "Location based on OpenStreetMap",
        "location_precision": "precise",
        "title": "OSM location of Rovine di Solunto",
        "link": "http://pleiades.stoa.org/places/462498/location-of-soluntum"
      }
    }
  ]
}