{
  "type": "FeatureCollection",
  "title": "Pelorus/Regium (promontory)",
  "id": "462416",
  "bbox": [
    15.6530796,
    38.2678505,
    15.6530796,
    38.2678505
  ],
  "description": "An ancient place, cited: BAtlas 47 H2 Pelorus/Regium Pr.",
  "connectsWith": [
    "462492"
  ],
  "names": [
    "Pelorus",
    "Regium Pr."
  ],
  "features": [
    {
      "type": "Feature",
      "geometry": {
        "type": "Point",
        "coordinates": [
          15.6530796,
          38.2678505
        ]
      },
      "properties": {
        "description": "representative point"
      }
    },
    {
      "geometry": {
        "type": "Point",
        "coordinates": [
          15.6530796,
          38.2678505
        ]
      },
      "id": "osm-location-of-capo-peloro",
      "type": "Feature",
      "properties": {
        "description": "Location based on OpenStreetMap",
        "location_precision": "precise",
        "title": "OSM location of Capo Peloro",
        "link": "http://pleiades.stoa.org/places/462416/osm-location-of-capo-peloro"
      }
    }
  ]
}