{
  "type": "FeatureCollection",
  "title": "Roman amphitheater at Luca",
  "id": "463189757",
  "bbox": [
    10.5056733,
    43.8451156,
    10.5066191,
    43.8455816
  ],
  "description": "The Roman amphitheater at Luca dates to the second half of the first century.",
  "connectsWith": [
    "403234"
  ],
  "features": [
    {
      "type": "Feature",
      "geometry": {
        "type": "Point",
        "coordinates": [
          10.506144416,
          43.8453478923
        ]
      },
      "properties": {
        "description": "representative point"
      }
    },
    {
      "geometry": {
        "type": "LineString",
        "coordinates": [
          [
            10.5057722,
            43.8455203
          ],
          [
            10.5058165,
            43.8455378
          ],
          [
            10.5058806,
            43.8455631
          ],
          [
            10.505938,
            43.845573
          ],
          [
            10.5059879,
            43.8455816
          ],
          [
            10.5061198,
            43.8455793
          ],
          [
            10.5061766,
            43.8455756
          ],
          [
            10.5062023,
            43.8455743
          ],
          [
            10.5062289,
            43.8455719
          ],
          [
            10.5062646,
            43.8455669
          ],
          [
            10.5063607,
            43.8455432
          ],
          [
            10.5064288,
            43.845512
          ],
          [
            10.5064629,
            43.8454918
          ],
          [
            10.5065005,
            43.8454697
          ],
          [
            10.5065593,
            43.845425
          ],
          [
            10.5065845,
            43.8453976
          ],
          [
            10.5066132,
            43.8453437
          ],
          [
            10.5066191,
            43.8453054
          ],
          [
            10.5066135,
            43.8452849
          ],
          [
            10.5066084,
            43.8452664
          ],
          [
            10.506603,
            43.8452557
          ],
          [
            10.5065924,
            43.8452446
          ],
          [
            10.5065684,
            43.8452175
          ],
          [
            10.5065345,
            43.845192
          ],
          [
            10.5065052,
            43.845174
          ],
          [
            10.506424,
            43.8451391
          ],
          [
            10.5063698,
            43.84513
          ],
          [
            10.5062952,
            43.8451174
          ],
          [
            10.5062434,
            43.8451175
          ],
          [
            10.5062137,
            43.8451175
          ],
          [
            10.5061925,
            43.8451156
          ],
          [
            10.5061309,
            43.8451182
          ],
          [
            10.5061076,
            43.8451195
          ],
          [
            10.5060281,
            43.8451316
          ],
          [
            10.5059334,
            43.8451553
          ],
          [
            10.5058461,
            43.845187
          ],
          [
            10.5058039,
            43.8452106
          ],
          [
            10.5057199,
            43.8452684
          ],
          [
            10.5056856,
            43.8453195
          ],
          [
            10.5056757,
            43.8453555
          ],
          [
            10.5056746,
            43.8453657
          ],
          [
            10.5056733,
            43.8453774
          ],
          [
            10.5056823,
            43.845415
          ],
          [
            10.5057046,
            43.8454562
          ],
          [
            10.50573,
            43.8454802
          ],
          [
            10.5057722,
            43.8455203
          ]
        ]
      },
      "id": "osm-location-piazza-anfiteatro",
      "type": "Feature",
      "properties": {
        "description": "Location based on OpenStreetMap",
        "location_precision": "precise",
        "title": "OSM Location: Piazza Anfiteatro",
        "link": "http://pleiades.stoa.org/places/463189757/osm-location-piazza-anfiteatro"
      }
    }
  ]
}