{
  "type": "FeatureCollection",
  "title": "Brusselstown Ring",
  "id": "464027192",
  "bbox": [
    -6.6174597,
    52.9628829,
    -6.6174597,
    52.9628829
  ],
  "description": "A large fortified settlement in modern County Wicklow, Ireland, with evidence of occupation in the Late Bronze and Early Iron Ages.",
  "features": [
    {
      "type": "Feature",
      "geometry": {
        "type": "Point",
        "coordinates": [
          -6.6174597,
          52.9628829
        ]
      },
      "properties": {
        "description": "representative point"
      }
    },
    {
      "geometry": {
        "type": "Point",
        "coordinates": [
          -6.6174597,
          52.9628829
        ]
      },
      "id": "osm-location-bursselstown-ring",
      "type": "Feature",
      "properties": {
        "description": "Location based on OpenStreetMap. Dates after Brandherm 2025.",
        "location_precision": "precise",
        "title": "OSM Location: Bursselstown Ring",
        "link": "http://pleiades.stoa.org/places/464027192/osm-location-bursselstown-ring"
      }
    }
  ]
}