{
  "type": "FeatureCollection",
  "title": "Caene (island)",
  "id": "465872",
  "description": "Pliny the Elder includes Caene, a now unlocated island, in a grouping that he describes as \"facing towards Africa\" (Insulae <in> Africam versae).",
  "names": [
    "Caene"
  ],
  "features": [
    {
      "type": "Feature",
      "geometry": null,
      "properties": {
        "description": "representative point"
      }
    },
    {
      "geometry": null,
      "id": "batlas-location",
      "type": "Feature",
      "properties": {
        "description": null,
        "location_precision": "unlocated",
        "title": "Barrington Atlas location",
        "link": "http://pleiades.stoa.org/places/465872/batlas-location"
      }
    }
  ]
}