{
  "type": "FeatureCollection",
  "title": "Dispilio",
  "id": "471781651",
  "bbox": [
    21.290224,
    40.4856227,
    21.290224,
    40.4856227
  ],
  "description": "Dispilio is an archaeological site with the remains of a Neolithic lake-side settlement near the modern village of Dispilio on Lake Orestiada.",
  "names": [
    "Dispilio"
  ],
  "features": [
    {
      "type": "Feature",
      "geometry": {
        "type": "Point",
        "coordinates": [
          21.290224,
          40.4856227
        ]
      },
      "properties": {
        "description": "representative point"
      }
    },
    {
      "geometry": {
        "type": "LineString",
        "coordinates": [
          [
            21.2903872,
            40.4857135
          ],
          [
            21.2898641,
            40.4857348
          ],
          [
            21.2894765,
            40.4857206
          ],
          [
            21.2888134,
            40.4857064
          ],
          [
            21.2884491,
            40.4855749
          ],
          [
            21.2883183,
            40.4852979
          ],
          [
            21.2883884,
            40.4849995
          ],
          [
            21.2885924,
            40.4849572
          ],
          [
            21.2891543,
            40.4849036
          ],
          [
            21.2893831,
            40.4848184
          ],
          [
            21.289662,
            40.4848166
          ],
          [
            21.2904759,
            40.4848113
          ],
          [
            21.2906984,
            40.4850442
          ],
          [
            21.2907228,
            40.4852421
          ],
          [
            21.2906253,
            40.4854894
          ],
          [
            21.2905334,
            40.4855759
          ],
          [
            21.2903872,
            40.4857135
          ]
        ]
      },
      "id": "location-of-neolithic-dispilio",
      "type": "Feature",
      "properties": {
        "description": "Representative location based on OpenStreetMap.",
        "location_precision": "precise",
        "title": "OSM location of Neolithic Dispilio",
        "link": "http://pleiades.stoa.org/places/471781651/location-of-neolithic-dispilio"
      }
    }
  ]
}