{
  "type": "FeatureCollection",
  "title": "Usel(l)is",
  "id": "472038",
  "bbox": [
    8.850732,
    39.809646,
    8.850732,
    39.809646
  ],
  "description": "A Roman colonia in western Sardinia.",
  "connectsWith": [
    "472014"
  ],
  "names": [
    "Usellus",
    "Usellis",
    "Uselis"
  ],
  "features": [
    {
      "type": "Feature",
      "geometry": {
        "type": "Point",
        "coordinates": [
          8.850732,
          39.809646
        ]
      },
      "properties": {
        "description": "representative point"
      }
    },
    {
      "geometry": {
        "type": "Point",
        "coordinates": [
          8.850732,
          39.809646
        ]
      },
      "id": "osm-location-of-useddus-usellus",
      "type": "Feature",
      "properties": {
        "description": "Location based on OpenStreetMap",
        "location_precision": "precise",
        "title": "OSM location of Useddus/Usellus",
        "link": "http://pleiades.stoa.org/places/472038/osm-location-of-useddus-usellus"
      }
    }
  ]
}