{
  "type": "FeatureCollection",
  "title": "Corsica/Kyrnos (island)",
  "id": "472063",
  "bbox": [
    8.5431581,
    41.3712894,
    9.53442,
    42.98429
  ],
  "description": "The island of Corsica, in the Mediterranean Sea.",
  "connectsWith": [
    "1043",
    "472127",
    "1356",
    "981548"
  ],
  "names": [
    "Corsica",
    "Kyrnos",
    "Cezīre-i Ḳorsiḳa",
    "Insula Corsica"
  ],
  "features": [
    {
      "type": "Feature",
      "geometry": {
        "type": "Point",
        "coordinates": [
          9.18684944628,
          41.9340137928
        ]
      },
      "properties": {
        "description": "representative point"
      }
    }
  ]
}