{
  "type": "FeatureCollection",
  "title": "Rhotanos (river)",
  "id": "472122",
  "bbox": [
    9.1473825,
    42.302415,
    9.1490463,
    42.3031074
  ],
  "description": "The Tavignano is a river of Corsica that flows into the Tyrrhenian Sea near Aléria.",
  "connectsWith": [
    "1356"
  ],
  "names": [
    "Rhotanos"
  ],
  "features": [
    {
      "type": "Feature",
      "geometry": {
        "type": "Point",
        "coordinates": [
          9.1481824056,
          42.3026516971
        ]
      },
      "properties": {
        "description": "representative point"
      }
    },
    {
      "geometry": {
        "type": "LineString",
        "coordinates": [
          [
            9.1473825,
            42.3031074
          ],
          [
            9.1475745,
            42.3028239
          ],
          [
            9.1478125,
            42.3025504
          ],
          [
            9.1479919,
            42.3024638
          ],
          [
            9.1483325,
            42.302415
          ],
          [
            9.1485009,
            42.3024502
          ],
          [
            9.148651,
            42.302526
          ],
          [
            9.1487133,
            42.3026073
          ],
          [
            9.1487792,
            42.3026831
          ],
          [
            9.148867,
            42.3027589
          ],
          [
            9.1490463,
            42.302931
          ]
        ]
      },
      "id": "location-of-Rhotanos-fl",
      "type": "Feature",
      "properties": {
        "description": "Location based on OpenStreetMap",
        "location_precision": "precise",
        "title": "location of Rhotanos fl.",
        "link": "http://pleiades.stoa.org/places/472122/location-of-Rhotanos-fl"
      }
    }
  ]
}