{
  "type": "FeatureCollection",
  "title": "Roman Mausoleum of Villa Gordiani",
  "id": "472526695",
  "bbox": [
    12.5549416,
    41.8949801,
    12.5552618,
    41.8952993
  ],
  "description": "The Roman Mausoleum of Villa Gordiani is a two-storey cylindrical tomb with pronaos executed in opus latericium. It fronts on the ancient via Praenestina. The rotunda has a diameter of more than 19 meters. Based on brick stamps, chronology is potentially wide and likely should be assigned anywhere in the period from Constantine I to Theodoric.",
  "connectsWith": [
    "422936"
  ],
  "features": [
    {
      "type": "Feature",
      "geometry": {
        "type": "Point",
        "coordinates": [
          12.5551100029,
          41.8951462461
        ]
      },
      "properties": {
        "description": "representative point"
      }
    },
    {
      "geometry": {
        "type": "LineString",
        "coordinates": [
          [
            12.5550266,
            41.8951035
          ],
          [
            12.554987,
            41.8951192
          ],
          [
            12.5549587,
            41.8951462
          ],
          [
            12.5549431,
            41.8951744
          ],
          [
            12.5549416,
            41.8952111
          ],
          [
            12.554959,
            41.8952523
          ],
          [
            12.5549984,
            41.8952788
          ],
          [
            12.555049,
            41.8952971
          ],
          [
            12.5551121,
            41.8952993
          ],
          [
            12.5551657,
            41.8952865
          ],
          [
            12.5552096,
            41.8952593
          ],
          [
            12.5552328,
            41.8952186
          ],
          [
            12.5552336,
            41.895171
          ],
          [
            12.555209,
            41.8951394
          ],
          [
            12.5552618,
            41.8950259
          ],
          [
            12.5550839,
            41.8949801
          ],
          [
            12.5550266,
            41.8951035
          ]
        ]
      },
      "id": "osm-location-of-mausoleo",
      "type": "Feature",
      "properties": {
        "description": "Representative location based on OpenStreetMap",
        "location_precision": "precise",
        "title": "OSM location of Mausoleo",
        "link": "http://pleiades.stoa.org/places/472526695/osm-location-of-mausoleo"
      }
    }
  ]
}