{
  "type": "FeatureCollection",
  "title": "Unnamed bridge",
  "id": "472635",
  "bbox": [
    8.8491574,
    39.8125028,
    8.8492495,
    39.8126567
  ],
  "description": "A bridge located north of Usel(l)is in western Sardinia",
  "connectsWith": [
    "472014",
    "472038"
  ],
  "features": [
    {
      "type": "Feature",
      "geometry": {
        "type": "Point",
        "coordinates": [
          8.84920345,
          39.81257975
        ]
      },
      "properties": {
        "description": "representative point"
      }
    },
    {
      "geometry": {
        "type": "LineString",
        "coordinates": [
          [
            8.8491574,
            39.8125028
          ],
          [
            8.8492495,
            39.8126567
          ]
        ]
      },
      "id": "osm-location-of-usellus-ponte-romano-rio-su",
      "type": "Feature",
      "properties": {
        "description": "Representative location based on OpenStreetMap",
        "location_precision": "precise",
        "title": "OSM location of Usellus - ponte romano, rio su forraxi",
        "link": "http://pleiades.stoa.org/places/472635/osm-location-of-usellus-ponte-romano-rio-su"
      }
    }
  ]
}