{
  "type": "FeatureCollection",
  "title": "Gird-I Matrab",
  "id": "473155335",
  "bbox": [
    43.916852,
    35.937044,
    43.916852,
    35.937044
  ],
  "description": "Gird-I Matrab is a multi-period settlement site located in Iraqi Kurdistan. The site was first settled during the fifth millennium BCE and, through various phases, shows evidence for human activity across more than six millennia.",
  "names": [
    "Gird-I Matrab"
  ],
  "features": [
    {
      "type": "Feature",
      "geometry": {
        "type": "Point",
        "coordinates": [
          43.916852,
          35.937044
        ]
      },
      "properties": {
        "description": "representative point"
      }
    },
    {
      "geometry": {
        "type": "Point",
        "coordinates": [
          43.916852,
          35.937044
        ]
      },
      "id": "imagery-location",
      "type": "Feature",
      "properties": {
        "description": "Coordinates following GeoHack",
        "location_precision": "precise",
        "title": "Imagery location",
        "link": "http://pleiades.stoa.org/places/473155335/imagery-location"
      }
    }
  ]
}