{
  "type": "FeatureCollection",
  "title": "Sousaleos Kome",
  "id": "474937",
  "bbox": [
    9.5698392,
    39.1729418,
    9.5698392,
    39.1729418
  ],
  "description": "An ancient place, cited: BAtlas 48 unlocated Sousaleos Kome",
  "names": [
    "Sousaleos Kome",
    "Cala Pira"
  ],
  "features": [
    {
      "type": "Feature",
      "geometry": {
        "type": "Point",
        "coordinates": [
          9.5698392,
          39.1729418
        ]
      },
      "properties": {
        "description": "representative point"
      }
    },
    {
      "geometry": {
        "type": "Point",
        "coordinates": [
          9.5698392,
          39.1729418
        ]
      },
      "id": "osm-location-of-cala-pira",
      "type": "Feature",
      "properties": {
        "description": "Location based on OpenStreetMap",
        "location_precision": "precise",
        "title": "OSM location of Cala Pira",
        "link": "http://pleiades.stoa.org/places/474937/osm-location-of-cala-pira"
      }
    }
  ]
}