{
  "type": "FeatureCollection",
  "title": "Roman Odeon of Gortyn",
  "id": "481346137",
  "bbox": [
    24.9465988,
    35.0630972,
    24.9465988,
    35.0630972
  ],
  "description": "The Roman Odeon of Gortyn dates to the first century.",
  "connectsWith": [
    "589796"
  ],
  "features": [
    {
      "type": "Feature",
      "geometry": {
        "type": "Point",
        "coordinates": [
          24.9465988,
          35.0630972
        ]
      },
      "properties": {
        "description": "representative point"
      }
    },
    {
      "geometry": {
        "type": "LineString",
        "coordinates": [
          [
            24.9466095,
            35.0630851
          ],
          [
            24.9471127,
            35.0628726
          ],
          [
            24.947178,
            35.0629625
          ],
          [
            24.9471955,
            35.063023
          ],
          [
            24.947197,
            35.0630959
          ],
          [
            24.9471553,
            35.063179
          ],
          [
            24.9469221,
            35.0632855
          ],
          [
            24.9468605,
            35.0633137
          ],
          [
            24.9467145,
            35.0632171
          ],
          [
            24.946662,
            35.0631535
          ],
          [
            24.9466095,
            35.0630851
          ]
        ]
      },
      "id": "location-of-odeion",
      "type": "Feature",
      "properties": {
        "description": "Representative location based on OpenStreetMap",
        "location_precision": "precise",
        "title": "OSM location of Odeion",
        "link": "http://pleiades.stoa.org/places/481346137/location-of-odeion"
      }
    }
  ]
}