{
  "type": "FeatureCollection",
  "title": "Ad Quintum",
  "id": "481701",
  "bbox": [
    20.0153229,
    41.0941789,
    20.0153229,
    41.0941789
  ],
  "description": "An ancient place, cited: BAtlas 49 B2 Ad Quintum",
  "names": [
    "Ad Quintum"
  ],
  "features": [
    {
      "type": "Feature",
      "geometry": {
        "type": "Point",
        "coordinates": [
          20.0153229,
          41.0941789
        ]
      },
      "properties": {
        "description": "representative point"
      }
    },
    {
      "geometry": {
        "type": "Point",
        "coordinates": [
          20.0153229,
          41.0941789
        ]
      },
      "id": "osm-location-of-ad-quintum",
      "type": "Feature",
      "properties": {
        "description": "Representative location based on OpenStreetMap",
        "location_precision": "precise",
        "title": "OSM location of Ad Quintum",
        "link": "http://pleiades.stoa.org/places/481701/osm-location-of-ad-quintum"
      }
    }
  ]
}