{
  "type": "FeatureCollection",
  "title": "Selcë e Poshtme",
  "id": "481988",
  "bbox": [
    20.5251827,
    40.9920138,
    20.5251827,
    40.9920138
  ],
  "description": "An ancient place, cited: BAtlas 49 C2 Selcë e Poshtme",
  "names": [
    "Selcë e Poshtme"
  ],
  "features": [
    {
      "type": "Feature",
      "geometry": {
        "type": "Point",
        "coordinates": [
          20.5251827,
          40.9920138
        ]
      },
      "properties": {
        "description": "representative point"
      }
    },
    {
      "geometry": {
        "type": "Point",
        "coordinates": [
          20.5251827,
          40.9920138
        ]
      },
      "id": "osm-location-of-selca-e-poshtme",
      "type": "Feature",
      "properties": {
        "description": "Location based on OpenStreetMap",
        "location_precision": "precise",
        "title": "OSM location of Selcë e Poshtme",
        "link": "http://pleiades.stoa.org/places/481988/osm-location-of-selca-e-poshtme"
      }
    }
  ]
}