{
  "type": "FeatureCollection",
  "title": "Jewry Wall",
  "id": "484576343",
  "bbox": [
    -1.1411717,
    52.6349682,
    -1.1409934,
    52.6351654
  ],
  "description": "The so-called \"Jewry Wall\" is a substantial segment of surviving Roman masonry at Ratae.",
  "connectsWith": [
    "79651"
  ],
  "features": [
    {
      "type": "Feature",
      "geometry": {
        "type": "Point",
        "coordinates": [
          -1.14108255,
          52.6350668
        ]
      },
      "properties": {
        "description": "representative point"
      }
    },
    {
      "geometry": {
        "type": "LineString",
        "coordinates": [
          [
            -1.1411717,
            52.6351563
          ],
          [
            -1.1410251,
            52.6349682
          ],
          [
            -1.1409934,
            52.6349773
          ],
          [
            -1.14114,
            52.6351654
          ],
          [
            -1.1411717,
            52.6351563
          ]
        ]
      },
      "id": "osm-location-of-jewry-wall",
      "type": "Feature",
      "properties": {
        "description": "Location based on OpenStreetMap",
        "location_precision": "precise",
        "title": "OSM location of Jewry Wall",
        "link": "http://pleiades.stoa.org/places/484576343/osm-location-of-jewry-wall"
      }
    }
  ]
}