{
  "type": "FeatureCollection",
  "title": "Portone necropolis at Volaterrae",
  "id": "484892186",
  "bbox": [
    10.8645935,
    43.4143629,
    10.8645935,
    43.4143629
  ],
  "description": "The so-called Portone necropolis is a major Hellenistic necropolis outside the walls of Volaterrae.",
  "connectsWith": [
    "403292"
  ],
  "names": [
    "Marmini necropolis"
  ],
  "features": [
    {
      "type": "Feature",
      "geometry": {
        "type": "Point",
        "coordinates": [
          10.8645935,
          43.4143629
        ]
      },
      "properties": {
        "description": "representative point"
      }
    },
    {
      "geometry": {
        "type": "Point",
        "coordinates": [
          10.8645935,
          43.4143629
        ]
      },
      "id": "osm-location-of-necropoli-etrusca-dei-marmini",
      "type": "Feature",
      "properties": {
        "description": "Representative location based on OpenStreetMap",
        "location_precision": "precise",
        "title": "OSM location of Necropoli etrusca dei Marmini",
        "link": "http://pleiades.stoa.org/places/484892186/osm-location-of-necropoli-etrusca-dei-marmini"
      }
    }
  ]
}