{
  "type": "FeatureCollection",
  "title": "Fossa Traiana",
  "id": "486975583",
  "bbox": [
    12.2231012,
    41.7709232,
    12.2231012,
    41.7709232
  ],
  "description": "The Fossa Traiana (Channel of Trajan) describes a canal of ca. 45 m width connected with the artificial harbors at Portus. Despite the name, its origins may lie in the Claudian harbor works. The cutting of the channel created an artificial island between Ostia and Portus, the so-called Isola Sacra.",
  "connectsWith": [
    "423080"
  ],
  "names": [
    "Fiumicino"
  ],
  "features": [
    {
      "type": "Feature",
      "geometry": {
        "type": "Point",
        "coordinates": [
          12.2231012,
          41.7709232
        ]
      },
      "properties": {
        "description": "representative point"
      }
    },
    {
      "geometry": {
        "type": "LineString",
        "coordinates": [
          [
            12.2549966,
            41.773757
          ],
          [
            12.2512429,
            41.7720966
          ],
          [
            12.2478376,
            41.7704495
          ],
          [
            12.2467047,
            41.7700014
          ],
          [
            12.245503,
            41.7698094
          ],
          [
            12.2439581,
            41.769899
          ],
          [
            12.2418295,
            41.7704495
          ],
          [
            12.2401772,
            41.7713289
          ],
          [
            12.2397008,
            41.7715478
          ],
          [
            12.2392073,
            41.7716318
          ],
          [
            12.2384402,
            41.7717038
          ],
          [
            12.2370058,
            41.7716914
          ],
          [
            12.2352569,
            41.7715141
          ],
          [
            12.2338043,
            41.7712945
          ],
          [
            12.2307401,
            41.7710897
          ],
          [
            12.2277361,
            41.7708784
          ],
          [
            12.2231012,
            41.7709232
          ],
          [
            12.220957,
            41.7712361
          ]
        ]
      },
      "id": "osm-location",
      "type": "Feature",
      "properties": {
        "description": "Location based on OpenStreetMap",
        "location_precision": "precise",
        "title": "OSM location",
        "link": "http://pleiades.stoa.org/places/486975583/osm-location"
      }
    }
  ]
}