{
  "type": "FeatureCollection",
  "title": "Torre de Urkulu",
  "id": "487048968",
  "bbox": [
    -1.2412113,
    43.0455606,
    -1.2409872,
    43.0457251
  ],
  "description": "A Roman tower monument atop mount Urkulu.",
  "features": [
    {
      "type": "Feature",
      "geometry": {
        "type": "Point",
        "coordinates": [
          -1.24109888024,
          43.045643103
        ]
      },
      "properties": {
        "description": "representative point"
      }
    },
    {
      "geometry": {
        "type": "LineString",
        "coordinates": [
          [
            -1.2410998,
            43.0455606
          ],
          [
            -1.2410616,
            43.0455652
          ],
          [
            -1.2410277,
            43.045579
          ],
          [
            -1.2410023,
            43.0456004
          ],
          [
            -1.2409882,
            43.0456268
          ],
          [
            -1.2409872,
            43.0456551
          ],
          [
            -1.2409993,
            43.045682
          ],
          [
            -1.2410232,
            43.0457042
          ],
          [
            -1.2410532,
            43.0457185
          ],
          [
            -1.2410877,
            43.0457251
          ],
          [
            -1.2411233,
            43.0457236
          ],
          [
            -1.2411565,
            43.045714
          ],
          [
            -1.2411839,
            43.0456972
          ],
          [
            -1.2412028,
            43.0456751
          ],
          [
            -1.2412113,
            43.0456497
          ],
          [
            -1.2412085,
            43.0456238
          ],
          [
            -1.2411948,
            43.0455997
          ],
          [
            -1.2411714,
            43.0455799
          ],
          [
            -1.2411379,
            43.0455657
          ],
          [
            -1.2410998,
            43.0455606
          ]
        ]
      },
      "id": "osm-location",
      "type": "Feature",
      "properties": {
        "description": "Representative location based on OpenStreetMap",
        "location_precision": "precise",
        "title": "OSM location of Urkuluko dorrea",
        "link": "http://pleiades.stoa.org/places/487048968/osm-location"
      }
    }
  ]
}