{
  "type": "FeatureCollection",
  "title": "Snettisham",
  "id": "487909247",
  "bbox": [
    0.5018936,
    52.8763478,
    0.5018936,
    52.8763478
  ],
  "description": "Snettisham is a village and civil parish located in the county of Norfolk in England. It has been the site of numerous archaeological finds, including notable Iron Age and Roman hoards. It is probable that it was a locus of settlement, including perhaps a villa, during the time of the Roman Empire.",
  "features": [
    {
      "type": "Feature",
      "geometry": {
        "type": "Point",
        "coordinates": [
          0.5018936,
          52.8763478
        ]
      },
      "properties": {
        "description": "representative point"
      }
    },
    {
      "geometry": {
        "type": "Point",
        "coordinates": [
          0.5018936,
          52.8763478
        ]
      },
      "id": "osm-location-of-snettisham",
      "type": "Feature",
      "properties": {
        "description": "Location based on OpenStreetMap",
        "location_precision": "precise",
        "title": "OSM location of Snettisham",
        "link": "http://pleiades.stoa.org/places/487909247/osm-location-of-snettisham"
      }
    }
  ]
}