{
  "type": "FeatureCollection",
  "title": "Alcalar megaliths",
  "id": "490324372",
  "bbox": [
    -8.5892659,
    37.1978821,
    -8.5869356,
    37.1997486
  ],
  "description": "A Calcolithic necropolis comprised of megalithic monuments located near Portimão, Portugal.",
  "features": [
    {
      "type": "Feature",
      "geometry": {
        "type": "Point",
        "coordinates": [
          -8.5880762367,
          37.1988852418
        ]
      },
      "properties": {
        "description": "representative point"
      }
    },
    {
      "geometry": {
        "type": "LineString",
        "coordinates": [
          [
            -8.5892208,
            37.1978821
          ],
          [
            -8.5888333,
            37.1980289
          ],
          [
            -8.5888235,
            37.1980235
          ],
          [
            -8.5888036,
            37.1980125
          ],
          [
            -8.5887683,
            37.197993
          ],
          [
            -8.5877963,
            37.1989696
          ],
          [
            -8.5874693,
            37.1988113
          ],
          [
            -8.5873968,
            37.1992895
          ],
          [
            -8.5869365,
            37.1993993
          ],
          [
            -8.586936,
            37.1995539
          ],
          [
            -8.5869356,
            37.1996533
          ],
          [
            -8.5878801,
            37.1997486
          ],
          [
            -8.5879366,
            37.1995264
          ],
          [
            -8.5879725,
            37.1993853
          ],
          [
            -8.5883022,
            37.1992771
          ],
          [
            -8.5883827,
            37.1988026
          ],
          [
            -8.5892659,
            37.1979152
          ],
          [
            -8.5892208,
            37.1978821
          ]
        ]
      },
      "id": "location-of-alcalar-megaliths",
      "type": "Feature",
      "properties": {
        "description": "Location based on OpenStreetMap",
        "location_precision": "precise",
        "title": "OSM location of Alcalar megaliths",
        "link": "http://pleiades.stoa.org/places/490324372/location-of-alcalar-megaliths"
      }
    }
  ]
}