{
  "type": "FeatureCollection",
  "title": "Erigon (river)",
  "id": "491592",
  "bbox": [
    20.8369638,
    40.5121719,
    22.7163066,
    42.1032514
  ],
  "description": "The Erigon is the largest tributary of the Axius river in Macedonia.",
  "connectsWith": [
    "491534"
  ],
  "names": [
    "Erigon"
  ],
  "features": [
    {
      "type": "Feature",
      "geometry": {
        "type": "Point",
        "coordinates": [
          21.8248081542,
          41.4091234247
        ]
      },
      "properties": {
        "description": "representative point"
      }
    },
    {
      "geometry": {
        "type": "Polygon",
        "coordinates": [
          [
            [
              21.5,
              41.0
            ],
            [
              21.5,
              41.5
            ],
            [
              22.0,
              41.5
            ],
            [
              22.0,
              41.0
            ],
            [
              21.5,
              41.0
            ]
          ]
        ]
      },
      "id": "batlas-location",
      "type": "Feature",
      "properties": {
        "description": null,
        "location_precision": "rough",
        "title": "Barrington Atlas location",
        "link": "http://pleiades.stoa.org/places/491592/batlas-location"
      }
    }
  ]
}