{
  "type": "FeatureCollection",
  "title": "Bragylai",
  "id": "491555",
  "bbox": [
    22.851025,
    41.001146,
    22.851025,
    41.001146
  ],
  "description": "An ancient place, cited: BAtlas 50 C2 Bragylai",
  "names": [
    "Bragylai",
    "Bragylos"
  ],
  "features": [
    {
      "type": "Feature",
      "geometry": {
        "type": "Point",
        "coordinates": [
          22.851025,
          41.001146
        ]
      },
      "properties": {
        "description": "representative point"
      }
    },
    {
      "geometry": {
        "type": "Point",
        "coordinates": [
          22.851025,
          41.001146
        ]
      },
      "id": "darmc-location-11825",
      "type": "Feature",
      "properties": {
        "description": "1:500,000 scale representative point location digitized from the Barrington Atlas of the Greek and Roman World by the Digital Atlas of Roman and Medieval Civilizations project at Harvard University.",
        "location_precision": "precise",
        "title": "DARMC location 11825",
        "link": "http://pleiades.stoa.org/places/491555/darmc-location-11825"
      }
    }
  ]
}