{
  "type": "FeatureCollection",
  "title": "Paionia",
  "id": "491680",
  "bbox": [
    21.3011359001,
    41.4601501578,
    22.3718933527,
    41.9146272099
  ],
  "description": "An ancient place, cited: BAtlas 50 A1 Paionia",
  "names": [
    "Paionia",
    "Paiones"
  ],
  "features": [
    {
      "type": "Feature",
      "geometry": {
        "type": "Point",
        "coordinates": [
          21.8486072875,
          41.7147769788
        ]
      },
      "properties": {
        "description": "representative point"
      }
    },
    {
      "geometry": {
        "type": "MultiLineString",
        "coordinates": [
          [
            [
              21.301135900111774,
              41.91462720991077
            ],
            [
              21.543840922706462,
              41.84086391873003
            ],
            [
              21.705644271102923,
              41.78732604609885
            ],
            [
              21.871016811008126,
              41.724270329444344
            ],
            [
              22.0340098899075,
              41.648127577257775
            ],
            [
              22.188674855286468,
              41.574364286077035
            ],
            [
              22.371893352735402,
              41.46015015779718
            ]
          ]
        ]
      },
      "id": "batlas-map-label-location",
      "type": "Feature",
      "properties": {
        "description": "Centerline/arc of label location used on the Barrington Atlas map for this feature",
        "location_precision": "precise",
        "title": "BAtlas Map Label Location",
        "link": "http://pleiades.stoa.org/places/491680/batlas-map-label-location"
      }
    }
  ]
}