{
  "type": "FeatureCollection",
  "title": "Gortynia",
  "id": "491605",
  "bbox": [
    22.514174,
    41.151379,
    22.514174,
    41.151379
  ],
  "description": "An ancient place, cited: BAtlas 50 C2 Gortynia",
  "names": [
    "Gortynia",
    "Gordynia",
    "Gordiniae",
    "Gordinia"
  ],
  "features": [
    {
      "type": "Feature",
      "geometry": {
        "type": "Point",
        "coordinates": [
          22.514174,
          41.151379
        ]
      },
      "properties": {
        "description": "representative point"
      }
    },
    {
      "geometry": {
        "type": "Point",
        "coordinates": [
          22.514174,
          41.151379
        ]
      },
      "id": "darmc-location-10057",
      "type": "Feature",
      "properties": {
        "description": "1:500,000 scale representative point location digitized from the Barrington Atlas of the Greek and Roman World by the Digital Atlas of Roman and Medieval Civilizations project at Harvard University.",
        "location_precision": "precise",
        "title": "DARMC location 10057",
        "link": "http://pleiades.stoa.org/places/491605/darmc-location-10057"
      }
    }
  ]
}