{
  "type": "FeatureCollection",
  "title": "Phakos",
  "id": "491694",
  "bbox": [
    22.504667,
    40.755214,
    22.504667,
    40.755214
  ],
  "description": "An ancient place, cited: BAtlas 50 C3 Phakos",
  "names": [
    "Phakos"
  ],
  "features": [
    {
      "type": "Feature",
      "geometry": {
        "type": "Point",
        "coordinates": [
          22.504667,
          40.755214
        ]
      },
      "properties": {
        "description": "representative point"
      }
    },
    {
      "geometry": {
        "type": "Point",
        "coordinates": [
          22.504667,
          40.755214
        ]
      },
      "id": "darmc-location-14218",
      "type": "Feature",
      "properties": {
        "description": "1:500,000 scale representative point location digitized from the Barrington Atlas of the Greek and Roman World by the Digital Atlas of Roman and Medieval Civilizations project at Harvard University.",
        "location_precision": "precise",
        "title": "DARMC location 14218",
        "link": "http://pleiades.stoa.org/places/491694/darmc-location-14218"
      }
    }
  ]
}