{
  "type": "FeatureCollection",
  "title": "Sintike",
  "id": "491720",
  "bbox": [
    22.89088949,
    41.3616404722,
    23.5143082735,
    41.5936379202
  ],
  "description": "An ancient place, cited: BAtlas 50 D1 Sintike",
  "names": [
    "Sintike",
    "Sintes",
    "Sintoi"
  ],
  "features": [
    {
      "type": "Feature",
      "geometry": {
        "type": "Point",
        "coordinates": [
          23.1991291438,
          41.4686759598
        ]
      },
      "properties": {
        "description": "representative point"
      }
    },
    {
      "geometry": {
        "type": "MultiLineString",
        "coordinates": [
          [
            [
              22.890889490022087,
              41.59363792022425
            ],
            [
              22.9943960437757,
              41.54366923910182
            ],
            [
              23.083625831494338,
              41.50559786300853
            ],
            [
              23.182373463236296,
              41.46990594792108
            ],
            [
              23.272792981457847,
              41.43897295484528
            ],
            [
              23.35964330817065,
              41.409229692272405
            ],
            [
              23.51430827354962,
              41.3616404721558
            ]
          ]
        ]
      },
      "id": "batlas-map-label-location",
      "type": "Feature",
      "properties": {
        "description": "Centerline/arc of label location used on the Barrington Atlas map for this feature",
        "location_precision": "precise",
        "title": "BAtlas Map Label Location",
        "link": "http://pleiades.stoa.org/places/491720/batlas-map-label-location"
      }
    }
  ]
}