{
  "type": "FeatureCollection",
  "title": "Nuraghe Cuccuru Ibba",
  "id": "492787885",
  "bbox": [
    9.0233813,
    39.1893564,
    9.0239466,
    39.1897935
  ],
  "description": "A pre-nuragic village of the Ozieri culture and later nuraghe located in the Laguna di Santa Gilla.",
  "connectsWith": [
    "472014"
  ],
  "features": [
    {
      "type": "Feature",
      "geometry": {
        "type": "Point",
        "coordinates": [
          9.0236646366,
          39.1895756293
        ]
      },
      "properties": {
        "description": "representative point"
      }
    },
    {
      "geometry": {
        "type": "LineString",
        "coordinates": [
          [
            9.0236782,
            39.1893564
          ],
          [
            9.0237676,
            39.1893711
          ],
          [
            9.0238463,
            39.1894072
          ],
          [
            9.023906,
            39.1894608
          ],
          [
            9.0239407,
            39.1895263
          ],
          [
            9.0239466,
            39.189597
          ],
          [
            9.0239217,
            39.189668
          ],
          [
            9.0238679,
            39.1897287
          ],
          [
            9.0237913,
            39.1897721
          ],
          [
            9.0237004,
            39.1897935
          ],
          [
            9.0236055,
            39.1897905
          ],
          [
            9.0235173,
            39.1897633
          ],
          [
            9.0234456,
            39.189715
          ],
          [
            9.0233985,
            39.1896511
          ],
          [
            9.0233813,
            39.1895787
          ],
          [
            9.023396,
            39.189506
          ],
          [
            9.0234386,
            39.1894433
          ],
          [
            9.0235047,
            39.1893944
          ],
          [
            9.0235875,
            39.1893644
          ],
          [
            9.0236782,
            39.1893564
          ]
        ]
      },
      "id": "osm-location-of-nuraghe-cuccuru-ibba",
      "type": "Feature",
      "properties": {
        "description": "Location based on OpenStreetMap",
        "location_precision": "precise",
        "title": "OSM location of Nuraghe Cuccuru Ibba",
        "link": "http://pleiades.stoa.org/places/492787885/osm-location-of-nuraghe-cuccuru-ibba"
      }
    }
  ]
}