{
  "type": "FeatureCollection",
  "title": "Kissynioi",
  "id": "494582",
  "bbox": [
    22.589114348,
    40.7186208786,
    22.7233159487,
    41.1197980042
  ],
  "description": "An ancient place, cited: BAtlas 50 unlocated Kissynioi",
  "connectsWith": [
    "491520"
  ],
  "names": [
    "Kissynioi"
  ],
  "features": [
    {
      "type": "Feature",
      "geometry": {
        "type": "Point",
        "coordinates": [
          22.6586254473,
          40.9298346167
        ]
      },
      "properties": {
        "description": "representative point"
      }
    }
  ]
}