{
  "type": "FeatureCollection",
  "title": "Poggio Murella",
  "id": "497311598",
  "bbox": [
    11.547581,
    42.6656055,
    11.5480059,
    42.6659303
  ],
  "description": "A large, rectangular cistern (Castellum aquarum) located near Poggio Murella was built in opus reticulatum.",
  "features": [
    {
      "type": "Feature",
      "geometry": {
        "type": "Point",
        "coordinates": [
          11.54779345,
          42.6657679
        ]
      },
      "properties": {
        "description": "representative point"
      }
    },
    {
      "geometry": {
        "type": "LineString",
        "coordinates": [
          [
            11.5478673,
            42.6656055
          ],
          [
            11.547581,
            42.6658379
          ],
          [
            11.5477196,
            42.6659303
          ],
          [
            11.5480059,
            42.6656979
          ],
          [
            11.5478673,
            42.6656055
          ]
        ]
      },
      "id": "osm-location-of-castellum-aquarum",
      "type": "Feature",
      "properties": {
        "description": "Representative location based on OpenStreetMap",
        "location_precision": "precise",
        "title": "OSM location of Castellum Aquarum",
        "link": "http://pleiades.stoa.org/places/497311598/osm-location-of-castellum-aquarum"
      }
    }
  ]
}