{
  "type": "FeatureCollection",
  "title": "Alosygni",
  "id": "49854",
  "bbox": [
    82.0256534,
    16.6303373,
    82.0256534,
    16.6303373
  ],
  "description": "An ancient \"emporion\" listed by Ptolemy on the east coast of India. He also remarks that it is the \"aphoterion\" (point of departure) for those sailing out to the Chryse Chersonnesos. BAtlas tentatively identifies it with modern Vilasa in the Ghodivari river delta in the east Indian state of Andhra Pradesh.",
  "names": [
    "Alosygni"
  ],
  "features": [
    {
      "type": "Feature",
      "geometry": {
        "type": "Point",
        "coordinates": [
          82.0256534,
          16.6303373
        ]
      },
      "properties": {
        "description": "representative point"
      }
    },
    {
      "geometry": {
        "type": "Point",
        "coordinates": [
          82.0256534,
          16.6303373
        ]
      },
      "id": "osm-location-modern-vilasa",
      "type": "Feature",
      "properties": {
        "description": "Location based on OpenStreetMap",
        "location_precision": "precise",
        "title": "OSM Location: modern Vilasa",
        "link": "http://pleiades.stoa.org/places/49854/osm-location-modern-vilasa"
      }
    }
  ]
}