{
  "type": "FeatureCollection",
  "title": "Kaveripumpattinam/Poombuhar",
  "id": "49939",
  "bbox": [
    79.8537308,
    11.025067,
    79.85456,
    11.1452914
  ],
  "description": "This ancient settlement and seaport was located on the southeastern coast of peninsular India in the vicinity of the modern village of Poompuhar/Poombuhar. Excavations (including a wood-then-brick-built wharf carbon-dated to ca. 250 BCE), as well as epigraphic and literary evidence, demonstrate a thriving seaborne trade and Buddhist religious center through to the 7th century CE. The place was known to the Romans as Chaberis (Ptolemy) and Kamara (PME).",
  "names": [
    "Chaberis Emporion",
    "Kamara",
    "Kaveripattinam",
    "Pumpuhar",
    "Kaveripumpattinam",
    "Pukar",
    "Pūmpukar",
    "Campapati"
  ],
  "features": [
    {
      "type": "Feature",
      "geometry": {
        "type": "Point",
        "coordinates": [
          79.8541454,
          11.0851792
        ]
      },
      "properties": {
        "description": "representative point"
      }
    },
    {
      "geometry": {
        "type": "Point",
        "coordinates": [
          79.85456,
          11.025067
        ]
      },
      "id": "darmc-location-20158",
      "type": "Feature",
      "properties": {
        "description": "5M scale representative point location digitized from the Barrington Atlas of the Greek and Roman World by the Digital Atlas of Roman and Medieval Civilizations project at Harvard University.",
        "location_precision": "precise",
        "title": "DARMC location 20158",
        "link": "http://pleiades.stoa.org/places/49939/darmc-location-20158"
      }
    },
    {
      "geometry": {
        "type": "Point",
        "coordinates": [
          79.8537308,
          11.1452914
        ]
      },
      "id": "osm-location-modern-poompuhar",
      "type": "Feature",
      "properties": {
        "description": "Location based on OpenStreetMap",
        "location_precision": "precise",
        "title": "OSM Location: modern Poompuhar",
        "link": "http://pleiades.stoa.org/places/49939/osm-location-modern-poompuhar"
      }
    }
  ]
}