{
  "type": "FeatureCollection",
  "title": "Rochemaure milestone",
  "id": "500136301",
  "bbox": [
    4.701305,
    44.587724,
    4.701595,
    44.587886
  ],
  "description": "A Roman milestone of the second century A.D.",
  "features": [
    {
      "type": "Feature",
      "geometry": {
        "type": "Point",
        "coordinates": [
          4.70145191315,
          44.5878023365
        ]
      },
      "properties": {
        "description": "representative point"
      }
    },
    {
      "geometry": {
        "type": "LineString",
        "coordinates": [
          [
            4.701305,
            44.587735
          ],
          [
            4.7014,
            44.58773
          ],
          [
            4.701399,
            44.587738
          ],
          [
            4.701454,
            44.587736
          ],
          [
            4.701456,
            44.587726
          ],
          [
            4.701475,
            44.587724
          ],
          [
            4.701478,
            44.58773
          ],
          [
            4.701561,
            44.58774
          ],
          [
            4.701595,
            44.587756
          ],
          [
            4.701578,
            44.587775
          ],
          [
            4.701584,
            44.587847
          ],
          [
            4.701556,
            44.587848
          ],
          [
            4.701556,
            44.587885
          ],
          [
            4.701494,
            44.587886
          ],
          [
            4.701492,
            44.587866
          ],
          [
            4.701417,
            44.587866
          ],
          [
            4.701417,
            44.587872
          ],
          [
            4.701336,
            44.587874
          ],
          [
            4.701305,
            44.587735
          ]
        ]
      },
      "id": "osm-location",
      "type": "Feature",
      "properties": {
        "description": "Representative location based on OpenStreetMap.",
        "location_precision": "precise",
        "title": "OSM location of Roman milestone",
        "link": "http://pleiades.stoa.org/places/500136301/osm-location"
      }
    }
  ]
}