{
  "type": "FeatureCollection",
  "title": "Kalpitiya",
  "id": "50028",
  "bbox": [
    79.7661508,
    8.2368062,
    79.7661508,
    8.2368062
  ],
  "description": "A modern settlement located in the Puttalam district of Sri Lanka's North Western province. In the early 20th century, Roman bronze coins of the 4th and 5th centuries CE were reported to have been found in the vicinity.",
  "connectsWith": [
    "50298"
  ],
  "names": [
    "Kalpiṭiya",
    "Kalpitiya",
    "Kaṟpiṭṭi"
  ],
  "features": [
    {
      "type": "Feature",
      "geometry": {
        "type": "Point",
        "coordinates": [
          79.7661508,
          8.2368062
        ]
      },
      "properties": {
        "description": "representative point"
      }
    },
    {
      "geometry": {
        "type": "Point",
        "coordinates": [
          79.7661508,
          8.2368062
        ]
      },
      "id": "osm-location-modern-kalpitiya",
      "type": "Feature",
      "properties": {
        "description": "Location based on OpenStreetMap",
        "location_precision": "precise",
        "title": "OSM Location: modern Kalpitiya",
        "link": "http://pleiades.stoa.org/places/50028/osm-location-modern-kalpitiya"
      }
    }
  ]
}