{
  "type": "FeatureCollection",
  "title": "Aigospotamos",
  "id": "501336",
  "bbox": [
    26.599366,
    40.331504,
    26.599366,
    40.331504
  ],
  "description": "An ancient place, cited: BAtlas 51 H4 Aigospotamos",
  "names": [
    "Aigospotamos"
  ],
  "features": [
    {
      "type": "Feature",
      "geometry": {
        "type": "Point",
        "coordinates": [
          26.599366,
          40.331504
        ]
      },
      "properties": {
        "description": "representative point"
      }
    },
    {
      "geometry": {
        "type": "Point",
        "coordinates": [
          26.599366,
          40.331504
        ]
      },
      "id": "darmc-location-9936",
      "type": "Feature",
      "properties": {
        "description": "1:500,000 scale representative point location digitized from the Barrington Atlas of the Greek and Roman World by the Digital Atlas of Roman and Medieval Civilizations project at Harvard University.",
        "location_precision": "precise",
        "title": "DARMC location 9936",
        "link": "http://pleiades.stoa.org/places/501336/darmc-location-9936"
      }
    }
  ]
}