{
  "type": "FeatureCollection",
  "title": "Ag. Athanasios",
  "id": "501328",
  "bbox": [
    24.24294,
    41.08161,
    24.24294,
    41.08161
  ],
  "description": "An ancient place, cited: BAtlas 51 C2 Ag. Athanasios",
  "features": [
    {
      "type": "Feature",
      "geometry": {
        "type": "Point",
        "coordinates": [
          24.24294,
          41.08161
        ]
      },
      "properties": {
        "description": "representative point"
      }
    },
    {
      "geometry": {
        "type": "Point",
        "coordinates": [
          24.24294,
          41.08161
        ]
      },
      "id": "darmc-location-1794",
      "type": "Feature",
      "properties": {
        "description": "1:500,000 scale representative point location digitized from the Barrington Atlas of the Greek and Roman World by the Digital Atlas of Roman and Medieval Civilizations project at Harvard University.",
        "location_precision": "precise",
        "title": "DARMC location 1794",
        "link": "http://pleiades.stoa.org/places/501328/darmc-location-1794"
      }
    }
  ]
}