{
  "type": "FeatureCollection",
  "title": "Kharitomeni",
  "id": "501466",
  "bbox": [
    23.831364,
    41.168876,
    23.831364,
    41.168876
  ],
  "description": "An ancient place, cited: BAtlas 51 B2 Kharitomeni",
  "names": [
    "Kharitomeni"
  ],
  "features": [
    {
      "type": "Feature",
      "geometry": {
        "type": "Point",
        "coordinates": [
          23.831364,
          41.168876
        ]
      },
      "properties": {
        "description": "representative point"
      }
    },
    {
      "geometry": {
        "type": "Point",
        "coordinates": [
          23.831364,
          41.168876
        ]
      },
      "id": "darmc-location-13151",
      "type": "Feature",
      "properties": {
        "description": "1:500,000 scale representative point location digitized from the Barrington Atlas of the Greek and Roman World by the Digital Atlas of Roman and Medieval Civilizations project at Harvard University.",
        "location_precision": "precise",
        "title": "DARMC location 13151",
        "link": "http://pleiades.stoa.org/places/501466/darmc-location-13151"
      }
    }
  ]
}