{
  "type": "FeatureCollection",
  "title": "Linos",
  "id": "501498",
  "bbox": [
    25.260949,
    41.14356,
    25.260949,
    41.14356
  ],
  "description": "An ancient place, cited: BAtlas 51 E2 Linos",
  "features": [
    {
      "type": "Feature",
      "geometry": {
        "type": "Point",
        "coordinates": [
          25.260949,
          41.14356
        ]
      },
      "properties": {
        "description": "representative point"
      }
    },
    {
      "geometry": {
        "type": "Point",
        "coordinates": [
          25.260949,
          41.14356
        ]
      },
      "id": "darmc-location-13506",
      "type": "Feature",
      "properties": {
        "description": "1:500,000 scale representative point location digitized from the Barrington Atlas of the Greek and Roman World by the Digital Atlas of Roman and Medieval Civilizations project at Harvard University.",
        "location_precision": "precise",
        "title": "DARMC location 13506",
        "link": "http://pleiades.stoa.org/places/501498/darmc-location-13506"
      }
    }
  ]
}