{
  "type": "FeatureCollection",
  "title": "Oraion",
  "id": "501538",
  "bbox": [
    24.83293,
    41.276691,
    24.83293,
    41.276691
  ],
  "description": "An ancient place, cited: BAtlas 51 D2 Oraion",
  "features": [
    {
      "type": "Feature",
      "geometry": {
        "type": "Point",
        "coordinates": [
          24.83293,
          41.276691
        ]
      },
      "properties": {
        "description": "representative point"
      }
    },
    {
      "geometry": {
        "type": "Point",
        "coordinates": [
          24.83293,
          41.276691
        ]
      },
      "id": "darmc-location-14028",
      "type": "Feature",
      "properties": {
        "description": "1:500,000 scale representative point location digitized from the Barrington Atlas of the Greek and Roman World by the Digital Atlas of Roman and Medieval Civilizations project at Harvard University.",
        "location_precision": "precise",
        "title": "DARMC location 14028",
        "link": "http://pleiades.stoa.org/places/501538/darmc-location-14028"
      }
    }
  ]
}