{
  "type": "FeatureCollection",
  "title": "Rhodios (river)",
  "id": "501590",
  "bbox": [
    26.3975117,
    40.1272431,
    26.5169174,
    40.1454745
  ],
  "description": "An ancient place, cited: BAtlas 51 G4 Rhodios fl.",
  "names": [
    "Rhodios",
    "Koca Çay",
    "Çanakkale Çay",
    "Sarıçay"
  ],
  "features": [
    {
      "type": "Feature",
      "geometry": {
        "type": "Point",
        "coordinates": [
          26.4645431696,
          40.1399942587
        ]
      },
      "properties": {
        "description": "representative point"
      }
    },
    {
      "geometry": {
        "type": "LineString",
        "coordinates": [
          [
            26.5169174,
            40.1279396
          ],
          [
            26.516411,
            40.1277161
          ],
          [
            26.5154488,
            40.1272431
          ],
          [
            26.5143662,
            40.1273088
          ],
          [
            26.5142717,
            40.1275059
          ],
          [
            26.5133094,
            40.1278672
          ],
          [
            26.5115652,
            40.1288329
          ],
          [
            26.5111099,
            40.1292008
          ],
          [
            26.5106835,
            40.1301492
          ],
          [
            26.5106373,
            40.1302519
          ],
          [
            26.5100445,
            40.1322554
          ],
          [
            26.5094516,
            40.1328926
          ],
          [
            26.5086096,
            40.1335889
          ],
          [
            26.5076216,
            40.1348173
          ],
          [
            26.5065476,
            40.1353888
          ],
          [
            26.505465,
            40.1363084
          ],
          [
            26.5045543,
            40.1370506
          ],
          [
            26.5039614,
            40.1378586
          ],
          [
            26.5017104,
            40.1385482
          ],
          [
            26.5008426,
            40.1386665
          ],
          [
            26.4988493,
            40.1386862
          ],
          [
            26.4977753,
            40.1386468
          ],
          [
            26.4965467,
            40.1383906
          ],
          [
            26.4956617,
            40.1378914
          ],
          [
            26.4949915,
            40.1366171
          ],
          [
            26.4943557,
            40.1362164
          ],
          [
            26.492981,
            40.136223
          ],
          [
            26.4915548,
            40.1363872
          ],
          [
            26.4897849,
            40.1363872
          ],
          [
            26.4887475,
            40.1364204
          ],
          [
            26.4884002,
            40.13651
          ],
          [
            26.4881983,
            40.1365786
          ],
          [
            26.4880611,
            40.1366849
          ],
          [
            26.4879777,
            40.1368267
          ],
          [
            26.4878345,
            40.1372214
          ],
          [
            26.4870011,
            40.1385811
          ],
          [
            26.4867808,
            40.1388156
          ],
          [
            26.4865358,
            40.1389748
          ],
          [
            26.4862474,
            40.1391176
          ],
          [
            26.4858913,
            40.1391804
          ],
          [
            26.4855591,
            40.1391833
          ],
          [
            26.4838285,
            40.1389242
          ],
          [
            26.4832071,
            40.1388913
          ],
          [
            26.4827522,
            40.1389175
          ],
          [
            26.4823281,
            40.1390191
          ],
          [
            26.4816226,
            40.139343
          ],
          [
            26.4784092,
            40.1408603
          ],
          [
            26.4774149,
            40.1416096
          ],
          [
            26.4769143,
            40.1417798
          ],
          [
            26.47633,
            40.1418126
          ],
          [
            26.4746632,
            40.1416484
          ],
          [
            26.4734603,
            40.141458
          ],
          [
            26.473005,
            40.1412347
          ],
          [
            26.4722059,
            40.1410442
          ],
          [
            26.4712436,
            40.1404333
          ],
          [
            26.4706895,
            40.1401256
          ]
        ]
      },
      "id": "osm-location-upper-course-of-river",
      "type": "Feature",
      "properties": {
        "description": "Location based on OpenStreetMap",
        "location_precision": "precise",
        "title": "OSM Location: upper course of river",
        "link": "http://pleiades.stoa.org/places/501590/osm-location-upper-course-of-river"
      }
    },
    {
      "geometry": {
        "type": "LineString",
        "coordinates": [
          [
            26.4706895,
            40.1401256
          ],
          [
            26.4699549,
            40.1397962
          ],
          [
            26.4693019,
            40.1397305
          ],
          [
            26.4683396,
            40.1399079
          ],
          [
            26.4677725,
            40.14021
          ],
          [
            26.4670637,
            40.140857
          ],
          [
            26.4648074,
            40.141774
          ],
          [
            26.4630789,
            40.1421545
          ],
          [
            26.4619476,
            40.14274
          ],
          [
            26.4605081,
            40.1430908
          ],
          [
            26.4584137,
            40.1433874
          ],
          [
            26.4553226,
            40.144352
          ],
          [
            26.4537756,
            40.1443672
          ],
          [
            26.451898,
            40.1440718
          ],
          [
            26.4515533,
            40.1440517
          ],
          [
            26.4499414,
            40.143995
          ],
          [
            26.4489199,
            40.1439367
          ],
          [
            26.4480891,
            40.1438892
          ],
          [
            26.4476227,
            40.1438616
          ],
          [
            26.4467465,
            40.1436993
          ],
          [
            26.4449838,
            40.1433679
          ],
          [
            26.4444704,
            40.1432302
          ],
          [
            26.443484,
            40.1430395
          ],
          [
            26.4431397,
            40.1429344
          ],
          [
            26.4422894,
            40.1428519
          ],
          [
            26.4416806,
            40.142817
          ],
          [
            26.4408016,
            40.1428092
          ],
          [
            26.4401119,
            40.1429943
          ],
          [
            26.4387592,
            40.1437447
          ],
          [
            26.4383205,
            40.1439637
          ],
          [
            26.4378815,
            40.1441102
          ],
          [
            26.4375157,
            40.1443145
          ],
          [
            26.4366691,
            40.1447754
          ],
          [
            26.4359076,
            40.144951
          ],
          [
            26.4345416,
            40.1450396
          ],
          [
            26.434018,
            40.1450429
          ],
          [
            26.4331504,
            40.1450421
          ],
          [
            26.4323728,
            40.1450578
          ],
          [
            26.4318374,
            40.1449969
          ],
          [
            26.4313686,
            40.1448489
          ],
          [
            26.4309514,
            40.1446999
          ],
          [
            26.4307244,
            40.1445877
          ],
          [
            26.4300923,
            40.1442368
          ],
          [
            26.4298143,
            40.1440472
          ],
          [
            26.4287976,
            40.143292
          ],
          [
            26.4280279,
            40.1430388
          ],
          [
            26.4278504,
            40.1429917
          ],
          [
            26.4271159,
            40.1429687
          ],
          [
            26.4262226,
            40.1430451
          ],
          [
            26.425721,
            40.1431886
          ],
          [
            26.4244991,
            40.1435212
          ],
          [
            26.4238504,
            40.1437052
          ],
          [
            26.4224186,
            40.1442471
          ],
          [
            26.4218895,
            40.1444699
          ],
          [
            26.4215117,
            40.1445776
          ],
          [
            26.4203279,
            40.1449192
          ],
          [
            26.4192011,
            40.1451119
          ],
          [
            26.4184002,
            40.1452983
          ],
          [
            26.417555,
            40.1454702
          ],
          [
            26.4172129,
            40.1454745
          ],
          [
            26.416965,
            40.14544
          ],
          [
            26.4162053,
            40.1452626
          ],
          [
            26.415931,
            40.1451601
          ],
          [
            26.4153009,
            40.144937
          ],
          [
            26.4149439,
            40.1447907
          ],
          [
            26.4139723,
            40.14435
          ],
          [
            26.4134762,
            40.1440913
          ],
          [
            26.4131232,
            40.1439297
          ],
          [
            26.4118704,
            40.1433262
          ],
          [
            26.4112698,
            40.143058
          ],
          [
            26.4107313,
            40.1428679
          ],
          [
            26.4101969,
            40.1427102
          ],
          [
            26.4097845,
            40.1426131
          ],
          [
            26.4093245,
            40.1425679
          ],
          [
            26.4090657,
            40.1425553
          ],
          [
            26.4086519,
            40.1425526
          ],
          [
            26.4079394,
            40.1425462
          ],
          [
            26.4077545,
            40.1425351
          ],
          [
            26.4073188,
            40.1425709
          ],
          [
            26.4066072,
            40.1427618
          ],
          [
            26.4058633,
            40.1429577
          ],
          [
            26.4047225,
            40.1432603
          ],
          [
            26.4025312,
            40.1435998
          ],
          [
            26.4018056,
            40.1436791
          ],
          [
            26.4000619,
            40.1438522
          ],
          [
            26.3975117,
            40.1440215
          ]
        ]
      },
      "id": "osm-location-lower-course-of-river",
      "type": "Feature",
      "properties": {
        "description": "Location based on OpenStreetMap",
        "location_precision": "precise",
        "title": "OSM Location: lower course of river",
        "link": "http://pleiades.stoa.org/places/501590/osm-location-lower-course-of-river"
      }
    }
  ]
}