{
  "type": "FeatureCollection",
  "title": "Petrovo",
  "id": "501558",
  "bbox": [
    23.5046338,
    41.43792,
    23.5046338,
    41.43792
  ],
  "description": "An ancient place, cited: BAtlas 51 B2 Petrovo",
  "features": [
    {
      "type": "Feature",
      "geometry": {
        "type": "Point",
        "coordinates": [
          23.5046338,
          41.43792
        ]
      },
      "properties": {
        "description": "representative point"
      }
    },
    {
      "geometry": {
        "type": "Point",
        "coordinates": [
          23.5046338,
          41.43792
        ]
      },
      "id": "osm-location-modern-petrovo",
      "type": "Feature",
      "properties": {
        "description": "Location based on OpenStreetMap",
        "location_precision": "precise",
        "title": "OSM Location: modern Петрово",
        "link": "http://pleiades.stoa.org/places/501558/osm-location-modern-petrovo"
      }
    }
  ]
}