{
  "type": "FeatureCollection",
  "title": "Phagres",
  "id": "501559",
  "bbox": [
    23.940471,
    40.760666,
    23.940471,
    40.760666
  ],
  "description": "An ancient place, cited: BAtlas 51 B3 Phagres",
  "names": [
    "Phagres"
  ],
  "features": [
    {
      "type": "Feature",
      "geometry": {
        "type": "Point",
        "coordinates": [
          23.940471,
          40.760666
        ]
      },
      "properties": {
        "description": "representative point"
      }
    },
    {
      "geometry": {
        "type": "Point",
        "coordinates": [
          23.940471,
          40.760666
        ]
      },
      "id": "darmc-location-10194",
      "type": "Feature",
      "properties": {
        "description": "1:500,000 scale representative point location digitized from the Barrington Atlas of the Greek and Roman World by the Digital Atlas of Roman and Medieval Civilizations project at Harvard University.",
        "location_precision": "precise",
        "title": "DARMC location 10194",
        "link": "http://pleiades.stoa.org/places/501559/darmc-location-10194"
      }
    }
  ]
}