{
  "type": "FeatureCollection",
  "title": "Serreion (promontory)",
  "id": "501606",
  "bbox": [
    25.73137,
    40.84537,
    25.73137,
    40.84537
  ],
  "description": "A cape on the Thracian coast, identified by modern scholars with Cape Mákri, which is located approximately 12 kilometers west of modern Alexandroupoli.",
  "names": [
    "Serreion Pr.",
    "Akra Makris",
    "Cape Makri"
  ],
  "features": [
    {
      "type": "Feature",
      "geometry": {
        "type": "Point",
        "coordinates": [
          25.73137,
          40.84537
        ]
      },
      "properties": {
        "description": "representative point"
      }
    },
    {
      "geometry": {
        "type": "Point",
        "coordinates": [
          25.73137,
          40.84537
        ]
      },
      "id": "geonames-location-akra-makris",
      "type": "Feature",
      "properties": {
        "description": "Verified in Geonames and Google Earth with reference to BAtlas map 51 label placement.",
        "location_precision": "precise",
        "title": "Geonames Location: Ákra Mákris",
        "link": "http://pleiades.stoa.org/places/501606/geonames-location-akra-makris"
      }
    }
  ]
}