{
  "type": "FeatureCollection",
  "title": "Nagappattinam",
  "id": "50168",
  "bbox": [
    79.8430779,
    10.7647952,
    79.8430779,
    10.7647952
  ],
  "description": "An ancient seaport, locus of Indian Ocean trade, Buddhist center, and major site for bronze production attested archaeologically and in epigraphic and literary sources from the time of Ptolemy to the present.",
  "names": [
    "Nikama",
    "Nikamma",
    "Nagapattinam",
    "Nagappattinam",
    "Nagavadana",
    "Pa-tan",
    "Malifattan",
    "Navutapattana"
  ],
  "features": [
    {
      "type": "Feature",
      "geometry": {
        "type": "Point",
        "coordinates": [
          79.8430779,
          10.7647952
        ]
      },
      "properties": {
        "description": "representative point"
      }
    },
    {
      "geometry": {
        "type": "Point",
        "coordinates": [
          79.8430779,
          10.7647952
        ]
      },
      "id": "osm-location-modern-nagapattinam",
      "type": "Feature",
      "properties": {
        "description": "Location based on OpenStreetMap",
        "location_precision": "precise",
        "title": "OSM Location: modern Nagapattinam",
        "link": "http://pleiades.stoa.org/places/50168/osm-location-modern-nagapattinam"
      }
    }
  ]
}