{
  "type": "FeatureCollection",
  "title": "Tragilos",
  "id": "501648",
  "bbox": [
    23.715935,
    40.8373076,
    23.715935,
    40.8373076
  ],
  "description": "An ancient place, cited: BAtlas 51 B3 Tragilos",
  "names": [
    "Tragilos"
  ],
  "features": [
    {
      "type": "Feature",
      "geometry": {
        "type": "Point",
        "coordinates": [
          23.715935,
          40.8373076
        ]
      },
      "properties": {
        "description": "representative point"
      }
    },
    {
      "geometry": {
        "type": "Point",
        "coordinates": [
          23.715935,
          40.8373076
        ]
      },
      "id": "osm-location-of-iiii-i1i-i-i-i3i1ioii-issiii-i-i",
      "type": "Feature",
      "properties": {
        "description": "Representative location based on OpenStreetMap",
        "location_precision": "precise",
        "title": "OSM location of Αρχαιολογικός Χώρος Τράγιλος",
        "link": "http://pleiades.stoa.org/places/501648/osm-location-of-iiii-i1i-i-i-i3i1ioii-issiii-i-i"
      }
    }
  ]
}