{
  "type": "FeatureCollection",
  "title": "Orneon? Pr.",
  "id": "50179",
  "bbox": [
    80.5916227,
    5.9192089,
    80.5916227,
    5.9192089
  ],
  "description": "An ancient place, cited: BAtlas 5 inset Orneon? Pr.",
  "names": [
    "Orneon Pr."
  ],
  "features": [
    {
      "type": "Feature",
      "geometry": {
        "type": "Point",
        "coordinates": [
          80.5916227,
          5.9192089
        ]
      },
      "properties": {
        "description": "representative point"
      }
    },
    {
      "geometry": {
        "type": "Point",
        "coordinates": [
          80.5916227,
          5.9192089
        ]
      },
      "id": "osm-location-dondra-point",
      "type": "Feature",
      "properties": {
        "description": "Location based on OpenStreetMap",
        "location_precision": "precise",
        "title": "OSM Location: Dondra Point",
        "link": "http://pleiades.stoa.org/places/50179/osm-location-dondra-point"
      }
    }
  ]
}