{
  "type": "FeatureCollection",
  "title": "Amasya castle",
  "id": "502142298",
  "bbox": [
    35.8274515,
    40.6552114,
    35.8274515,
    40.6552114
  ],
  "description": "Amasya Castle or Harşene Castle, is a fortress located in Amasya in northern Turkey.",
  "connectsWith": [
    "857018"
  ],
  "names": [
    "Ḳalʿa-i Amāsiyye"
  ],
  "features": [
    {
      "type": "Feature",
      "geometry": {
        "type": "Point",
        "coordinates": [
          35.8274515,
          40.6552114
        ]
      },
      "properties": {
        "description": "representative point"
      }
    },
    {
      "geometry": {
        "type": "Point",
        "coordinates": [
          35.8274515,
          40.6552114
        ]
      },
      "id": "osm-location-amasya-castle",
      "type": "Feature",
      "properties": {
        "description": "Representative location based on OpenStreetMap",
        "location_precision": "precise",
        "title": "OSM location: Amasya Castle",
        "link": "http://pleiades.stoa.org/places/502142298/osm-location-amasya-castle"
      }
    }
  ]
}