{
  "type": "FeatureCollection",
  "title": "Temple of Demeter at the Sanctuary of Demeter Malophoros, Selinus",
  "id": "502577471",
  "bbox": [
    12.8164003,
    37.5864901,
    12.8176259,
    37.587472
  ],
  "description": "The Temple of Demeter was used for the worship of Demeter (Malophoros), goddess of fertility, grain, and agriculture. Built in the seventh century BC, the temple was used continuously until its abandonment ca. 250 BC",
  "connectsWith": [
    "462489"
  ],
  "names": [
    "Sanctuary of Demeter Malophoros"
  ],
  "features": [
    {
      "type": "Feature",
      "geometry": {
        "type": "Point",
        "coordinates": [
          12.8169417304,
          37.5868650772
        ]
      },
      "properties": {
        "description": "representative point"
      }
    },
    {
      "geometry": {
        "type": "MultiLineString",
        "coordinates": [
          [
            [
              12.8169608,
              37.5868382
            ],
            [
              12.8170136,
              37.5867538
            ],
            [
              12.8167954,
              37.586668
            ],
            [
              12.8167426,
              37.5867526
            ],
            [
              12.8169608,
              37.5868382
            ]
          ],
          [
            [
              12.8169157,
              37.5868055
            ],
            [
              12.8169538,
              37.5867439
            ],
            [
              12.8168185,
              37.5866913
            ],
            [
              12.8167803,
              37.586753
            ],
            [
              12.8169157,
              37.5868055
            ]
          ],
          [
            [
              12.8169301,
              37.5868107
            ],
            [
              12.8169689,
              37.5867511
            ],
            [
              12.8169948,
              37.5867617
            ],
            [
              12.816956,
              37.5868213
            ],
            [
              12.8169301,
              37.5868107
            ]
          ]
        ]
      },
      "id": "osm-location-tempio-di-demetra",
      "type": "Feature",
      "properties": {
        "description": "Representative location based on OpenStreetMap",
        "location_precision": "precise",
        "title": "OSM location: Tempio di Demetra",
        "link": "http://pleiades.stoa.org/places/502577471/osm-location-tempio-di-demetra"
      }
    },
    {
      "geometry": {
        "type": "LineString",
        "coordinates": [
          [
            12.8169759,
            37.587472
          ],
          [
            12.8164003,
            37.5871501
          ],
          [
            12.8165629,
            37.5868025
          ],
          [
            12.8168338,
            37.5864901
          ],
          [
            12.8170859,
            37.5865708
          ],
          [
            12.8174038,
            37.5867718
          ],
          [
            12.8175438,
            37.586764
          ],
          [
            12.8176259,
            37.5868435
          ],
          [
            12.8176089,
            37.586896
          ],
          [
            12.8174802,
            37.5870809
          ],
          [
            12.8171996,
            37.5872985
          ],
          [
            12.8169759,
            37.587472
          ]
        ]
      },
      "id": "osm-location-of-santuario-di-demetra-malophoros",
      "type": "Feature",
      "properties": {
        "description": "Representative location based on OpenStreetMap",
        "location_precision": "precise",
        "title": "OSM location of Santuario di Demetra Malophoros",
        "link": "http://pleiades.stoa.org/places/502577471/osm-location-of-santuario-di-demetra-malophoros"
      }
    }
  ]
}