{
  "type": "FeatureCollection",
  "title": "Alyke marble quarry",
  "id": "504349",
  "bbox": [
    24.734538,
    40.617967,
    24.734538,
    40.617967
  ],
  "description": "An ancient marble quarry located immediately north of the ancient settlement of Alyke, which is located on the southeast coast of the Aegean island of Thasos.",
  "connectsWith": [
    "501346"
  ],
  "features": [
    {
      "type": "Feature",
      "geometry": {
        "type": "Point",
        "coordinates": [
          24.734538,
          40.617967
        ]
      },
      "properties": {
        "description": "representative point"
      }
    },
    {
      "geometry": {
        "type": "Point",
        "coordinates": [
          24.734538,
          40.617967
        ]
      },
      "id": "darmc-location-19078",
      "type": "Feature",
      "properties": {
        "description": "1:500,000 scale representative point location digitized from the Barrington Atlas of the Greek and Roman World by the Digital Atlas of Roman and Medieval Civilizations project at Harvard University.",
        "location_precision": "precise",
        "title": "DARMC location 19078",
        "link": "http://pleiades.stoa.org/places/504349/darmc-location-19078"
      }
    }
  ]
}