{
  "type": "FeatureCollection",
  "title": "Alopeconnesus (island)",
  "id": "507364",
  "bbox": [
    25.4433882,
    40.0409623,
    26.907088,
    40.58084
  ],
  "description": "An ancient place, cited: BAtlas 51 unlocated Alopeconnesus Ins.",
  "connectsWith": [
    "501386",
    "501597"
  ],
  "names": [
    "Alopeconnesus"
  ],
  "features": [
    {
      "type": "Feature",
      "geometry": {
        "type": "Point",
        "coordinates": [
          26.0286534372,
          40.390875836
        ]
      },
      "properties": {
        "description": "representative point"
      }
    },
    {
      "geometry": null,
      "id": "batlas-location",
      "type": "Feature",
      "properties": {
        "description": null,
        "location_precision": "unlocated",
        "title": "Barrington Atlas location",
        "link": "http://pleiades.stoa.org/places/507364/batlas-location"
      }
    }
  ]
}