{
  "type": "FeatureCollection",
  "title": "Pergamon",
  "id": "507447",
  "bbox": [
    27.055256,
    38.941644,
    27.055256,
    38.941644
  ],
  "description": "An ancient place, cited: BAtlas 51 unlocated Pergamon",
  "names": [
    "Pergamon"
  ],
  "features": [
    {
      "type": "Feature",
      "geometry": {
        "type": "Point",
        "coordinates": [
          27.055256,
          38.941644
        ]
      },
      "properties": {
        "description": "representative point"
      }
    },
    {
      "geometry": null,
      "id": "batlas-location",
      "type": "Feature",
      "properties": {
        "description": null,
        "location_precision": "unlocated",
        "title": "Barrington Atlas location",
        "link": "http://pleiades.stoa.org/places/507447/batlas-location"
      }
    }
  ]
}