{
  "type": "FeatureCollection",
  "title": "Humayma Roman Fort",
  "id": "515107188",
  "bbox": [
    35.3471293,
    29.9521126,
    35.3489817,
    29.9541418
  ],
  "description": "A Trajanic fort located at Hawara (modern Humayma in southern Jordan).",
  "connectsWith": [
    "746716"
  ],
  "features": [
    {
      "type": "Feature",
      "geometry": {
        "type": "Point",
        "coordinates": [
          35.3480577672,
          29.9531317903
        ]
      },
      "properties": {
        "description": "representative point"
      }
    },
    {
      "geometry": {
        "type": "LineString",
        "coordinates": [
          [
            35.3474639,
            29.9541418
          ],
          [
            35.3489817,
            29.9539438
          ],
          [
            35.3486471,
            29.9521126
          ],
          [
            35.3471293,
            29.9523318
          ],
          [
            35.3474639,
            29.9541418
          ]
        ]
      },
      "id": "location-of-auara",
      "type": "Feature",
      "properties": {
        "description": "Representative location based on OpenStreetMap",
        "location_precision": "precise",
        "title": "OSM location of Humayma - Roman Fort",
        "link": "http://pleiades.stoa.org/places/515107188/location-of-auara"
      }
    }
  ]
}