{
  "type": "FeatureCollection",
  "title": "Parabolos",
  "id": "521108",
  "bbox": [
    29.030439,
    41.052491,
    29.030439,
    41.052491
  ],
  "description": "An ancient place, cited: BAtlas 53 B2 Parabolos",
  "names": [
    "Parabolos"
  ],
  "features": [
    {
      "type": "Feature",
      "geometry": {
        "type": "Point",
        "coordinates": [
          29.030439,
          41.052491
        ]
      },
      "properties": {
        "description": "representative point"
      }
    },
    {
      "geometry": {
        "type": "Point",
        "coordinates": [
          29.030439,
          41.052491
        ]
      },
      "id": "darmc-location-24176",
      "type": "Feature",
      "properties": {
        "description": "1:150,000 scale representative point location digitized from the Barrington Atlas of the Greek and Roman World by the Digital Atlas of Roman and Medieval Civilizations project at Harvard University.",
        "location_precision": "precise",
        "title": "DARMC location 24176",
        "link": "http://pleiades.stoa.org/places/521108/darmc-location-24176"
      }
    }
  ]
}