{
  "type": "FeatureCollection",
  "title": "Castro de Santo Ovidio",
  "id": "522532105",
  "bbox": [
    -8.1843717,
    41.4554429,
    -8.1836571,
    41.4561442
  ],
  "description": "A pre-Roman castrum of Lusitania located in the Vizela river valley.",
  "features": [
    {
      "type": "Feature",
      "geometry": {
        "type": "Point",
        "coordinates": [
          -8.18401208166,
          41.4557971413
        ]
      },
      "properties": {
        "description": "representative point"
      }
    },
    {
      "geometry": {
        "type": "LineString",
        "coordinates": [
          [
            -8.1843717,
            41.4556086
          ],
          [
            -8.1839294,
            41.4561442
          ],
          [
            -8.1836571,
            41.4560128
          ],
          [
            -8.1840805,
            41.4554429
          ],
          [
            -8.1843717,
            41.4556086
          ]
        ]
      },
      "id": "osm-location-of-castro-de-santo-ovidio",
      "type": "Feature",
      "properties": {
        "description": "Representative location based on OpenStreetMap.",
        "location_precision": "precise",
        "title": "OSM location of Castro de Santo Ovídio",
        "link": "http://pleiades.stoa.org/places/522532105/osm-location-of-castro-de-santo-ovidio"
      }
    }
  ]
}