{
  "type": "FeatureCollection",
  "title": "Mageroy Gallo-Roman villa",
  "id": "523235272",
  "bbox": [
    5.6131859,
    49.7146619,
    5.6171216,
    49.7166323
  ],
  "description": "The archaeological site of a well preserved Gallo-Roman villa located at Mageroy in Habay-la-Vieille, Arlon.",
  "features": [
    {
      "type": "Feature",
      "geometry": {
        "type": "Point",
        "coordinates": [
          5.61521972206,
          49.7157645259
        ]
      },
      "properties": {
        "description": "representative point"
      }
    },
    {
      "geometry": {
        "type": "LineString",
        "coordinates": [
          [
            5.6154933,
            49.7163005
          ],
          [
            5.6155022,
            49.7163437
          ],
          [
            5.6155663,
            49.7165468
          ],
          [
            5.6159191,
            49.7163113
          ],
          [
            5.6162553,
            49.7162569
          ],
          [
            5.616624,
            49.7166323
          ],
          [
            5.6171216,
            49.7165658
          ],
          [
            5.6170215,
            49.7163037
          ],
          [
            5.6166398,
            49.7163697
          ],
          [
            5.6164453,
            49.7159062
          ],
          [
            5.6168021,
            49.7158534
          ],
          [
            5.6166996,
            49.7154093
          ],
          [
            5.6163008,
            49.7154665
          ],
          [
            5.6160365,
            49.715169
          ],
          [
            5.6143583,
            49.7154109
          ],
          [
            5.614294,
            49.715423
          ],
          [
            5.6142329,
            49.7154371
          ],
          [
            5.6138207,
            49.7148283
          ],
          [
            5.6137043,
            49.7147363
          ],
          [
            5.6135563,
            49.7147126
          ],
          [
            5.613402,
            49.714716
          ],
          [
            5.6131859,
            49.7146619
          ],
          [
            5.6132364,
            49.7147791
          ],
          [
            5.6134545,
            49.7153357
          ],
          [
            5.6138884,
            49.7161794
          ],
          [
            5.6142699,
            49.7161835
          ],
          [
            5.6143776,
            49.716367
          ],
          [
            5.6148442,
            49.7163406
          ],
          [
            5.6154933,
            49.7163005
          ]
        ]
      },
      "id": "osm-location",
      "type": "Feature",
      "properties": {
        "description": "Representative location based on OpenStreetMap.",
        "location_precision": "precise",
        "title": "OSM location of Villa gallo-romaine de Mageroy",
        "link": "http://pleiades.stoa.org/places/523235272/osm-location"
      }
    }
  ]
}