{
  "type": "FeatureCollection",
  "title": "Kanopos",
  "id": "523980",
  "bbox": [
    28.963627,
    41.032779,
    28.963627,
    41.032779
  ],
  "description": "An ancient place, cited: BAtlas 53 A2 Kanopos",
  "names": [
    "Kanopos"
  ],
  "features": [
    {
      "type": "Feature",
      "geometry": {
        "type": "Point",
        "coordinates": [
          28.963627,
          41.032779
        ]
      },
      "properties": {
        "description": "representative point"
      }
    },
    {
      "geometry": {
        "type": "Point",
        "coordinates": [
          28.963627,
          41.032779
        ]
      },
      "id": "darmc-location-5458",
      "type": "Feature",
      "properties": {
        "description": "1:150,000 scale representative point location digitized from the Barrington Atlas of the Greek and Roman World by the Digital Atlas of Roman and Medieval Civilizations project at Harvard University.",
        "location_precision": "precise",
        "title": "DARMC location 5458",
        "link": "http://pleiades.stoa.org/places/523980/darmc-location-5458"
      }
    }
  ]
}