{
  "type": "FeatureCollection",
  "title": "Steinerner Steg - Ponte Romano",
  "id": "524074853",
  "bbox": [
    11.1690165,
    46.6715476,
    11.16952,
    46.6716446
  ],
  "description": "A two-arched, stone-built footbridge across the Passer in Merano, South Tyrol.",
  "connectsWith": [
    "187465"
  ],
  "features": [
    {
      "type": "Feature",
      "geometry": {
        "type": "Point",
        "coordinates": [
          11.16926825,
          46.6715961
        ]
      },
      "properties": {
        "description": "representative point"
      }
    },
    {
      "geometry": {
        "type": "LineString",
        "coordinates": [
          [
            11.16952,
            46.6715476
          ],
          [
            11.1690165,
            46.6716446
          ]
        ]
      },
      "id": "location-of-river-bridge",
      "type": "Feature",
      "properties": {
        "description": "Representative location based on OpenStreetMap",
        "location_precision": "precise",
        "title": "OSM location of Steinerner Steg - Ponte Romano",
        "link": "http://pleiades.stoa.org/places/524074853/location-of-river-bridge"
      }
    }
  ]
}