{
  "type": "FeatureCollection",
  "title": "Theater of Melos",
  "id": "528335956",
  "bbox": [
    24.4208354,
    36.7377103,
    24.4212723,
    36.7379786
  ],
  "description": "The Theater of Melos likely has Hellenistic origins but the visible phase belongs to the Roman period.",
  "connectsWith": [
    "570474"
  ],
  "names": [
    "Ancient theatre of Milos"
  ],
  "features": [
    {
      "type": "Feature",
      "geometry": {
        "type": "Point",
        "coordinates": [
          24.4210639428,
          36.7378401744
        ]
      },
      "properties": {
        "description": "representative point"
      }
    },
    {
      "geometry": {
        "type": "LineString",
        "coordinates": [
          [
            24.4212477,
            36.7377228
          ],
          [
            24.4212512,
            36.7377303
          ],
          [
            24.4212675,
            36.7377658
          ],
          [
            24.4212723,
            36.7378132
          ],
          [
            24.4212611,
            36.7378599
          ],
          [
            24.4212348,
            36.7379024
          ],
          [
            24.4211952,
            36.7379378
          ],
          [
            24.4211452,
            36.7379634
          ],
          [
            24.4210885,
            36.7379773
          ],
          [
            24.4210292,
            36.7379786
          ],
          [
            24.4209716,
            36.7379671
          ],
          [
            24.42092,
            36.7379436
          ],
          [
            24.4208781,
            36.73791
          ],
          [
            24.420849,
            36.7378686
          ],
          [
            24.4208377,
            36.7378318
          ],
          [
            24.4208354,
            36.7378241
          ],
          [
            24.420846,
            36.7378214
          ],
          [
            24.4208567,
            36.7378188
          ],
          [
            24.4208675,
            36.7378162
          ],
          [
            24.4208782,
            36.7378135
          ],
          [
            24.4208889,
            36.7378109
          ],
          [
            24.4208997,
            36.7378083
          ],
          [
            24.4209104,
            36.7378056
          ],
          [
            24.4209222,
            36.7378027
          ],
          [
            24.420909,
            36.7377683
          ],
          [
            24.421145,
            36.7377103
          ],
          [
            24.4211582,
            36.7377448
          ],
          [
            24.4211727,
            36.7377412
          ],
          [
            24.4211834,
            36.7377386
          ],
          [
            24.4211941,
            36.737736
          ],
          [
            24.4212049,
            36.7377333
          ],
          [
            24.4212156,
            36.7377307
          ],
          [
            24.4212263,
            36.737728
          ],
          [
            24.421237,
            36.7377254
          ],
          [
            24.4212477,
            36.7377228
          ]
        ]
      },
      "id": "osm-location-of-iiii-i-i-i-ii-iii-ii-r-i-i-i",
      "type": "Feature",
      "properties": {
        "description": "Representative location based on OpenStreetMap",
        "location_precision": "precise",
        "title": "OSM location of Αρχαίο θέατρο Μήλου",
        "link": "http://pleiades.stoa.org/places/528335956/osm-location-of-iiii-i-i-i-ii-iii-ii-r-i-i-i"
      }
    }
  ]
}