{
  "type": "FeatureCollection",
  "title": "Radicofani",
  "id": "530611410",
  "bbox": [
    11.7678676,
    42.8980225,
    11.7699107,
    42.899311
  ],
  "description": "Radicofani, located ca. 60 km southeast of Siena, is the site of the tenth-century AD castle of the Carolingian Ghino di Tacco.",
  "connectsWith": [
    "136661131",
    "643235008"
  ],
  "features": [
    {
      "type": "Feature",
      "geometry": {
        "type": "Point",
        "coordinates": [
          11.7688501875,
          42.8986391578
        ]
      },
      "properties": {
        "description": "representative point"
      }
    },
    {
      "geometry": {
        "type": "LineString",
        "coordinates": [
          [
            11.7682083,
            42.8988464
          ],
          [
            11.7680623,
            42.8988205
          ],
          [
            11.7678676,
            42.8990522
          ],
          [
            11.7681766,
            42.8990822
          ],
          [
            11.7682062,
            42.8990333
          ],
          [
            11.7682171,
            42.8989978
          ],
          [
            11.7690268,
            42.8991605
          ],
          [
            11.7691259,
            42.8991805
          ],
          [
            11.7691026,
            42.899256
          ],
          [
            11.7693334,
            42.899311
          ],
          [
            11.7694192,
            42.899088
          ],
          [
            11.7695117,
            42.8987098
          ],
          [
            11.769788,
            42.8985418
          ],
          [
            11.7699107,
            42.8982824
          ],
          [
            11.7696089,
            42.8982657
          ],
          [
            11.7695788,
            42.898358
          ],
          [
            11.7690356,
            42.8982259
          ],
          [
            11.7690752,
            42.8981419
          ],
          [
            11.7687795,
            42.8980225
          ],
          [
            11.7686755,
            42.8982519
          ],
          [
            11.7681679,
            42.8981124
          ],
          [
            11.768188,
            42.8984234
          ],
          [
            11.768357,
            42.8984447
          ],
          [
            11.7682282,
            42.8988004
          ],
          [
            11.7682083,
            42.8988464
          ]
        ]
      },
      "id": "location-of-rocca-di-radicofani",
      "type": "Feature",
      "properties": {
        "description": "Representative location based on OpenStreetMap.",
        "location_precision": "precise",
        "title": "OSM location of Rocca di Radicofani",
        "link": "http://pleiades.stoa.org/places/530611410/location-of-rocca-di-radicofani"
      }
    }
  ]
}