{
  "type": "FeatureCollection",
  "title": "Ag. Panagia",
  "id": "530779",
  "bbox": [
    21.06588,
    39.461992,
    21.593656,
    39.512741
  ],
  "description": "An ancient place, cited: BAtlas 54 D2 Ag. Panagia",
  "features": [
    {
      "type": "Feature",
      "geometry": {
        "type": "Point",
        "coordinates": [
          21.329768,
          39.4873665
        ]
      },
      "properties": {
        "description": "representative point"
      }
    },
    {
      "geometry": {
        "type": "Point",
        "coordinates": [
          21.06588,
          39.512741
        ]
      },
      "id": "darmc-location-11201",
      "type": "Feature",
      "properties": {
        "description": "1:500,000 scale representative point location digitized from the Barrington Atlas of the Greek and Roman World by the Digital Atlas of Roman and Medieval Civilizations project at Harvard University.",
        "location_precision": "precise",
        "title": "DARMC location 11201",
        "link": "http://pleiades.stoa.org/places/530779/darmc-location-11201"
      }
    },
    {
      "geometry": {
        "type": "Point",
        "coordinates": [
          21.593656,
          39.461992
        ]
      },
      "id": "darmc-location-12212",
      "type": "Feature",
      "properties": {
        "description": "TIB representative point location digitized from the Barrington Atlas of the Greek and Roman World by the Digital Atlas of Roman and Medieval Civilizations project at Harvard University.",
        "location_precision": "precise",
        "title": "DARMC location 12212",
        "link": "http://pleiades.stoa.org/places/530779/darmc-location-12212"
      }
    }
  ]
}