{
  "type": "FeatureCollection",
  "title": "Drymos",
  "id": "530848",
  "bbox": [
    21.016694,
    38.884698,
    21.016694,
    38.884698
  ],
  "description": "An ancient place, cited: BAtlas 54 D4 Drymos",
  "names": [
    "Drymos"
  ],
  "features": [
    {
      "type": "Feature",
      "geometry": {
        "type": "Point",
        "coordinates": [
          21.016694,
          38.884698
        ]
      },
      "properties": {
        "description": "representative point"
      }
    },
    {
      "geometry": {
        "type": "Point",
        "coordinates": [
          21.016694,
          38.884698
        ]
      },
      "id": "darmc-location-12269",
      "type": "Feature",
      "properties": {
        "description": "1:500,000 scale representative point location digitized from the Barrington Atlas of the Greek and Roman World by the Digital Atlas of Roman and Medieval Civilizations project at Harvard University.",
        "location_precision": "precise",
        "title": "DARMC location 12269",
        "link": "http://pleiades.stoa.org/places/530848/darmc-location-12269"
      }
    }
  ]
}