{
  "type": "FeatureCollection",
  "title": "Elleniko",
  "id": "530866",
  "bbox": [
    20.730327,
    38.322593,
    20.730327,
    38.322593
  ],
  "description": "An ancient place, cited: BAtlas 54 C5 Elleniko",
  "features": [
    {
      "type": "Feature",
      "geometry": {
        "type": "Point",
        "coordinates": [
          20.730327,
          38.322593
        ]
      },
      "properties": {
        "description": "representative point"
      }
    },
    {
      "geometry": {
        "type": "Point",
        "coordinates": [
          20.730327,
          38.322593
        ]
      },
      "id": "darmc-location-695",
      "type": "Feature",
      "properties": {
        "description": "1:500,000 scale representative point location digitized from the Barrington Atlas of the Greek and Roman World by the Digital Atlas of Roman and Medieval Civilizations project at Harvard University.",
        "location_precision": "precise",
        "title": "DARMC location 695",
        "link": "http://pleiades.stoa.org/places/530866/darmc-location-695"
      }
    }
  ]
}