{
  "type": "FeatureCollection",
  "title": "Embesos",
  "id": "530869",
  "bbox": [
    21.326726,
    39.014933,
    21.326726,
    39.014933
  ],
  "description": "An ancient place, cited: BAtlas 54 D3 Embesos",
  "features": [
    {
      "type": "Feature",
      "geometry": {
        "type": "Point",
        "coordinates": [
          21.326726,
          39.014933
        ]
      },
      "properties": {
        "description": "representative point"
      }
    },
    {
      "geometry": {
        "type": "Point",
        "coordinates": [
          21.326726,
          39.014933
        ]
      },
      "id": "darmc-location-12335",
      "type": "Feature",
      "properties": {
        "description": "1:500,000 scale representative point location digitized from the Barrington Atlas of the Greek and Roman World by the Digital Atlas of Roman and Medieval Civilizations project at Harvard University.",
        "location_precision": "precise",
        "title": "DARMC location 12335",
        "link": "http://pleiades.stoa.org/places/530869/darmc-location-12335"
      }
    }
  ]
}