{
  "type": "FeatureCollection",
  "title": "Dramese",
  "id": "530847",
  "bbox": [
    20.351241,
    39.509131,
    20.351241,
    39.509131
  ],
  "description": "An ancient place, cited: BAtlas 54 B2 Dramese",
  "features": [
    {
      "type": "Feature",
      "geometry": {
        "type": "Point",
        "coordinates": [
          20.351241,
          39.509131
        ]
      },
      "properties": {
        "description": "representative point"
      }
    },
    {
      "geometry": {
        "type": "Point",
        "coordinates": [
          20.351241,
          39.509131
        ]
      },
      "id": "darmc-location-17603",
      "type": "Feature",
      "properties": {
        "description": "1:500,000 scale representative point location digitized from the Barrington Atlas of the Greek and Roman World by the Digital Atlas of Roman and Medieval Civilizations project at Harvard University.",
        "location_precision": "precise",
        "title": "DARMC location 17603",
        "link": "http://pleiades.stoa.org/places/530847/darmc-location-17603"
      }
    }
  ]
}