{
  "type": "FeatureCollection",
  "title": "Kleisoura 1",
  "id": "530950",
  "bbox": [
    20.602909,
    39.292131,
    20.602909,
    39.292131
  ],
  "description": "An ancient place, cited: BAtlas 54 C3 Kleisoura 1",
  "features": [
    {
      "type": "Feature",
      "geometry": {
        "type": "Point",
        "coordinates": [
          20.602909,
          39.292131
        ]
      },
      "properties": {
        "description": "representative point"
      }
    },
    {
      "geometry": {
        "type": "Point",
        "coordinates": [
          20.602909,
          39.292131
        ]
      },
      "id": "darmc-location-13206",
      "type": "Feature",
      "properties": {
        "description": "1:500,000 scale representative point location digitized from the Barrington Atlas of the Greek and Roman World by the Digital Atlas of Roman and Medieval Civilizations project at Harvard University.",
        "location_precision": "precise",
        "title": "DARMC location 13206",
        "link": "http://pleiades.stoa.org/places/530950/darmc-location-13206"
      }
    }
  ]
}