{
  "type": "FeatureCollection",
  "title": "Makrykhora",
  "id": "530990",
  "bbox": [
    20.361724,
    39.459489,
    20.361724,
    39.459489
  ],
  "description": "An ancient place, cited: BAtlas 54 B3 Makrykhora",
  "features": [
    {
      "type": "Feature",
      "geometry": {
        "type": "Point",
        "coordinates": [
          20.361724,
          39.459489
        ]
      },
      "properties": {
        "description": "representative point"
      }
    },
    {
      "geometry": {
        "type": "Point",
        "coordinates": [
          20.361724,
          39.459489
        ]
      },
      "id": "darmc-location-13600",
      "type": "Feature",
      "properties": {
        "description": "1:500,000 scale representative point location digitized from the Barrington Atlas of the Greek and Roman World by the Digital Atlas of Roman and Medieval Civilizations project at Harvard University.",
        "location_precision": "precise",
        "title": "DARMC location 13600",
        "link": "http://pleiades.stoa.org/places/530990/darmc-location-13600"
      }
    }
  ]
}