{
  "type": "FeatureCollection",
  "title": "Kokkino Stephani",
  "id": "530955",
  "bbox": [
    20.797502,
    38.797105,
    20.797502,
    38.797105
  ],
  "description": "An ancient place, cited: BAtlas 54 C4 Kokkino Stephani",
  "features": [
    {
      "type": "Feature",
      "geometry": {
        "type": "Point",
        "coordinates": [
          20.797502,
          38.797105
        ]
      },
      "properties": {
        "description": "representative point"
      }
    },
    {
      "geometry": {
        "type": "Point",
        "coordinates": [
          20.797502,
          38.797105
        ]
      },
      "id": "darmc-location-7112",
      "type": "Feature",
      "properties": {
        "description": "1:500,000 scale representative point location digitized from the Barrington Atlas of the Greek and Roman World by the Digital Atlas of Roman and Medieval Civilizations project at Harvard University.",
        "location_precision": "precise",
        "title": "DARMC location 7112",
        "link": "http://pleiades.stoa.org/places/530955/darmc-location-7112"
      }
    }
  ]
}