{
  "type": "FeatureCollection",
  "title": "Kyathos? (river)",
  "id": "530968",
  "bbox": [
    21.2509955,
    38.5468345,
    21.3498444,
    38.5827631
  ],
  "description": "Mentioned by Polybius, the Kyathos river is probably to be identified with the modern Dimikos, which is located in the modern Greek Aetolia-Acarnania Regional Unit.",
  "names": [
    "Kyathos",
    "Dimikos potamos",
    "Neskhio"
  ],
  "features": [
    {
      "type": "Feature",
      "geometry": {
        "type": "Point",
        "coordinates": [
          21.2936596098,
          38.5714113006
        ]
      },
      "properties": {
        "description": "representative point"
      }
    },
    {
      "geometry": {
        "type": "MultiLineString",
        "coordinates": [
          [
            [
              21.3498444,
              38.5717463
            ],
            [
              21.3474526,
              38.5723572
            ],
            [
              21.3352807,
              38.5752293
            ],
            [
              21.3324383,
              38.5759052
            ],
            [
              21.3305718,
              38.5763214
            ],
            [
              21.3296307,
              38.5765217
            ],
            [
              21.3291845,
              38.576704
            ],
            [
              21.3287419,
              38.5770108
            ],
            [
              21.3282068,
              38.5774026
            ],
            [
              21.3276884,
              38.5776266
            ],
            [
              21.3259369,
              38.5781307
            ],
            [
              21.3244503,
              38.578487
            ],
            [
              21.3239955,
              38.5790507
            ],
            [
              21.3239894,
              38.5793227
            ],
            [
              21.3240078,
              38.5797644
            ],
            [
              21.3238534,
              38.5799759
            ],
            [
              21.3231842,
              38.5802988
            ],
            [
              21.322806,
              38.5803913
            ],
            [
              21.3222771,
              38.5804013
            ],
            [
              21.32179,
              38.5803256
            ],
            [
              21.3212955,
              38.5803804
            ],
            [
              21.3205096,
              38.580555
            ],
            [
              21.3191875,
              38.5809298
            ],
            [
              21.3183716,
              38.5812194
            ],
            [
              21.3177416,
              38.5815898
            ],
            [
              21.3172321,
              38.5818116
            ],
            [
              21.3165436,
              38.5819214
            ],
            [
              21.3154142,
              38.5821595
            ],
            [
              21.3149914,
              38.5821756
            ],
            [
              21.3143627,
              38.5820292
            ],
            [
              21.3135306,
              38.5818462
            ],
            [
              21.3130289,
              38.5818201
            ],
            [
              21.3126152,
              38.5819318
            ],
            [
              21.3123397,
              38.5821227
            ],
            [
              21.3119401,
              38.582543
            ],
            [
              21.3115997,
              38.5827261
            ],
            [
              21.3111968,
              38.5827631
            ],
            [
              21.3097921,
              38.5824219
            ],
            [
              21.3094292,
              38.5824315
            ],
            [
              21.3084643,
              38.5825333
            ],
            [
              21.3080794,
              38.5823864
            ],
            [
              21.3075445,
              38.5814351
            ],
            [
              21.3070744,
              38.5808225
            ],
            [
              21.3068111,
              38.5806167
            ],
            [
              21.306326,
              38.58044
            ],
            [
              21.3049417,
              38.5799631
            ],
            [
              21.3044584,
              38.5799603
            ],
            [
              21.3040195,
              38.5800364
            ],
            [
              21.3035749,
              38.5801901
            ],
            [
              21.3033118,
              38.5805435
            ],
            [
              21.3029514,
              38.5806857
            ],
            [
              21.302471,
              38.580618
            ],
            [
              21.3014284,
              38.5801899
            ],
            [
              21.3003093,
              38.5796854
            ],
            [
              21.2991025,
              38.5791127
            ],
            [
              21.298745,
              38.5788318
            ],
            [
              21.2981794,
              38.5780485
            ],
            [
              21.2977111,
              38.5775846
            ],
            [
              21.2972301,
              38.5772766
            ],
            [
              21.2962317,
              38.5769104
            ],
            [
              21.2946918,
              38.57632
            ],
            [
              21.2916959,
              38.5751632
            ],
            [
              21.2909097,
              38.5748155
            ],
            [
              21.2907161,
              38.5747299
            ],
            [
              21.2901195,
              38.5743714
            ],
            [
              21.2895841,
              38.5738836
            ],
            [
              21.2893987,
              38.5737582
            ],
            [
              21.2891686,
              38.5736571
            ],
            [
              21.2887787,
              38.5735537
            ],
            [
              21.2882856,
              38.5735143
            ],
            [
              21.2880424,
              38.573505
            ],
            [
              21.2878427,
              38.5734958
            ],
            [
              21.2876759,
              38.5734706
            ],
            [
              21.2875028,
              38.573431
            ]
          ],
          [
            [
              21.2875028,
              38.573431
            ],
            [
              21.2872771,
              38.5733772
            ],
            [
              21.2871193,
              38.5733362
            ],
            [
              21.2869749,
              38.5732848
            ],
            [
              21.2867974,
              38.5732159
            ],
            [
              21.2864958,
              38.5731024
            ],
            [
              21.2863181,
              38.5730457
            ],
            [
              21.2861404,
              38.572989
            ],
            [
              21.2853036,
              38.5727411
            ],
            [
              21.2844668,
              38.5725002
            ],
            [
              21.2842497,
              38.572433
            ],
            [
              21.2840507,
              38.5723587
            ],
            [
              21.2838808,
              38.5723002
            ],
            [
              21.2836794,
              38.5722418
            ],
            [
              21.2778979,
              38.5705103
            ],
            [
              21.2756973,
              38.569773
            ],
            [
              21.2731799,
              38.569423
            ],
            [
              21.2712611,
              38.5691638
            ],
            [
              21.2685022,
              38.5685148
            ],
            [
              21.2683146,
              38.5684844
            ],
            [
              21.2681849,
              38.568454
            ],
            [
              21.2678883,
              38.5683771
            ],
            [
              21.2677209,
              38.5683492
            ],
            [
              21.2674688,
              38.5683259
            ],
            [
              21.267349,
              38.568319
            ],
            [
              21.2672457,
              38.5682928
            ],
            [
              21.2671548,
              38.5682468
            ],
            [
              21.2668902,
              38.5681314
            ],
            [
              21.2667124,
              38.5680672
            ],
            [
              21.2665263,
              38.5680159
            ],
            [
              21.2597117,
              38.5663922
            ],
            [
              21.257279,
              38.5657764
            ],
            [
              21.2564769,
              38.5652062
            ],
            [
              21.2558905,
              38.5647377
            ],
            [
              21.2557669,
              38.5646674
            ],
            [
              21.2556158,
              38.5646257
            ],
            [
              21.2554513,
              38.5646178
            ],
            [
              21.2552876,
              38.5646379
            ],
            [
              21.255107,
              38.5646673
            ],
            [
              21.2548927,
              38.5646544
            ],
            [
              21.2547019,
              38.5645929
            ],
            [
              21.2544836,
              38.5644882
            ],
            [
              21.2542214,
              38.5643328
            ],
            [
              21.2540465,
              38.5641918
            ],
            [
              21.2538807,
              38.564022
            ],
            [
              21.2529905,
              38.5626726
            ],
            [
              21.2518831,
              38.5608207
            ],
            [
              21.2513075,
              38.5598826
            ],
            [
              21.2512253,
              38.5594107
            ],
            [
              21.2513107,
              38.5591604
            ],
            [
              21.2515854,
              38.5586714
            ],
            [
              21.2518042,
              38.5583879
            ],
            [
              21.2518811,
              38.558237
            ],
            [
              21.2518712,
              38.5580116
            ],
            [
              21.251762,
              38.5577454
            ],
            [
              21.2512862,
              38.5572887
            ],
            [
              21.2510676,
              38.5570081
            ],
            [
              21.2509955,
              38.5566051
            ],
            [
              21.2510629,
              38.5562802
            ],
            [
              21.2513264,
              38.5557403
            ],
            [
              21.2516982,
              38.555089099999996
            ],
            [
              21.2518014,
              38.5545571
            ],
            [
              21.2517189,
              38.5532973
            ],
            [
              21.2516823,
              38.5527586
            ],
            [
              21.2518121,
              38.5526066
            ],
            [
              21.2519213,
              38.5525539
            ],
            [
              21.2519724,
              38.5525292
            ],
            [
              21.2522334,
              38.5524753
            ],
            [
              21.2523211,
              38.5524572
            ],
            [
              21.2524339,
              38.5523803
            ],
            [
              21.2523302,
              38.5517483
            ],
            [
              21.2529544,
              38.5508192
            ],
            [
              21.253189,
              38.5501848
            ],
            [
              21.2532845,
              38.549517
            ],
            [
              21.2538908,
              38.5482103
            ],
            [
              21.2539331,
              38.5480363
            ],
            [
              21.2539578,
              38.5478769
            ],
            [
              21.2539228,
              38.5477145
            ],
            [
              21.2537914,
              38.5475399
            ],
            [
              21.2536287,
              38.5474142
            ],
            [
              21.2534133,
              38.5472952
            ],
            [
              21.2531752,
              38.5471881
            ],
            [
              21.2529139,
              38.547138
            ],
            [
              21.2525748,
              38.5471352
            ],
            [
              21.2524587,
              38.5471226
            ],
            [
              21.2523493,
              38.5470934
            ],
            [
              21.2522556,
              38.547057
            ],
            [
              21.2521357,
              38.5469661
            ],
            [
              21.2520573,
              38.5468345
            ]
          ]
        ]
      },
      "id": "osm-location-modern-dimikos-river",
      "type": "Feature",
      "properties": {
        "description": "Location based on OpenStreetMap",
        "location_precision": "precise",
        "title": "OSM Location: modern Dimikos river",
        "link": "http://pleiades.stoa.org/places/530968/osm-location-modern-dimikos-river"
      }
    }
  ]
}