{
  "type": "FeatureCollection",
  "title": "Khoika",
  "id": "530944",
  "bbox": [
    20.594683,
    39.342148,
    20.594683,
    39.342148
  ],
  "description": "An ancient place, cited: BAtlas 54 C3 Khoika",
  "features": [
    {
      "type": "Feature",
      "geometry": {
        "type": "Point",
        "coordinates": [
          20.594683,
          39.342148
        ]
      },
      "properties": {
        "description": "representative point"
      }
    },
    {
      "geometry": {
        "type": "Point",
        "coordinates": [
          20.594683,
          39.342148
        ]
      },
      "id": "darmc-location-23172",
      "type": "Feature",
      "properties": {
        "description": "1:500,000 scale representative point location digitized from the Barrington Atlas of the Greek and Roman World by the Digital Atlas of Roman and Medieval Civilizations project at Harvard University.",
        "location_precision": "precise",
        "title": "DARMC location 23172",
        "link": "http://pleiades.stoa.org/places/530944/darmc-location-23172"
      }
    }
  ]
}