{
  "type": "FeatureCollection",
  "title": "Logarata",
  "id": "530983",
  "bbox": [
    20.582745,
    38.323096,
    20.582745,
    38.323096
  ],
  "description": "An ancient place, cited: BAtlas 54 C5 Logarata",
  "features": [
    {
      "type": "Feature",
      "geometry": {
        "type": "Point",
        "coordinates": [
          20.582745,
          38.323096
        ]
      },
      "properties": {
        "description": "representative point"
      }
    },
    {
      "geometry": {
        "type": "Point",
        "coordinates": [
          20.582745,
          38.323096
        ]
      },
      "id": "darmc-location-7915",
      "type": "Feature",
      "properties": {
        "description": "1:500,000 scale representative point location digitized from the Barrington Atlas of the Greek and Roman World by the Digital Atlas of Roman and Medieval Civilizations project at Harvard University.",
        "location_precision": "precise",
        "title": "DARMC location 7915",
        "link": "http://pleiades.stoa.org/places/530983/darmc-location-7915"
      }
    }
  ]
}