{
  "type": "FeatureCollection",
  "title": "Karteri",
  "id": "530918",
  "bbox": [
    20.38769,
    39.38466,
    20.38769,
    39.38466
  ],
  "description": "An ancient place, cited: BAtlas 54 B3 Karteri",
  "features": [
    {
      "type": "Feature",
      "geometry": {
        "type": "Point",
        "coordinates": [
          20.38769,
          39.38466
        ]
      },
      "properties": {
        "description": "representative point"
      }
    },
    {
      "geometry": {
        "type": "Point",
        "coordinates": [
          20.38769,
          39.38466
        ]
      },
      "id": "darmc-location-13035",
      "type": "Feature",
      "properties": {
        "description": "1:500,000 scale representative point location digitized from the Barrington Atlas of the Greek and Roman World by the Digital Atlas of Roman and Medieval Civilizations project at Harvard University.",
        "location_precision": "precise",
        "title": "DARMC location 13035",
        "link": "http://pleiades.stoa.org/places/530918/darmc-location-13035"
      }
    }
  ]
}