{
  "type": "FeatureCollection",
  "title": "Kokkinopilo",
  "id": "530956",
  "bbox": [
    20.844894,
    39.261887,
    20.844894,
    39.261887
  ],
  "description": "An ancient place, cited: BAtlas 54 C3 Kokkinopilo",
  "features": [
    {
      "type": "Feature",
      "geometry": {
        "type": "Point",
        "coordinates": [
          20.844894,
          39.261887
        ]
      },
      "properties": {
        "description": "representative point"
      }
    },
    {
      "geometry": {
        "type": "Point",
        "coordinates": [
          20.844894,
          39.261887
        ]
      },
      "id": "darmc-location-13228",
      "type": "Feature",
      "properties": {
        "description": "1:500,000 scale representative point location digitized from the Barrington Atlas of the Greek and Roman World by the Digital Atlas of Roman and Medieval Civilizations project at Harvard University.",
        "location_precision": "precise",
        "title": "DARMC location 13228",
        "link": "http://pleiades.stoa.org/places/530956/darmc-location-13228"
      }
    }
  ]
}