{
  "type": "FeatureCollection",
  "title": "Kalogeros",
  "id": "530915",
  "bbox": [
    20.991872,
    37.71413,
    20.991872,
    37.71413
  ],
  "description": "An ancient place, cited: BAtlas 54 inset Kalogeros",
  "features": [
    {
      "type": "Feature",
      "geometry": {
        "type": "Point",
        "coordinates": [
          20.991872,
          37.71413
        ]
      },
      "properties": {
        "description": "representative point"
      }
    },
    {
      "geometry": {
        "type": "Point",
        "coordinates": [
          20.991872,
          37.71413
        ]
      },
      "id": "darmc-location-16642",
      "type": "Feature",
      "properties": {
        "description": "1:500,000 scale representative point location digitized from the Barrington Atlas of the Greek and Roman World by the Digital Atlas of Roman and Medieval Civilizations project at Harvard University.",
        "location_precision": "precise",
        "title": "DARMC location 16642",
        "link": "http://pleiades.stoa.org/places/530915/darmc-location-16642"
      }
    }
  ]
}