{
  "type": "FeatureCollection",
  "title": "Moni Sosinou",
  "id": "531004",
  "bbox": [
    20.552963,
    39.838604,
    20.552963,
    39.838604
  ],
  "description": "An ancient place, cited: BAtlas 54 C2 Moni Sosinou",
  "features": [
    {
      "type": "Feature",
      "geometry": {
        "type": "Point",
        "coordinates": [
          20.552963,
          39.838604
        ]
      },
      "properties": {
        "description": "representative point"
      }
    },
    {
      "geometry": {
        "type": "Point",
        "coordinates": [
          20.552963,
          39.838604
        ]
      },
      "id": "darmc-location-13788",
      "type": "Feature",
      "properties": {
        "description": "1:500,000 scale representative point location digitized from the Barrington Atlas of the Greek and Roman World by the Digital Atlas of Roman and Medieval Civilizations project at Harvard University.",
        "location_precision": "precise",
        "title": "DARMC location 13788",
        "link": "http://pleiades.stoa.org/places/531004/darmc-location-13788"
      }
    }
  ]
}