{
  "type": "FeatureCollection",
  "title": "Phagia",
  "id": "531054",
  "bbox": [
    20.763169,
    38.770195,
    20.763169,
    38.770195
  ],
  "description": "An ancient place, cited: BAtlas 54 C4 Phagia",
  "features": [
    {
      "type": "Feature",
      "geometry": {
        "type": "Point",
        "coordinates": [
          20.763169,
          38.770195
        ]
      },
      "properties": {
        "description": "representative point"
      }
    },
    {
      "geometry": {
        "type": "Point",
        "coordinates": [
          20.763169,
          38.770195
        ]
      },
      "id": "darmc-location-8185",
      "type": "Feature",
      "properties": {
        "description": "1:500,000 scale representative point location digitized from the Barrington Atlas of the Greek and Roman World by the Digital Atlas of Roman and Medieval Civilizations project at Harvard University.",
        "location_precision": "precise",
        "title": "DARMC location 8185",
        "link": "http://pleiades.stoa.org/places/531054/darmc-location-8185"
      }
    }
  ]
}