{
  "type": "FeatureCollection",
  "title": "Oraiokastron",
  "id": "531021",
  "bbox": [
    20.551344,
    39.979211,
    20.551344,
    39.979211
  ],
  "description": "An ancient place, cited: BAtlas 54 C2 Oraiokastron",
  "features": [
    {
      "type": "Feature",
      "geometry": {
        "type": "Point",
        "coordinates": [
          20.551344,
          39.979211
        ]
      },
      "properties": {
        "description": "representative point"
      }
    },
    {
      "geometry": {
        "type": "Point",
        "coordinates": [
          20.551344,
          39.979211
        ]
      },
      "id": "darmc-location-14027",
      "type": "Feature",
      "properties": {
        "description": "1:500,000 scale representative point location digitized from the Barrington Atlas of the Greek and Roman World by the Digital Atlas of Roman and Medieval Civilizations project at Harvard University.",
        "location_precision": "precise",
        "title": "DARMC location 14027",
        "link": "http://pleiades.stoa.org/places/531021/darmc-location-14027"
      }
    }
  ]
}