{
  "type": "FeatureCollection",
  "title": "Mikhalitsi",
  "id": "531002",
  "bbox": [
    20.757327,
    39.053694,
    20.757327,
    39.053694
  ],
  "description": "An ancient place, cited: BAtlas 54 C3 Mikhalitsi",
  "features": [
    {
      "type": "Feature",
      "geometry": {
        "type": "Point",
        "coordinates": [
          20.757327,
          39.053694
        ]
      },
      "properties": {
        "description": "representative point"
      }
    },
    {
      "geometry": {
        "type": "Point",
        "coordinates": [
          20.757327,
          39.053694
        ]
      },
      "id": "darmc-location-13742",
      "type": "Feature",
      "properties": {
        "description": "1:500,000 scale representative point location digitized from the Barrington Atlas of the Greek and Roman World by the Digital Atlas of Roman and Medieval Civilizations project at Harvard University.",
        "location_precision": "precise",
        "title": "DARMC location 13742",
        "link": "http://pleiades.stoa.org/places/531002/darmc-location-13742"
      }
    }
  ]
}