{
  "type": "FeatureCollection",
  "title": "Voedros Han",
  "id": "531146",
  "bbox": [
    21.098477,
    39.208695,
    21.098477,
    39.208695
  ],
  "description": "An ancient place, cited: BAtlas 54 D3 Voedros Han",
  "features": [
    {
      "type": "Feature",
      "geometry": {
        "type": "Point",
        "coordinates": [
          21.098477,
          39.208695
        ]
      },
      "properties": {
        "description": "representative point"
      }
    },
    {
      "geometry": {
        "type": "Point",
        "coordinates": [
          21.098477,
          39.208695
        ]
      },
      "id": "darmc-location-25370",
      "type": "Feature",
      "properties": {
        "description": "1:500,000 scale representative point location digitized from the Barrington Atlas of the Greek and Roman World by the Digital Atlas of Roman and Medieval Civilizations project at Harvard University.",
        "location_precision": "precise",
        "title": "DARMC location 25370",
        "link": "http://pleiades.stoa.org/places/531146/darmc-location-25370"
      }
    }
  ]
}