{
  "type": "FeatureCollection",
  "title": "Spatharaioi",
  "id": "531101",
  "bbox": [
    20.499385,
    39.326015,
    20.499385,
    39.326015
  ],
  "description": "An ancient place, cited: BAtlas 54 B3 Spatharaioi",
  "features": [
    {
      "type": "Feature",
      "geometry": {
        "type": "Point",
        "coordinates": [
          20.499385,
          39.326015
        ]
      },
      "properties": {
        "description": "representative point"
      }
    },
    {
      "geometry": {
        "type": "Point",
        "coordinates": [
          20.499385,
          39.326015
        ]
      },
      "id": "darmc-location-14845",
      "type": "Feature",
      "properties": {
        "description": "1:500,000 scale representative point location digitized from the Barrington Atlas of the Greek and Roman World by the Digital Atlas of Roman and Medieval Civilizations project at Harvard University.",
        "location_precision": "precise",
        "title": "DARMC location 14845",
        "link": "http://pleiades.stoa.org/places/531101/darmc-location-14845"
      }
    }
  ]
}