{
  "type": "FeatureCollection",
  "title": "Zavitsa",
  "id": "531156",
  "bbox": [
    21.010763,
    38.690473,
    21.010763,
    38.690473
  ],
  "description": "An ancient place, cited: BAtlas 54 D4 Zavitsa",
  "features": [
    {
      "type": "Feature",
      "geometry": {
        "type": "Point",
        "coordinates": [
          21.010763,
          38.690473
        ]
      },
      "properties": {
        "description": "representative point"
      }
    },
    {
      "geometry": {
        "type": "Point",
        "coordinates": [
          21.010763,
          38.690473
        ]
      },
      "id": "darmc-location-8462",
      "type": "Feature",
      "properties": {
        "description": "1:500,000 scale representative point location digitized from the Barrington Atlas of the Greek and Roman World by the Digital Atlas of Roman and Medieval Civilizations project at Harvard University.",
        "location_precision": "precise",
        "title": "DARMC location 8462",
        "link": "http://pleiades.stoa.org/places/531156/darmc-location-8462"
      }
    }
  ]
}