{
  "type": "FeatureCollection",
  "title": "Vatsa",
  "id": "531138",
  "bbox": [
    20.377347,
    38.168555,
    20.377347,
    38.168555
  ],
  "description": "An ancient place, cited: BAtlas 54 B5 Vatsa",
  "features": [
    {
      "type": "Feature",
      "geometry": {
        "type": "Point",
        "coordinates": [
          20.377347,
          38.168555
        ]
      },
      "properties": {
        "description": "representative point"
      }
    },
    {
      "geometry": {
        "type": "Point",
        "coordinates": [
          20.377347,
          38.168555
        ]
      },
      "id": "darmc-location-17636",
      "type": "Feature",
      "properties": {
        "description": "1:500,000 scale representative point location digitized from the Barrington Atlas of the Greek and Roman World by the Digital Atlas of Roman and Medieval Civilizations project at Harvard University.",
        "location_precision": "precise",
        "title": "DARMC location 17636",
        "link": "http://pleiades.stoa.org/places/531138/darmc-location-17636"
      }
    }
  ]
}