{
  "type": "FeatureCollection",
  "title": "Vrosina",
  "id": "531148",
  "bbox": [
    20.524141,
    39.643947,
    20.524141,
    39.643947
  ],
  "description": "An ancient place, cited: BAtlas 54 C2 Vrosina",
  "features": [
    {
      "type": "Feature",
      "geometry": {
        "type": "Point",
        "coordinates": [
          20.524141,
          39.643947
        ]
      },
      "properties": {
        "description": "representative point"
      }
    },
    {
      "geometry": {
        "type": "Point",
        "coordinates": [
          20.524141,
          39.643947
        ]
      },
      "id": "darmc-location-8440",
      "type": "Feature",
      "properties": {
        "description": "1:500,000 scale representative point location digitized from the Barrington Atlas of the Greek and Roman World by the Digital Atlas of Roman and Medieval Civilizations project at Harvard University.",
        "location_precision": "precise",
        "title": "DARMC location 8440",
        "link": "http://pleiades.stoa.org/places/531148/darmc-location-8440"
      }
    }
  ]
}