{
  "type": "FeatureCollection",
  "title": "Roman amphitheater at Libarna",
  "id": "533171569",
  "bbox": [
    8.8675522,
    44.7063357,
    8.8675522,
    44.7063357
  ],
  "description": "The remains of the Roman amphitheater at Libarna are located in Serravalle Scrivia, Italy.",
  "connectsWith": [
    "383694"
  ],
  "features": [
    {
      "type": "Feature",
      "geometry": {
        "type": "Point",
        "coordinates": [
          8.8675522,
          44.7063357
        ]
      },
      "properties": {
        "description": "representative point"
      }
    },
    {
      "geometry": {
        "type": "LineString",
        "coordinates": [
          [
            8.8675571,
            44.7063303
          ],
          [
            8.8674974,
            44.7062831
          ],
          [
            8.8674563,
            44.7062271
          ],
          [
            8.8674469,
            44.706165
          ],
          [
            8.8674499,
            44.7061029
          ],
          [
            8.8674744,
            44.7060347
          ],
          [
            8.8675113,
            44.7059708
          ],
          [
            8.8675618,
            44.7059087
          ],
          [
            8.8676247,
            44.7058509
          ],
          [
            8.8677252,
            44.7057764
          ],
          [
            8.8678437,
            44.7057223
          ],
          [
            8.8679547,
            44.7056916
          ],
          [
            8.8680406,
            44.7056781
          ],
          [
            8.8681328,
            44.7056734
          ],
          [
            8.8682144,
            44.7056894
          ],
          [
            8.8682775,
            44.7057141
          ],
          [
            8.8683237,
            44.705759
          ],
          [
            8.8683552,
            44.7058082
          ],
          [
            8.8683707,
            44.7058693
          ],
          [
            8.8683728,
            44.7059304
          ],
          [
            8.8683424,
            44.7060314
          ],
          [
            8.8682691,
            44.7061393
          ],
          [
            8.8682169,
            44.7061893
          ],
          [
            8.8681587,
            44.7062393
          ],
          [
            8.868104,
            44.7062702
          ],
          [
            8.8680494,
            44.7063011
          ],
          [
            8.8679479,
            44.706346
          ],
          [
            8.8678529,
            44.7063729
          ],
          [
            8.8677719,
            44.7063819
          ],
          [
            8.8676849,
            44.7063778
          ],
          [
            8.8676179,
            44.7063584
          ],
          [
            8.8675571,
            44.7063303
          ]
        ]
      },
      "id": "location-of-roman-amphitheater",
      "type": "Feature",
      "properties": {
        "description": "Location based on OpenStreetMap",
        "location_precision": "precise",
        "title": "OSM location of Roman amphitheater",
        "link": "http://pleiades.stoa.org/places/533171569/location-of-roman-amphitheater"
      }
    }
  ]
}