{
  "type": "FeatureCollection",
  "title": "Falerna",
  "id": "534380454",
  "bbox": [
    13.9374944078,
    41.1860939837,
    14.0314831175,
    41.205724537
  ],
  "description": "A rural tribe of Rome, which was established in 318 B.C.",
  "connectsWith": [
    "432900",
    "432828"
  ],
  "names": [
    "Falerna"
  ],
  "features": [
    {
      "type": "Feature",
      "geometry": {
        "type": "Point",
        "coordinates": [
          13.9797761594,
          41.1958643753
        ]
      },
      "properties": {
        "description": "representative point"
      }
    }
  ]
}