{
  "type": "FeatureCollection",
  "title": "Flag Fen",
  "id": "535275912",
  "bbox": [
    -0.1894608,
    52.5747722,
    -0.1894608,
    52.5747722
  ],
  "description": "Flag Fen is a Bronze Age ritual site near Peterborough, England, comprised of 60,000 timbers arranged in five rows that connect Whittlesey Island with Peterborough. Dendrochronological evidence has dates the site to ca. 1365–967 BC.",
  "features": [
    {
      "type": "Feature",
      "geometry": {
        "type": "Point",
        "coordinates": [
          -0.1894608,
          52.5747722
        ]
      },
      "properties": {
        "description": "representative point"
      }
    },
    {
      "geometry": {
        "type": "LineString",
        "coordinates": [
          [
            -0.1894581,
            52.5747804
          ],
          [
            -0.1894125,
            52.5747298
          ],
          [
            -0.1893481,
            52.574707
          ],
          [
            -0.1892837,
            52.5746972
          ],
          [
            -0.1892159,
            52.5747039
          ],
          [
            -0.1892355,
            52.5747364
          ],
          [
            -0.1891515,
            52.5747593
          ],
          [
            -0.1891174,
            52.5747885
          ],
          [
            -0.1891228,
            52.5748407
          ],
          [
            -0.1891604,
            52.5748733
          ],
          [
            -0.1892033,
            52.5748961
          ],
          [
            -0.1892516,
            52.5749059
          ],
          [
            -0.1893159,
            52.5749059
          ],
          [
            -0.1893749,
            52.5749091
          ],
          [
            -0.1894144,
            52.5748865
          ],
          [
            -0.1893857,
            52.5748733
          ],
          [
            -0.1894071,
            52.574857
          ],
          [
            -0.1894179,
            52.5748374
          ],
          [
            -0.1894179,
            52.5748113
          ],
          [
            -0.1894125,
            52.5747918
          ],
          [
            -0.1894581,
            52.5747804
          ]
        ]
      },
      "id": "location-of-flag-fen",
      "type": "Feature",
      "properties": {
        "description": "Representative location based on OpenStreetMap.",
        "location_precision": "precise",
        "title": "OSM location of Flag Fen",
        "link": "http://pleiades.stoa.org/places/535275912/location-of-flag-fen"
      }
    }
  ]
}