{
  "type": "FeatureCollection",
  "title": "Tomb Garden of Claudia Semne",
  "id": "537932155",
  "bbox": [
    12.5150362,
    41.8552952,
    12.5160908,
    41.8559016
  ],
  "description": "Latin inscriptions unearthed in 1792 between the second and third mile of the Via Appia near S. Sebastiano identify the tomb garden complex of one Claudia Semne.",
  "connectsWith": [
    "356966898",
    "423056"
  ],
  "features": [
    {
      "type": "Feature",
      "geometry": {
        "type": "Point",
        "coordinates": [
          12.5155050176,
          41.8556144856
        ]
      },
      "properties": {
        "description": "representative point"
      }
    }
  ]
}