{
  "type": "FeatureCollection",
  "title": "Trebiates",
  "id": "53991065",
  "bbox": [
    12.7474547,
    42.8774972,
    12.7474547,
    42.8774972
  ],
  "description": "An ancient tribe of Umbria that Pliny places in the sixth Augustan region.",
  "connectsWith": [
    "699782782"
  ],
  "names": [
    "Trebiates"
  ],
  "features": [
    {
      "type": "Feature",
      "geometry": {
        "type": "Point",
        "coordinates": [
          12.7474547,
          42.8774972
        ]
      },
      "properties": {
        "description": "representative point"
      }
    }
  ]
}