{
  "type": "FeatureCollection",
  "title": "Agrinion",
  "id": "540599",
  "bbox": [
    21.3739396,
    38.6483235,
    21.3739396,
    38.6483235
  ],
  "description": "An ancient place, cited: BAtlas 55 A3 Agrinion",
  "connectsWith": [
    "540591",
    "231467659"
  ],
  "names": [
    "Agrinion"
  ],
  "features": [
    {
      "type": "Feature",
      "geometry": {
        "type": "Point",
        "coordinates": [
          21.3739396,
          38.6483235
        ]
      },
      "properties": {
        "description": "representative point"
      }
    },
    {
      "geometry": {
        "type": "Point",
        "coordinates": [
          21.3739396,
          38.6483235
        ]
      },
      "id": "osm-location-megali-chora",
      "type": "Feature",
      "properties": {
        "description": "Location based on OpenStreetMap",
        "location_precision": "precise",
        "title": "OSM Location: Μεγάλη Χώρα",
        "link": "http://pleiades.stoa.org/places/540599/osm-location-megali-chora"
      }
    }
  ]
}