{
  "type": "FeatureCollection",
  "title": "Boudoros (river)",
  "id": "540692",
  "bbox": [
    23.4719437,
    38.8346269,
    23.4719437,
    38.8346269
  ],
  "description": "The ancient river called Boudoros is associated with the Voudoros Potamos, in Euboia, Central Greece.",
  "names": [
    "Boudoros",
    "Voudoros Potamos"
  ],
  "features": [
    {
      "type": "Feature",
      "geometry": {
        "type": "Point",
        "coordinates": [
          23.4719437,
          38.8346269
        ]
      },
      "properties": {
        "description": "representative point"
      }
    },
    {
      "geometry": {
        "type": "Polygon",
        "coordinates": [
          [
            [
              23.0,
              38.5
            ],
            [
              23.0,
              39.0
            ],
            [
              23.5,
              39.0
            ],
            [
              23.5,
              38.5
            ],
            [
              23.0,
              38.5
            ]
          ]
        ]
      },
      "id": "batlas-location",
      "type": "Feature",
      "properties": {
        "description": null,
        "location_precision": "rough",
        "title": "Barrington Atlas location",
        "link": "http://pleiades.stoa.org/places/540692/batlas-location"
      }
    }
  ]
}