{
  "type": "FeatureCollection",
  "title": "Aiolidai?",
  "id": "540612",
  "bbox": [
    22.777364,
    38.454516,
    22.777364,
    38.454516
  ],
  "description": "An ancient place, cited: BAtlas 55 D4 Aiolidai?",
  "names": [
    "Aiolidai"
  ],
  "features": [
    {
      "type": "Feature",
      "geometry": {
        "type": "Point",
        "coordinates": [
          22.777364,
          38.454516
        ]
      },
      "properties": {
        "description": "representative point"
      }
    },
    {
      "geometry": {
        "type": "Point",
        "coordinates": [
          22.777364,
          38.454516
        ]
      },
      "id": "darmc-location-11261",
      "type": "Feature",
      "properties": {
        "description": "1:500,000 scale representative point location digitized from the Barrington Atlas of the Greek and Roman World by the Digital Atlas of Roman and Medieval Civilizations project at Harvard University.",
        "location_precision": "precise",
        "title": "DARMC location 11261",
        "link": "http://pleiades.stoa.org/places/540612/darmc-location-11261"
      }
    }
  ]
}