{
  "type": "FeatureCollection",
  "title": "Euenos (river)",
  "id": "540780",
  "bbox": [
    21.5176397,
    38.3236928,
    21.5194392,
    38.3288753
  ],
  "description": "The Euenos (modern Evinos) is a river of western Greece that flows into the Gulf of Patras.",
  "connectsWith": [
    "1046"
  ],
  "names": [
    "Euenos",
    "Evvenos flumen"
  ],
  "features": [
    {
      "type": "Feature",
      "geometry": {
        "type": "Point",
        "coordinates": [
          21.5184646664,
          38.32639506
        ]
      },
      "properties": {
        "description": "representative point"
      }
    },
    {
      "geometry": {
        "type": "LineString",
        "coordinates": [
          [
            21.5194392,
            38.3288753
          ],
          [
            21.5191892,
            38.3287704
          ],
          [
            21.5190218,
            38.3286828
          ],
          [
            21.5189252,
            38.3286037
          ],
          [
            21.5188666,
            38.3285253
          ],
          [
            21.5188143,
            38.3284183
          ],
          [
            21.518773,
            38.3282961
          ],
          [
            21.5187283,
            38.3280688
          ],
          [
            21.5187012,
            38.3279017
          ],
          [
            21.5186759,
            38.3275574
          ],
          [
            21.5186696,
            38.3272464
          ],
          [
            21.5186311,
            38.3268283
          ],
          [
            21.518574,
            38.3264931
          ],
          [
            21.5184474,
            38.3259894
          ],
          [
            21.5181785,
            38.3251336
          ],
          [
            21.517953,
            38.3243659
          ],
          [
            21.5178217,
            38.32402
          ],
          [
            21.5176397,
            38.3236928
          ]
        ]
      },
      "id": "osm-location-of-evinos-river",
      "type": "Feature",
      "properties": {
        "description": "Representative modern location based on OpenStreetMap.",
        "location_precision": "precise",
        "title": "OSM location of Evinos (river)",
        "link": "http://pleiades.stoa.org/places/540780/osm-location-of-evinos-river"
      }
    }
  ]
}