{
  "type": "FeatureCollection",
  "title": "Khrysovitsa",
  "id": "540866",
  "bbox": [
    21.697728,
    38.564645,
    21.697728,
    38.564645
  ],
  "description": "An ancient place, cited: BAtlas 55 B3 Khrysovitsa",
  "features": [
    {
      "type": "Feature",
      "geometry": {
        "type": "Point",
        "coordinates": [
          21.697728,
          38.564645
        ]
      },
      "properties": {
        "description": "representative point"
      }
    },
    {
      "geometry": {
        "type": "Point",
        "coordinates": [
          21.697728,
          38.564645
        ]
      },
      "id": "darmc-location-16036",
      "type": "Feature",
      "properties": {
        "description": "1:500,000 scale representative point location digitized from the Barrington Atlas of the Greek and Roman World by the Digital Atlas of Roman and Medieval Civilizations project at Harvard University.",
        "location_precision": "precise",
        "title": "DARMC location 16036",
        "link": "http://pleiades.stoa.org/places/540866/darmc-location-16036"
      }
    }
  ]
}