{
  "type": "FeatureCollection",
  "title": "Kotylaion",
  "id": "540884",
  "bbox": [
    24.037598,
    38.545224,
    24.037598,
    38.545224
  ],
  "description": "An ancient place, cited: BAtlas 55 G3 Kotylaion",
  "names": [
    "Kotylaion"
  ],
  "features": [
    {
      "type": "Feature",
      "geometry": {
        "type": "Point",
        "coordinates": [
          24.037598,
          38.545224
        ]
      },
      "properties": {
        "description": "representative point"
      }
    },
    {
      "geometry": {
        "type": "Point",
        "coordinates": [
          24.037598,
          38.545224
        ]
      },
      "id": "darmc-location-13282",
      "type": "Feature",
      "properties": {
        "description": "1:500,000 scale representative point location digitized from the Barrington Atlas of the Greek and Roman World by the Digital Atlas of Roman and Medieval Civilizations project at Harvard University.",
        "location_precision": "precise",
        "title": "DARMC location 13282",
        "link": "http://pleiades.stoa.org/places/540884/darmc-location-13282"
      }
    }
  ]
}