{
  "type": "FeatureCollection",
  "title": "Markesi",
  "id": "540934",
  "bbox": [
    24.484265,
    38.974607,
    24.484265,
    38.974607
  ],
  "description": "An ancient place, cited: BAtlas 55 G3 Markesi",
  "features": [
    {
      "type": "Feature",
      "geometry": {
        "type": "Point",
        "coordinates": [
          24.484265,
          38.974607
        ]
      },
      "properties": {
        "description": "representative point"
      }
    },
    {
      "geometry": {
        "type": "Point",
        "coordinates": [
          24.484265,
          38.974607
        ]
      },
      "id": "darmc-location-16072",
      "type": "Feature",
      "properties": {
        "description": "1:500,000 scale representative point location digitized from the Barrington Atlas of the Greek and Roman World by the Digital Atlas of Roman and Medieval Civilizations project at Harvard University.",
        "location_precision": "precise",
        "title": "DARMC location 16072",
        "link": "http://pleiades.stoa.org/places/540934/darmc-location-16072"
      }
    }
  ]
}