{
  "type": "FeatureCollection",
  "title": "Makyneia",
  "id": "540927",
  "bbox": [
    21.7229582,
    38.3550889,
    21.7257134,
    38.3563812
  ],
  "description": "An ancient place, cited: BAtlas 55 B4 Makyneia",
  "names": [
    "Makyneia",
    "Makynia"
  ],
  "features": [
    {
      "type": "Feature",
      "geometry": {
        "type": "Point",
        "coordinates": [
          21.72437563,
          38.3556957694
        ]
      },
      "properties": {
        "description": "representative point"
      }
    },
    {
      "geometry": {
        "type": "LineString",
        "coordinates": [
          [
            21.7247006,
            38.3563812
          ],
          [
            21.7251735,
            38.3563739
          ],
          [
            21.725594,
            38.3562253
          ],
          [
            21.7257134,
            38.3558596
          ],
          [
            21.7256662,
            38.3558058
          ],
          [
            21.7255417,
            38.3557317
          ],
          [
            21.7252499,
            38.3556341
          ],
          [
            21.7249752,
            38.3556341
          ],
          [
            21.724765,
            38.3555803
          ],
          [
            21.7246105,
            38.3554827
          ],
          [
            21.7244088,
            38.3552639
          ],
          [
            21.7241255,
            38.3551361
          ],
          [
            21.7235891,
            38.3550957
          ],
          [
            21.7231556,
            38.3550889
          ],
          [
            21.7230183,
            38.355126
          ],
          [
            21.7229582,
            38.3551731
          ],
          [
            21.7229582,
            38.3552303
          ],
          [
            21.7229925,
            38.3553178
          ],
          [
            21.7231599,
            38.3554894
          ],
          [
            21.723529,
            38.3556913
          ],
          [
            21.7239024,
            38.3558293
          ],
          [
            21.7241598,
            38.3558562
          ],
          [
            21.7243873,
            38.355799
          ],
          [
            21.724559,
            38.3558226
          ],
          [
            21.7246319,
            38.356011
          ],
          [
            21.7244903,
            38.3563072
          ],
          [
            21.7247006,
            38.3563812
          ]
        ]
      },
      "id": "osm-location-of-iiii-i1i-i-i-i3i1ioii-issiii-i-ii",
      "type": "Feature",
      "properties": {
        "description": "Representative location based on OpenStreetMap",
        "location_precision": "precise",
        "title": "OSM location of Αρχαιολογικός Χώρος Μακύνειας",
        "link": "http://pleiades.stoa.org/places/540927/osm-location-of-iiii-i1i-i-i-i3i1ioii-issiii-i-ii"
      }
    }
  ]
}