{
  "type": "FeatureCollection",
  "title": "Oeta (mountain)",
  "id": "540968",
  "bbox": [
    22.2550882,
    38.7920954,
    22.28333,
    38.81667
  ],
  "description": "A mountain range of southern Phthiotis and northern Phocis in Greece, Oeta is celebrated in mythology as the site of Herakles' death.",
  "names": [
    "Oeta M.",
    "Oite"
  ],
  "features": [
    {
      "type": "Feature",
      "geometry": {
        "type": "Point",
        "coordinates": [
          22.2692091,
          38.8043827
        ]
      },
      "properties": {
        "description": "representative point"
      }
    },
    {
      "geometry": {
        "type": "Point",
        "coordinates": [
          22.2550882,
          38.7920954
        ]
      },
      "id": "osm-location-of-i-iii3i-i-ioi-iiii-r-ii-ii-i",
      "type": "Feature",
      "properties": {
        "description": "Location based on OpenStreetMap",
        "location_precision": "precise",
        "title": "OSM location of Πύργος (κορυφή Οίτης)",
        "link": "http://pleiades.stoa.org/places/540968/osm-location-of-i-iii3i-i-ioi-iiii-r-ii-ii-i"
      }
    },
    {
      "geometry": {
        "type": "Point",
        "coordinates": [
          22.28333,
          38.81667
        ]
      },
      "id": "geonames-location",
      "type": "Feature",
      "properties": {
        "description": null,
        "location_precision": "precise",
        "title": "Geonames Location",
        "link": "http://pleiades.stoa.org/places/540968/geonames-location"
      }
    }
  ]
}