{
  "type": "FeatureCollection",
  "title": "Pamphia",
  "id": "541006",
  "bbox": [
    21.649946,
    38.505348,
    21.649946,
    38.505348
  ],
  "description": "An ancient place, cited: BAtlas 55 B3 Pamphia",
  "names": [
    "Pamphia"
  ],
  "features": [
    {
      "type": "Feature",
      "geometry": {
        "type": "Point",
        "coordinates": [
          21.649946,
          38.505348
        ]
      },
      "properties": {
        "description": "representative point"
      }
    },
    {
      "geometry": {
        "type": "Point",
        "coordinates": [
          21.649946,
          38.505348
        ]
      },
      "id": "darmc-location-14110",
      "type": "Feature",
      "properties": {
        "description": "1:500,000 scale representative point location digitized from the Barrington Atlas of the Greek and Roman World by the Digital Atlas of Roman and Medieval Civilizations project at Harvard University.",
        "location_precision": "precise",
        "title": "DARMC location 14110",
        "link": "http://pleiades.stoa.org/places/541006/darmc-location-14110"
      }
    }
  ]
}