{
  "type": "FeatureCollection",
  "title": "Pialeia",
  "id": "541060",
  "bbox": [
    21.625416,
    39.644775,
    21.625416,
    39.644775
  ],
  "description": "An ancient place, cited: BAtlas 55 B1 Pialeia",
  "names": [
    "Pialeia"
  ],
  "features": [
    {
      "type": "Feature",
      "geometry": {
        "type": "Point",
        "coordinates": [
          21.625416,
          39.644775
        ]
      },
      "properties": {
        "description": "representative point"
      }
    },
    {
      "geometry": {
        "type": "Point",
        "coordinates": [
          21.625416,
          39.644775
        ]
      },
      "id": "darmc-location-14279",
      "type": "Feature",
      "properties": {
        "description": "1:500,000 scale representative point location digitized from the Barrington Atlas of the Greek and Roman World by the Digital Atlas of Roman and Medieval Civilizations project at Harvard University.",
        "location_precision": "precise",
        "title": "DARMC location 14279",
        "link": "http://pleiades.stoa.org/places/541060/darmc-location-14279"
      }
    }
  ]
}