{
  "type": "FeatureCollection",
  "title": "Prophitis Elias",
  "id": "541075",
  "bbox": [
    22.448292,
    38.504641,
    22.448292,
    38.504641
  ],
  "description": "An ancient place, cited: BAtlas 55 C3 Prophitis Elias",
  "features": [
    {
      "type": "Feature",
      "geometry": {
        "type": "Point",
        "coordinates": [
          22.448292,
          38.504641
        ]
      },
      "properties": {
        "description": "representative point"
      }
    },
    {
      "geometry": {
        "type": "Point",
        "coordinates": [
          22.448292,
          38.504641
        ]
      },
      "id": "darmc-location-19055",
      "type": "Feature",
      "properties": {
        "description": "1:500,000 scale representative point location digitized from the Barrington Atlas of the Greek and Roman World by the Digital Atlas of Roman and Medieval Civilizations project at Harvard University.",
        "location_precision": "precise",
        "title": "DARMC location 19055",
        "link": "http://pleiades.stoa.org/places/541075/darmc-location-19055"
      }
    }
  ]
}