{
  "type": "FeatureCollection",
  "title": "Tripolis Larisaia",
  "id": "541165",
  "bbox": [
    22.554874,
    39.615134,
    22.554874,
    39.615134
  ],
  "description": "An ancient place, cited: BAtlas 55 D1 Tripolis Larisaia",
  "names": [
    "Tripolis Larisaia"
  ],
  "features": [
    {
      "type": "Feature",
      "geometry": {
        "type": "Point",
        "coordinates": [
          22.554874,
          39.615134
        ]
      },
      "properties": {
        "description": "representative point"
      }
    },
    {
      "geometry": {
        "type": "Point",
        "coordinates": [
          22.554874,
          39.615134
        ]
      },
      "id": "darmc-location-10247",
      "type": "Feature",
      "properties": {
        "description": "1:500,000 scale representative point location digitized from the Barrington Atlas of the Greek and Roman World by the Digital Atlas of Roman and Medieval Civilizations project at Harvard University.",
        "location_precision": "precise",
        "title": "DARMC location 10247",
        "link": "http://pleiades.stoa.org/places/541165/darmc-location-10247"
      }
    }
  ]
}