{
  "type": "FeatureCollection",
  "title": "Spalauthra",
  "id": "541110",
  "bbox": [
    23.225085,
    39.183477,
    23.225085,
    39.183477
  ],
  "description": "An ancient place, cited: BAtlas 55 E2 Spalauthra",
  "connectsWith": [
    "540923"
  ],
  "names": [
    "Spalauthra"
  ],
  "features": [
    {
      "type": "Feature",
      "geometry": {
        "type": "Point",
        "coordinates": [
          23.225085,
          39.183477
        ]
      },
      "properties": {
        "description": "representative point"
      }
    },
    {
      "geometry": {
        "type": "Point",
        "coordinates": [
          23.225085,
          39.183477
        ]
      },
      "id": "darmc-location-14840",
      "type": "Feature",
      "properties": {
        "description": "1:500,000 scale representative point location digitized from the Barrington Atlas of the Greek and Roman World by the Digital Atlas of Roman and Medieval Civilizations project at Harvard University.",
        "location_precision": "precise",
        "title": "DARMC location 14840",
        "link": "http://pleiades.stoa.org/places/541110/darmc-location-14840"
      }
    }
  ]
}