{
  "type": "FeatureCollection",
  "title": "Cross dyke and bowl barrow on the northern spur of Beacon Hill",
  "id": "542003616",
  "bbox": [
    -1.348282,
    51.3155575,
    -1.3462489,
    51.3162528
  ],
  "description": "A cross dyke in Burghclere, Basingstoke and Deane, England, United Kingdom.",
  "connectsWith": [
    "245109546"
  ],
  "features": [
    {
      "type": "Feature",
      "geometry": {
        "type": "Point",
        "coordinates": [
          -1.34726760891,
          51.3159754457
        ]
      },
      "properties": {
        "description": "representative point"
      }
    },
    {
      "geometry": {
        "type": "LineString",
        "coordinates": [
          [
            -1.3476068,
            51.3157805
          ],
          [
            -1.3475639,
            51.3158777
          ],
          [
            -1.3475371,
            51.3159699
          ],
          [
            -1.3482398,
            51.3161342
          ],
          [
            -1.3482546,
            51.3161443
          ],
          [
            -1.3482733,
            51.3161627
          ],
          [
            -1.348282,
            51.3161807
          ],
          [
            -1.3482807,
            51.3161908
          ],
          [
            -1.348274,
            51.3162092
          ],
          [
            -1.3482552,
            51.3162239
          ],
          [
            -1.3482284,
            51.3162339
          ],
          [
            -1.3481922,
            51.3162461
          ],
          [
            -1.3481473,
            51.3162528
          ],
          [
            -1.3477322,
            51.3161694
          ],
          [
            -1.3476705,
            51.3161694
          ],
          [
            -1.3476276,
            51.3161811
          ],
          [
            -1.3475766,
            51.3161979
          ],
          [
            -1.3475364,
            51.3162113
          ],
          [
            -1.3474935,
            51.3162365
          ],
          [
            -1.3462865,
            51.3160068
          ],
          [
            -1.3462597,
            51.3159967
          ],
          [
            -1.3462489,
            51.3159749
          ],
          [
            -1.3463106,
            51.315819
          ],
          [
            -1.3463374,
            51.3158073
          ],
          [
            -1.346375,
            51.3158073
          ],
          [
            -1.3469141,
            51.3158995
          ],
          [
            -1.347016,
            51.3156514
          ],
          [
            -1.3470375,
            51.3156145
          ],
          [
            -1.3470911,
            51.3155893
          ],
          [
            -1.3471341,
            51.3155709
          ],
          [
            -1.3472118,
            51.3155575
          ],
          [
            -1.347295,
            51.3155575
          ],
          [
            -1.3473647,
            51.3155608
          ],
          [
            -1.3474157,
            51.3155709
          ],
          [
            -1.3474774,
            51.315591
          ],
          [
            -1.347523,
            51.3156095
          ],
          [
            -1.3475874,
            51.3156564
          ],
          [
            -1.3476115,
            51.3157101
          ],
          [
            -1.3476222,
            51.3157419
          ],
          [
            -1.3476068,
            51.3157805
          ]
        ]
      },
      "id": "osm-location-of-a-cross-dyke-and-bowl-barrow-on",
      "type": "Feature",
      "properties": {
        "description": "Representative location based on OpenStreetMap",
        "location_precision": "precise",
        "title": "OSM location of  A cross dyke and bowl barrow on the northern spur of Beacon Hill",
        "link": "http://pleiades.stoa.org/places/542003616/osm-location-of-a-cross-dyke-and-bowl-barrow-on"
      }
    }
  ]
}