{
  "type": "FeatureCollection",
  "title": "Olenon",
  "id": "543815",
  "bbox": [
    21.4485048432,
    38.6866474351,
    22.0288553825,
    38.7094902607
  ],
  "description": "An ancient settlement, attested by literary or documentary sources, whose precise location cannot be determined today",
  "connectsWith": [
    "540591"
  ],
  "names": [
    "Olenon"
  ],
  "features": [
    {
      "type": "Feature",
      "geometry": {
        "type": "Point",
        "coordinates": [
          21.7417487061,
          38.699138018
        ]
      },
      "properties": {
        "description": "representative point"
      }
    },
    {
      "geometry": null,
      "id": "batlas-location",
      "type": "Feature",
      "properties": {
        "description": null,
        "location_precision": "unlocated",
        "title": "Barrington Atlas location",
        "link": "http://pleiades.stoa.org/places/543815/batlas-location"
      }
    }
  ]
}