{
  "type": "FeatureCollection",
  "title": "Farfa Abbey",
  "id": "543871523",
  "bbox": [
    12.717939,
    42.2210431,
    12.7194885,
    42.2222291
  ],
  "description": "A Benedictine abbey located ca. 60 km from Rome.",
  "names": [
    "Abbazia di Farfa"
  ],
  "features": [
    {
      "type": "Feature",
      "geometry": {
        "type": "Point",
        "coordinates": [
          12.7187159012,
          42.2216596962
        ]
      },
      "properties": {
        "description": "representative point"
      }
    },
    {
      "geometry": {
        "type": "MultiLineString",
        "coordinates": [
          [
            [
              12.7184834,
              42.2220765
            ],
            [
              12.7183467,
              42.2219673
            ],
            [
              12.7185066,
              42.2218527
            ],
            [
              12.7186432,
              42.2219568
            ],
            [
              12.7184834,
              42.2220765
            ]
          ],
          [
            [
              12.7185348,
              42.221801
            ],
            [
              12.7184965,
              42.2217867
            ],
            [
              12.7182371,
              42.2219752
            ],
            [
              12.7182063,
              42.2219522
            ],
            [
              12.7181585,
              42.2219849
            ],
            [
              12.7181292,
              42.2219572
            ],
            [
              12.7181403,
              42.2219485
            ],
            [
              12.7181379,
              42.221947
            ],
            [
              12.7181247,
              42.2219373
            ],
            [
              12.7180695,
              42.2218889
            ],
            [
              12.7181515,
              42.2218306
            ],
            [
              12.7180638,
              42.2217589
            ],
            [
              12.717939,
              42.221844
            ],
            [
              12.7180227,
              42.2219101
            ],
            [
              12.7180081,
              42.2219183
            ],
            [
              12.7183428,
              42.2221854
            ],
            [
              12.7184408,
              42.2221297
            ],
            [
              12.7185706,
              42.2222291
            ],
            [
              12.7189832,
              42.2219081
            ],
            [
              12.7190941,
              42.2219745
            ],
            [
              12.7191432,
              42.2219304
            ],
            [
              12.7190503,
              42.221863
            ],
            [
              12.7192285,
              42.2217284
            ],
            [
              12.7193137,
              42.2216634
            ],
            [
              12.7193743,
              42.2216817
            ],
            [
              12.7194885,
              42.2215523
            ],
            [
              12.7194126,
              42.2215124
            ],
            [
              12.7193261,
              42.2215518
            ],
            [
              12.7192469,
              42.2214981
            ],
            [
              12.7190786,
              42.2216316
            ],
            [
              12.7187393,
              42.2214115
            ],
            [
              12.718668,
              42.2214653
            ],
            [
              12.7185083,
              42.2213494
            ],
            [
              12.7187684,
              42.221156
            ],
            [
              12.7189731,
              42.2212939
            ],
            [
              12.7189413,
              42.2213246
            ],
            [
              12.7192088,
              42.2214936
            ],
            [
              12.719259,
              42.2214519
            ],
            [
              12.7191467,
              42.2213318
            ],
            [
              12.7191525,
              42.2213264
            ],
            [
              12.7190514,
              42.2212134
            ],
            [
              12.7187981,
              42.2210431
            ],
            [
              12.7183092,
              42.2213964
            ],
            [
              12.7183709,
              42.221441
            ],
            [
              12.7184321,
              42.2214036
            ],
            [
              12.7186138,
              42.2215448
            ],
            [
              12.7186345,
              42.2215281
            ],
            [
              12.7187144,
              42.2215864
            ],
            [
              12.7187828,
              42.2215354
            ],
            [
              12.7188444,
              42.2215852
            ],
            [
              12.7186667,
              42.2217073
            ],
            [
              12.7187076,
              42.2217411
            ],
            [
              12.7188638,
              42.2216293
            ],
            [
              12.7189815,
              42.2217152
            ],
            [
              12.7188156,
              42.2218398
            ],
            [
              12.7187245,
              42.2217785
            ],
            [
              12.7187116,
              42.2217923
            ],
            [
              12.7186694,
              42.2218164
            ],
            [
              12.7186425,
              42.221817
            ],
            [
              12.7186055,
              42.2218091
            ],
            [
              12.7185694,
              42.2217838
            ],
            [
              12.7185348,
              42.221801
            ]
          ]
        ]
      },
      "id": "osm-location-of-abbazia-di-farfa",
      "type": "Feature",
      "properties": {
        "description": "Representative location based on OpenStreetMap",
        "location_precision": "precise",
        "title": "OSM location of Abbazia di Farfa",
        "link": "http://pleiades.stoa.org/places/543871523/osm-location-of-abbazia-di-farfa"
      }
    }
  ]
}