{
  "type": "FeatureCollection",
  "title": "Stoa at Lokroi Epizephyrioi",
  "id": "544711870",
  "bbox": [
    16.2371278,
    38.2074204,
    16.238308,
    38.208529
  ],
  "description": "A large U-shaped stoa dating to the seventh and sixth centuries BCE.",
  "connectsWith": [
    "452369"
  ],
  "features": [
    {
      "type": "Feature",
      "geometry": {
        "type": "Point",
        "coordinates": [
          16.2377231357,
          38.2079670709
        ]
      },
      "properties": {
        "description": "representative point"
      }
    },
    {
      "geometry": {
        "type": "LineString",
        "coordinates": [
          [
            16.2376642,
            38.208529
          ],
          [
            16.2375248,
            38.208411
          ],
          [
            16.2375891,
            38.2083351
          ],
          [
            16.2371278,
            38.2078335
          ],
          [
            16.237852,
            38.2074204
          ],
          [
            16.238308,
            38.2079431
          ],
          [
            16.2378037,
            38.2082129
          ],
          [
            16.2379107,
            38.2083806
          ],
          [
            16.2376642,
            38.208529
          ]
        ]
      },
      "id": "stoa",
      "type": "Feature",
      "properties": {
        "description": "Representative location based on OpenStreetMap",
        "location_precision": "precise",
        "title": "OSM location of Locri - stoa ad U",
        "link": "http://pleiades.stoa.org/places/544711870/stoa"
      }
    }
  ]
}