{
  "type": "FeatureCollection",
  "title": "La Pared de los Moros",
  "id": "545419657",
  "bbox": [
    -0.8218771,
    41.018808,
    -0.8212522,
    41.0190529
  ],
  "description": "A Roman gravity dam dating to the third century.",
  "features": [
    {
      "type": "Feature",
      "geometry": {
        "type": "Point",
        "coordinates": [
          -0.821577381765,
          41.0188905286
        ]
      },
      "properties": {
        "description": "representative point"
      }
    },
    {
      "geometry": {
        "type": "LineString",
        "coordinates": [
          [
            -0.8218771,
            41.0190529
          ],
          [
            -0.8216921,
            41.0189193
          ],
          [
            -0.8216196,
            41.0188809
          ],
          [
            -0.8214909,
            41.0188182
          ],
          [
            -0.8214292,
            41.018808
          ],
          [
            -0.8213675,
            41.0188182
          ],
          [
            -0.8213246,
            41.0188384
          ],
          [
            -0.8212522,
            41.0188303
          ]
        ]
      },
      "id": "location-of-roman-dam",
      "type": "Feature",
      "properties": {
        "description": "Representative location based on OpenStreetMap",
        "location_precision": "precise",
        "title": "OSM location of La Pared de los Moros",
        "link": "http://pleiades.stoa.org/places/545419657/location-of-roman-dam"
      }
    }
  ]
}