{
  "type": "FeatureCollection",
  "title": "The Ridgeway",
  "id": "548806092",
  "bbox": [
    -1.3975596,
    51.5546592,
    -1.3851613,
    51.5584293
  ],
  "description": "The Ridgeway is an ancient trackway that runs from Wiltshire along the chalk ridge of the Berkshire Downs to the River Thames in England.",
  "features": [
    {
      "type": "Feature",
      "geometry": {
        "type": "Point",
        "coordinates": [
          -1.39134584841,
          51.5564883902
        ]
      },
      "properties": {
        "description": "representative point"
      }
    },
    {
      "geometry": {
        "type": "LineString",
        "coordinates": [
          [
            -1.3975596,
            51.5546592
          ],
          [
            -1.3974739,
            51.5546797
          ],
          [
            -1.3960168,
            51.5550391
          ],
          [
            -1.3959081,
            51.5550567
          ],
          [
            -1.3957248,
            51.5551233
          ],
          [
            -1.3952191,
            51.5552145
          ],
          [
            -1.394981,
            51.5552812
          ],
          [
            -1.3946427,
            51.5553811
          ],
          [
            -1.3944955,
            51.5554192
          ],
          [
            -1.3938014,
            51.5556434
          ],
          [
            -1.3935417,
            51.5557202
          ],
          [
            -1.3932756,
            51.555816
          ],
          [
            -1.3927637,
            51.5560318
          ],
          [
            -1.3921478,
            51.5562782
          ],
          [
            -1.3918469,
            51.5563932
          ],
          [
            -1.3915664,
            51.5564969
          ],
          [
            -1.3912575,
            51.5565727
          ],
          [
            -1.3909444,
            51.5566789
          ],
          [
            -1.3905228,
            51.5568
          ],
          [
            -1.390205,
            51.5568445
          ],
          [
            -1.3901694,
            51.5568481
          ],
          [
            -1.3901237,
            51.5568578
          ],
          [
            -1.3898711,
            51.5569241
          ],
          [
            -1.3894333,
            51.5570728
          ],
          [
            -1.3885013,
            51.5573717
          ],
          [
            -1.3876362,
            51.5576272
          ],
          [
            -1.3867963,
            51.5578992
          ],
          [
            -1.3860514,
            51.5581631
          ],
          [
            -1.3857964,
            51.55825
          ],
          [
            -1.3853416,
            51.5583895
          ],
          [
            -1.3851613,
            51.5584293
          ]
        ]
      },
      "id": "location-of-the-ridgeway",
      "type": "Feature",
      "properties": {
        "description": "Representative location based on OpenStreetMap.",
        "location_precision": "precise",
        "title": "OSM location of The Ridgeway",
        "link": "http://pleiades.stoa.org/places/548806092/location-of-the-ridgeway"
      }
    }
  ]
}