{
  "type": "FeatureCollection",
  "title": "Halonessos (island)",
  "id": "550563",
  "bbox": [
    26.4280736,
    38.1934553,
    26.433996,
    38.1985249
  ],
  "description": "An ancient place, cited: BAtlas 56 C5 Halonessos Ins.",
  "names": [
    "Halonessos"
  ],
  "features": [
    {
      "type": "Feature",
      "geometry": {
        "type": "Point",
        "coordinates": [
          26.4307181466,
          38.1952461309
        ]
      },
      "properties": {
        "description": "representative point"
      }
    },
    {
      "geometry": {
        "type": "LineString",
        "coordinates": [
          [
            26.432109,
            38.1985249
          ],
          [
            26.4320943,
            38.1984754
          ],
          [
            26.4321533,
            38.1982435
          ],
          [
            26.4321747,
            38.1980074
          ],
          [
            26.4321586,
            38.1977882
          ],
          [
            26.4320621,
            38.1976343
          ],
          [
            26.4319172,
            38.1975458
          ],
          [
            26.4317268,
            38.1975184
          ],
          [
            26.4316302,
            38.1974847
          ],
          [
            26.4314452,
            38.1973582
          ],
          [
            26.4313486,
            38.1972233
          ],
          [
            26.4310992,
            38.1969724
          ],
          [
            26.4310107,
            38.1968881
          ],
          [
            26.4309436,
            38.1968523
          ],
          [
            26.4308417,
            38.1966499
          ],
          [
            26.4307424,
            38.1964982
          ],
          [
            26.4305547,
            38.1963464
          ],
          [
            26.4301738,
            38.196182
          ],
          [
            26.4300236,
            38.1961567
          ],
          [
            26.4295837,
            38.1959512
          ],
          [
            26.4294952,
            38.1958774
          ],
          [
            26.4294805,
            38.1958089
          ],
          [
            26.4294282,
            38.1957498
          ],
          [
            26.429337,
            38.1957119
          ],
          [
            26.4291358,
            38.1956634
          ],
          [
            26.4290365,
            38.1956381
          ],
          [
            26.4287335,
            38.1954632
          ],
          [
            26.428484,
            38.195284
          ],
          [
            26.428358,
            38.1952397
          ],
          [
            26.4282989,
            38.1952429
          ],
          [
            26.4282265,
            38.195226
          ],
          [
            26.4281282,
            38.195167
          ],
          [
            26.428087,
            38.1951248
          ],
          [
            26.4280736,
            38.1950374
          ],
          [
            26.4281206,
            38.1949604
          ],
          [
            26.4282761,
            38.1948887
          ],
          [
            26.4284854,
            38.1948329
          ],
          [
            26.4288407,
            38.1946632
          ],
          [
            26.4289065,
            38.1946474
          ],
          [
            26.4291385,
            38.1946537
          ],
          [
            26.4291948,
            38.1946484
          ],
          [
            26.4292538,
            38.19462
          ],
          [
            26.429286,
            38.1945757
          ],
          [
            26.4293209,
            38.1945441
          ],
          [
            26.4293839,
            38.1945325
          ],
          [
            26.4295126,
            38.1945346
          ],
          [
            26.4295291,
            38.1945422
          ],
          [
            26.4295341,
            38.194552
          ],
          [
            26.4295448,
            38.1946142
          ],
          [
            26.4295737,
            38.1946342
          ],
          [
            26.4296119,
            38.19464
          ],
          [
            26.4297742,
            38.1945905
          ],
          [
            26.4297876,
            38.1945773
          ],
          [
            26.4297882,
            38.194523
          ],
          [
            26.429799,
            38.194513
          ],
          [
            26.4303991,
            38.1942996
          ],
          [
            26.4304461,
            38.1942774
          ],
          [
            26.4304635,
            38.1942458
          ],
          [
            26.4305051,
            38.1941362
          ],
          [
            26.4305587,
            38.1940561
          ],
          [
            26.4306157,
            38.1940118
          ],
          [
            26.4307035,
            38.1939981
          ],
          [
            26.430835,
            38.1939992
          ],
          [
            26.4308839,
            38.193986
          ],
          [
            26.4309128,
            38.1939686
          ],
          [
            26.4309503,
            38.1938695
          ],
          [
            26.4309952,
            38.1938374
          ],
          [
            26.431067,
            38.1938305
          ],
          [
            26.4311421,
            38.19386
          ],
          [
            26.4311823,
            38.1939844
          ],
          [
            26.4312789,
            38.1940413
          ],
          [
            26.4313781,
            38.1940434
          ],
          [
            26.4315444,
            38.1939264
          ],
          [
            26.4321023,
            38.193684
          ],
          [
            26.4321788,
            38.1936798
          ],
          [
            26.4323491,
            38.1935997
          ],
          [
            26.432502,
            38.1935438
          ],
          [
            26.4326321,
            38.1935354
          ],
          [
            26.4329486,
            38.1935512
          ],
          [
            26.4331417,
            38.1935828
          ],
          [
            26.433202,
            38.193605
          ],
          [
            26.4332503,
            38.1935944
          ],
          [
            26.4332879,
            38.1935755
          ],
          [
            26.4334206,
            38.1934658
          ],
          [
            26.4334468,
            38.1934553
          ],
          [
            26.4334857,
            38.1934579
          ],
          [
            26.4335427,
            38.1934806
          ],
          [
            26.4336996,
            38.1935744
          ],
          [
            26.4337599,
            38.193586
          ],
          [
            26.4339302,
            38.1935755
          ],
          [
            26.433996,
            38.1935839
          ]
        ]
      },
      "id": "location-of-carufa-adas131",
      "type": "Feature",
      "properties": {
        "description": "Location based on OpenStreetMap",
        "location_precision": "precise",
        "title": "OSM location of Çarufa Adası",
        "link": "http://pleiades.stoa.org/places/550563/location-of-carufa-adas131"
      }
    }
  ]
}