{
  "type": "FeatureCollection",
  "title": "Khydera",
  "id": "550639",
  "bbox": [
    26.042518,
    39.206879,
    26.042518,
    39.206879
  ],
  "description": "An ancient place, cited: BAtlas 56 C3 Khydera",
  "features": [
    {
      "type": "Feature",
      "geometry": {
        "type": "Point",
        "coordinates": [
          26.042518,
          39.206879
        ]
      },
      "properties": {
        "description": "representative point"
      }
    },
    {
      "geometry": {
        "type": "Point",
        "coordinates": [
          26.042518,
          39.206879
        ]
      },
      "id": "darmc-location-7103",
      "type": "Feature",
      "properties": {
        "description": "1:500,000 scale representative point location digitized from the Barrington Atlas of the Greek and Roman World by the Digital Atlas of Roman and Medieval Civilizations project at Harvard University.",
        "location_precision": "precise",
        "title": "DARMC location 7103",
        "link": "http://pleiades.stoa.org/places/550639/darmc-location-7103"
      }
    }
  ]
}