{
  "type": "FeatureCollection",
  "title": "Koryphas",
  "id": "550667",
  "bbox": [
    26.782977,
    39.355929,
    26.782977,
    39.355929
  ],
  "description": "Koryphas was a coastal settlement of Aeolis, located opposite Lesbos. The Mytilenaeans founded the settlement. Pliny the Elder mentions the site three times, including it in a comparative discussion of the quality of oysters sourced from various places in the Roman world.",
  "names": [
    "Koryphas",
    "Corifanio",
    "Coryphas oppidum"
  ],
  "features": [
    {
      "type": "Feature",
      "geometry": {
        "type": "Point",
        "coordinates": [
          26.782977,
          39.355929
        ]
      },
      "properties": {
        "description": "representative point"
      }
    },
    {
      "geometry": {
        "type": "Point",
        "coordinates": [
          26.782977,
          39.355929
        ]
      },
      "id": "darmc-location-10099",
      "type": "Feature",
      "properties": {
        "description": "1:500,000 scale representative point location digitized from the Barrington Atlas of the Greek and Roman World by the Digital Atlas of Roman and Medieval Civilizations project at Harvard University.",
        "location_precision": "precise",
        "title": "DARMC location 10099",
        "link": "http://pleiades.stoa.org/places/550667/darmc-location-10099"
      }
    }
  ]
}