{
  "type": "FeatureCollection",
  "title": "Lesbos (island)",
  "id": "550696",
  "bbox": [
    25.856468,
    38.975668,
    26.611272,
    40.2138333
  ],
  "description": "Lesbos is an island of the northeastern Aegean Sea and was named for the son of Lapithos, the descendant of Deucalion and Helen.",
  "connectsWith": [
    "560221"
  ],
  "names": [
    "Lesbos",
    "Nísos Lésvos",
    "Lesbos",
    "Lesbo",
    "Midilli",
    "Cezīre-i Midilli",
    "Midilli Cezīresi"
  ],
  "features": [
    {
      "type": "Feature",
      "geometry": {
        "type": "Point",
        "coordinates": [
          26.2374755401,
          39.1774570221
        ]
      },
      "properties": {
        "description": "representative point"
      }
    }
  ]
}