{
  "type": "FeatureCollection",
  "title": "Kybelaia",
  "id": "550673",
  "bbox": [
    26.358056,
    38.610607,
    26.358056,
    38.610607
  ],
  "description": "An ancient place, cited: BAtlas 56 C4 Kybelaia",
  "names": [
    "Kybelaia"
  ],
  "features": [
    {
      "type": "Feature",
      "geometry": {
        "type": "Point",
        "coordinates": [
          26.358056,
          38.610607
        ]
      },
      "properties": {
        "description": "representative point"
      }
    },
    {
      "geometry": {
        "type": "Point",
        "coordinates": [
          26.358056,
          38.610607
        ]
      },
      "id": "darmc-location-10107",
      "type": "Feature",
      "properties": {
        "description": "1:500,000 scale representative point location digitized from the Barrington Atlas of the Greek and Roman World by the Digital Atlas of Roman and Medieval Civilizations project at Harvard University.",
        "location_precision": "precise",
        "title": "DARMC location 10107",
        "link": "http://pleiades.stoa.org/places/550673/darmc-location-10107"
      }
    }
  ]
}