{
  "type": "FeatureCollection",
  "title": "Khontro Bigli",
  "id": "550638",
  "bbox": [
    26.099211,
    39.145427,
    26.099211,
    39.145427
  ],
  "description": "An ancient place, cited: BAtlas 56 C3 Khontro Bigli",
  "connectsWith": [
    "550696"
  ],
  "features": [
    {
      "type": "Feature",
      "geometry": {
        "type": "Point",
        "coordinates": [
          26.099211,
          39.145427
        ]
      },
      "properties": {
        "description": "representative point"
      }
    },
    {
      "geometry": {
        "type": "Point",
        "coordinates": [
          26.099211,
          39.145427
        ]
      },
      "id": "darmc-location-16033",
      "type": "Feature",
      "properties": {
        "description": "1:500,000 scale representative point location digitized from the Barrington Atlas of the Greek and Roman World by the Digital Atlas of Roman and Medieval Civilizations project at Harvard University.",
        "location_precision": "precise",
        "title": "DARMC location 16033",
        "link": "http://pleiades.stoa.org/places/550638/darmc-location-16033"
      }
    }
  ]
}