{
  "type": "FeatureCollection",
  "title": "Metokhi",
  "id": "550739",
  "bbox": [
    25.960923,
    38.427718,
    25.960923,
    38.427718
  ],
  "description": "An ancient place, cited: BAtlas 56 B5 Metokhi",
  "connectsWith": [
    "550497"
  ],
  "features": [
    {
      "type": "Feature",
      "geometry": {
        "type": "Point",
        "coordinates": [
          25.960923,
          38.427718
        ]
      },
      "properties": {
        "description": "representative point"
      }
    },
    {
      "geometry": {
        "type": "Point",
        "coordinates": [
          25.960923,
          38.427718
        ]
      },
      "id": "darmc-location-4814",
      "type": "Feature",
      "properties": {
        "description": "1:500,000 scale representative point location digitized from the Barrington Atlas of the Greek and Roman World by the Digital Atlas of Roman and Medieval Civilizations project at Harvard University.",
        "location_precision": "precise",
        "title": "DARMC location 4814",
        "link": "http://pleiades.stoa.org/places/550739/darmc-location-4814"
      }
    }
  ]
}