{
  "type": "FeatureCollection",
  "title": "*Lora/Flaviopolis",
  "id": "550700",
  "bbox": [
    28.111299,
    38.846465,
    28.111299,
    38.846465
  ],
  "description": "An ancient place, cited: BAtlas 56 G4 *Lora/Flaviopolis",
  "names": [
    "Lora",
    "Flaviopolis"
  ],
  "features": [
    {
      "type": "Feature",
      "geometry": {
        "type": "Point",
        "coordinates": [
          28.111299,
          38.846465
        ]
      },
      "properties": {
        "description": "representative point"
      }
    },
    {
      "geometry": {
        "type": "Point",
        "coordinates": [
          28.111299,
          38.846465
        ]
      },
      "id": "darmc-location-13526",
      "type": "Feature",
      "properties": {
        "description": "1:500,000 scale representative point location digitized from the Barrington Atlas of the Greek and Roman World by the Digital Atlas of Roman and Medieval Civilizations project at Harvard University.",
        "location_precision": "precise",
        "title": "DARMC location 13526",
        "link": "http://pleiades.stoa.org/places/550700/darmc-location-13526"
      }
    }
  ]
}