{
  "type": "FeatureCollection",
  "title": "Pele (island)",
  "id": "550807",
  "bbox": [
    26.7619267,
    38.4375618,
    26.7619267,
    38.4375618
  ],
  "description": "An ancient island, probably to be associated with the modern Hekim Adası.",
  "names": [
    "Pele",
    "Hekim Adası"
  ],
  "features": [
    {
      "type": "Feature",
      "geometry": {
        "type": "Point",
        "coordinates": [
          26.7619267,
          38.4375618
        ]
      },
      "properties": {
        "description": "representative point"
      }
    },
    {
      "geometry": {
        "type": "LineString",
        "coordinates": [
          [
            26.7607934,
            38.4381626
          ],
          [
            26.7619267,
            38.4375618
          ],
          [
            26.7622356,
            38.4373022
          ],
          [
            26.762353,
            38.436941
          ],
          [
            26.7622524,
            38.436514
          ],
          [
            26.7628058,
            38.4359755
          ],
          [
            26.7635186,
            38.4357784
          ],
          [
            26.7638707,
            38.435693
          ],
          [
            26.7638875,
            38.4355223
          ],
          [
            26.7641055,
            38.4354828
          ],
          [
            26.7642648,
            38.4356668
          ],
          [
            26.7645248,
            38.4356208
          ],
          [
            26.7651872,
            38.4358704
          ],
          [
            26.7654639,
            38.4358966
          ],
          [
            26.7661347,
            38.4363104
          ],
          [
            26.7667636,
            38.4367505
          ],
          [
            26.7673003,
            38.4375124
          ],
          [
            26.7679124,
            38.4380247
          ],
          [
            26.7685832,
            38.4384056
          ],
          [
            26.7711323,
            38.4391544
          ],
          [
            26.7720379,
            38.4393186
          ],
          [
            26.7730861,
            38.4397323
          ],
          [
            26.7751069,
            38.4404417
          ],
          [
            26.7757274,
            38.4407372
          ],
          [
            26.7757525,
            38.441302
          ],
          [
            26.7759789,
            38.4422084
          ],
          [
            26.7758112,
            38.4427666
          ],
          [
            26.775132,
            38.4439684
          ],
          [
            26.7749392,
            38.4444479
          ],
          [
            26.7744444,
            38.4452294
          ],
          [
            26.7743019,
            38.4455512
          ],
          [
            26.7743774,
            38.4459846
          ],
          [
            26.7746373,
            38.4462801
          ],
          [
            26.7736646,
            38.4465691
          ],
          [
            26.772977,
            38.4471733
          ],
          [
            26.7724991,
            38.4475739
          ],
          [
            26.7719457,
            38.4478365
          ],
          [
            26.7714929,
            38.4483882
          ],
          [
            26.7714342,
            38.4490646
          ],
          [
            26.7718367,
            38.4500102
          ],
          [
            26.7721134,
            38.4512973
          ],
          [
            26.7723398,
            38.4516191
          ],
          [
            26.7727423,
            38.4519802
          ],
          [
            26.7728932,
            38.4524596
          ],
          [
            26.7725746,
            38.4531754
          ],
          [
            26.7716522,
            38.4537926
          ],
          [
            26.7713503,
            38.4541144
          ],
          [
            26.7710317,
            38.4543442
          ],
          [
            26.7705873,
            38.4543311
          ],
          [
            26.7699165,
            38.4541603
          ],
          [
            26.7681723,
            38.4541997
          ],
          [
            26.7676525,
            38.4545346
          ],
          [
            26.7675015,
            38.4549811
          ],
          [
            26.7668307,
            38.4552504
          ],
          [
            26.7664785,
            38.4551519
          ],
          [
            26.7652208,
            38.454272
          ],
          [
            26.7644912,
            38.4541406
          ],
          [
            26.764072,
            38.4542851
          ],
          [
            26.7637785,
            38.4544887
          ],
          [
            26.7633676,
            38.4545543
          ],
          [
            26.7629987,
            38.454423
          ],
          [
            26.7626213,
            38.4545412
          ],
          [
            26.7624369,
            38.454423
          ],
          [
            26.7618248,
            38.4544164
          ],
          [
            26.7616235,
            38.4543245
          ],
          [
            26.7615397,
            38.4541012
          ],
          [
            26.7611539,
            38.454075
          ],
          [
            26.7608688,
            38.4538189
          ],
          [
            26.7605418,
            38.4539568
          ],
          [
            26.7602903,
            38.4539305
          ],
          [
            26.7598459,
            38.4537204
          ],
          [
            26.7599297,
            38.4534971
          ],
          [
            26.7601813,
            38.4533133
          ],
          [
            26.7599549,
            38.4529324
          ],
          [
            26.7599632,
            38.4526632
          ],
          [
            26.7597201,
            38.4526632
          ],
          [
            26.7596111,
            38.4523283
          ],
          [
            26.7598542,
            38.4519474
          ],
          [
            26.7597368,
            38.4512119
          ],
          [
            26.7596362,
            38.4510806
          ],
          [
            26.7597368,
            38.4496425
          ],
          [
            26.7597872,
            38.4487822
          ],
          [
            26.7597788,
            38.4481058
          ],
          [
            26.7597536,
            38.4473571
          ],
          [
            26.7593847,
            38.4464837
          ],
          [
            26.7591667,
            38.4459649
          ],
          [
            26.7589738,
            38.4458992
          ],
          [
            26.7587222,
            38.4458204
          ],
          [
            26.7586887,
            38.4457088
          ],
          [
            26.7590325,
            38.4456497
          ],
          [
            26.7591163,
            38.4454592
          ],
          [
            26.7590409,
            38.4452819
          ],
          [
            26.758848,
            38.4452425
          ],
          [
            26.7588396,
            38.4451571
          ],
          [
            26.759066,
            38.4451112
          ],
          [
            26.7591583,
            38.4448091
          ],
          [
            26.7592421,
            38.4443165
          ],
          [
            26.7592002,
            38.4438896
          ],
          [
            26.759066,
            38.4434627
          ],
          [
            26.7590493,
            38.4433314
          ],
          [
            26.7588564,
            38.443003
          ],
          [
            26.7589067,
            38.4428848
          ],
          [
            26.7585294,
            38.4421624
          ],
          [
            26.7583701,
            38.4418077
          ],
          [
            26.7581688,
            38.4415647
          ],
          [
            26.7582359,
            38.4407241
          ],
          [
            26.7586216,
            38.4398834
          ],
          [
            26.7591834,
            38.4391609
          ],
          [
            26.759544,
            38.438826
          ],
          [
            26.7600974,
            38.4385764
          ],
          [
            26.7602735,
            38.4383859
          ],
          [
            26.7607934,
            38.4381626
          ]
        ]
      },
      "id": "osm-location",
      "type": "Feature",
      "properties": {
        "description": "Representative modern location based on OpenStreetMap.",
        "location_precision": "precise",
        "title": "OSM location of Hekim Adası",
        "link": "http://pleiades.stoa.org/places/550807/osm-location"
      }
    }
  ]
}