{
  "type": "FeatureCollection",
  "title": "Pyrra Pr.",
  "id": "550850",
  "bbox": [
    26.816585,
    39.433013,
    26.816585,
    39.433013
  ],
  "description": "An ancient place, cited: BAtlas 56 D3 Pyrra Pr.",
  "names": [
    "Pyrra Pr."
  ],
  "features": [
    {
      "type": "Feature",
      "geometry": {
        "type": "Point",
        "coordinates": [
          26.816585,
          39.433013
        ]
      },
      "properties": {
        "description": "representative point"
      }
    },
    {
      "geometry": {
        "type": "LineString",
        "coordinates": [
          [
            26.816585,
            39.433013
          ],
          [
            26.8163542,
            39.4330994
          ],
          [
            26.8161941,
            39.4332961
          ],
          [
            26.8158309,
            39.4331089
          ],
          [
            26.8153188,
            39.4331797
          ],
          [
            26.8149424,
            39.4334366
          ],
          [
            26.814513,
            39.4339369
          ],
          [
            26.8141753,
            39.4342653
          ],
          [
            26.8142437,
            39.434943
          ],
          [
            26.8145723,
            39.4352407
          ],
          [
            26.8148187,
            39.435432
          ],
          [
            26.8148478,
            39.4356231
          ],
          [
            26.8149715,
            39.4359772
          ],
          [
            26.8152116,
            39.436247
          ],
          [
            26.8151243,
            39.4366011
          ],
          [
            26.8149351,
            39.4367753
          ],
          [
            26.8145567,
            39.4369664
          ],
          [
            26.8140545,
            39.4375341
          ],
          [
            26.8139527,
            39.4382872
          ],
          [
            26.813093,
            39.438528
          ],
          [
            26.812823,
            39.439128
          ],
          [
            26.8124425,
            39.4387668
          ],
          [
            26.8119235,
            39.4384533
          ],
          [
            26.8113598,
            39.4380413
          ],
          [
            26.8107558,
            39.4374115
          ],
          [
            26.810437,
            39.4369179
          ],
          [
            26.8102568,
            39.4366396
          ],
          [
            26.8098457,
            39.436352
          ],
          [
            26.8095579,
            39.4359617
          ],
          [
            26.8094343,
            39.4351975
          ],
          [
            26.8092777,
            39.4346407
          ],
          [
            26.8090687,
            39.4343768
          ],
          [
            26.808901,
            39.4344077
          ],
          [
            26.8085886,
            39.4343707
          ],
          [
            26.808477,
            39.4343392
          ],
          [
            26.808438,
            39.4342864
          ],
          [
            26.8084882,
            39.4343109
          ],
          [
            26.8089431,
            39.434251
          ],
          [
            26.8088537,
            39.4339713
          ],
          [
            26.8087021,
            39.4337738
          ],
          [
            26.8079617,
            39.4334384
          ],
          [
            26.8074043,
            39.4333447
          ],
          [
            26.8067345,
            39.433347
          ],
          [
            26.8057857,
            39.4335002
          ],
          [
            26.805159,
            39.433636
          ],
          [
            26.8042211,
            39.4338431
          ],
          [
            26.803996,
            39.434533
          ],
          [
            26.8039082,
            39.4348829
          ],
          [
            26.8035734,
            39.4350178
          ],
          [
            26.8033987,
            39.434956
          ],
          [
            26.803168,
            39.434788
          ],
          [
            26.8028311,
            39.4347256
          ],
          [
            26.8024963,
            39.4348492
          ],
          [
            26.802174,
            39.435044
          ],
          [
            26.8022853,
            39.4353214
          ],
          [
            26.8022344,
            39.4355743
          ],
          [
            26.8019578,
            39.4355462
          ],
          [
            26.801805,
            39.4352989
          ],
          [
            26.8013975,
            39.4350516
          ],
          [
            26.8008517,
            39.4349054
          ],
          [
            26.8006988,
            39.4346918
          ],
          [
            26.8004805,
            39.4343209
          ],
          [
            26.8000948,
            39.433815
          ],
          [
            26.7995636,
            39.4329157
          ],
          [
            26.7992288,
            39.4324211
          ],
          [
            26.7987339,
            39.43214
          ],
          [
            26.7980935,
            39.431932
          ],
          [
            26.7979552,
            39.431932
          ],
          [
            26.7977951,
            39.4319545
          ],
          [
            26.7975914,
            39.4319714
          ],
          [
            26.7972793,
            39.4318078
          ],
          [
            26.7970774,
            39.4315498
          ],
          [
            26.7966667,
            39.4304099
          ],
          [
            26.7967985,
            39.4288017
          ],
          [
            26.7965232,
            39.4275258
          ],
          [
            26.7965944,
            39.4272272
          ],
          [
            26.7968324,
            39.4262619
          ],
          [
            26.7972202,
            39.4260242
          ],
          [
            26.7973512,
            39.425642
          ],
          [
            26.7971838,
            39.425507
          ],
          [
            26.7972275,
            39.4253665
          ],
          [
            26.7975623,
            39.4255239
          ],
          [
            26.797897,
            39.425405
          ],
          [
            26.798062,
            39.425278
          ],
          [
            26.798395,
            39.424765
          ],
          [
            26.7984428,
            39.4246301
          ],
          [
            26.798763,
            39.4245345
          ]
        ]
      },
      "id": "osm-location",
      "type": "Feature",
      "properties": {
        "description": "Representative location based on OpenStreetMap.",
        "location_precision": "precise",
        "title": "OSM location of Pyrra Pr.",
        "link": "http://pleiades.stoa.org/places/550850/osm-location"
      }
    }
  ]
}