{
  "type": "FeatureCollection",
  "title": "Thebes Pedion",
  "id": "550920",
  "bbox": [
    27.020171,
    39.597431,
    27.020171,
    39.597431
  ],
  "description": "A fertile plain of Mysia, located south of Mount Placius.",
  "names": [
    "Thebes Pedion"
  ],
  "features": [
    {
      "type": "Feature",
      "geometry": {
        "type": "Point",
        "coordinates": [
          27.020171,
          39.597431
        ]
      },
      "properties": {
        "description": "representative point"
      }
    },
    {
      "geometry": {
        "type": "Polygon",
        "coordinates": [
          [
            [
              26.5,
              39.5
            ],
            [
              26.5,
              40.0
            ],
            [
              27.0,
              40.0
            ],
            [
              27.0,
              39.5
            ],
            [
              26.5,
              39.5
            ]
          ]
        ]
      },
      "id": "undetermined",
      "type": "Feature",
      "properties": {
        "description": null,
        "location_precision": "rough",
        "title": "Undetermined location",
        "link": "http://pleiades.stoa.org/places/550920/undetermined"
      }
    }
  ]
}