{
  "type": "FeatureCollection",
  "title": "Acropolis of Selinus",
  "id": "552447145",
  "bbox": [
    12.8226547,
    37.5818076,
    12.8267781,
    37.5861612
  ],
  "description": "The fortified Acropolis of Selinus occupies a limestone plateau. It was planned following the Hippodamian fashion and it is most noted for the numerous Doric temples that occupied its sacred precincts.",
  "connectsWith": [
    "462489"
  ],
  "features": [
    {
      "type": "Feature",
      "geometry": {
        "type": "Point",
        "coordinates": [
          12.8248522741,
          37.5838544058
        ]
      },
      "properties": {
        "description": "representative point"
      }
    },
    {
      "geometry": {
        "type": "LineString",
        "coordinates": [
          [
            12.8246149,
            37.5819229
          ],
          [
            12.8241804,
            37.5820504
          ],
          [
            12.8236493,
            37.5822927
          ],
          [
            12.8228876,
            37.5827179
          ],
          [
            12.8226547,
            37.582963
          ],
          [
            12.8227887,
            37.5834238
          ],
          [
            12.823272,
            37.5838683
          ],
          [
            12.8234612,
            37.5841149
          ],
          [
            12.8237032,
            37.5845229
          ],
          [
            12.8241453,
            37.5853404
          ],
          [
            12.8242362,
            37.5855797
          ],
          [
            12.8241343,
            37.5856129
          ],
          [
            12.8242287,
            37.5857744
          ],
          [
            12.8241321,
            37.5858381
          ],
          [
            12.8241482,
            37.5859274
          ],
          [
            12.8242287,
            37.5859827
          ],
          [
            12.8249046,
            37.5859274
          ],
          [
            12.8249314,
            37.5860337
          ],
          [
            12.8251246,
            37.5861612
          ],
          [
            12.8252694,
            37.5861442
          ],
          [
            12.8253821,
            37.5860847
          ],
          [
            12.8253297,
            37.5857801
          ],
          [
            12.8258421,
            37.5856758
          ],
          [
            12.8256173,
            37.5844578
          ],
          [
            12.8258538,
            37.5839834
          ],
          [
            12.8262214,
            37.5839546
          ],
          [
            12.8262013,
            37.5838436
          ],
          [
            12.8265561,
            37.5836518
          ],
          [
            12.8267781,
            37.5834702
          ],
          [
            12.8267202,
            37.582798
          ],
          [
            12.826596,
            37.5827986
          ],
          [
            12.8265286,
            37.5824728
          ],
          [
            12.8264012,
            37.5822848
          ],
          [
            12.8262096,
            37.5821238
          ],
          [
            12.8258594,
            37.5819408
          ],
          [
            12.8255772,
            37.5818178
          ],
          [
            12.8251828,
            37.5818076
          ],
          [
            12.8246149,
            37.5819229
          ]
        ]
      },
      "id": "osm-location-of-acropoli",
      "type": "Feature",
      "properties": {
        "description": "Representative location based on OpenStreetMap",
        "location_precision": "precise",
        "title": "OSM location of Acropoli",
        "link": "http://pleiades.stoa.org/places/552447145/osm-location-of-acropoli"
      }
    }
  ]
}