{
  "type": "FeatureCollection",
  "title": "Aegaeum Mare",
  "id": "560221",
  "bbox": [
    20.8369638,
    35.26711,
    29.2996224,
    42.6106123
  ],
  "description": "The Aegean Sea is the largest body of water between Greece and Asia Minor and an embayment of the Mediterranean Sea.",
  "connectsWith": [
    "579888",
    "1043",
    "550759"
  ],
  "names": [
    "Aegaeum Mare",
    "Aegean Sea",
    "Aigaion pelagos (to)",
    "Aegaeum pelagus",
    "Igeum Mare"
  ],
  "features": [
    {
      "type": "Feature",
      "geometry": {
        "type": "Point",
        "coordinates": [
          24.9172407527,
          38.9139570674
        ]
      },
      "properties": {
        "description": "representative point"
      }
    }
  ]
}