{
  "type": "FeatureCollection",
  "title": "Arch of Trajan at Dura-Europos",
  "id": "56308089",
  "bbox": [
    40.7227339,
    34.7460492,
    40.723195,
    34.7466185
  ],
  "description": "The Arch of Trajan at Dura-Europos is a triple bay arch located outside walls of Dura-Europos ca. 1.7 km NW of the Palmyrene Gate. An inscription records the dedication to Trajan by the Legio III Cyrenaica and was duplicated on each side of the arch.",
  "connectsWith": [
    "893990"
  ],
  "names": [
    "Arch of Trajan at Dura-Europos"
  ],
  "features": [
    {
      "type": "Feature",
      "geometry": {
        "type": "Point",
        "coordinates": [
          40.7229665508,
          34.7463283677
        ]
      },
      "properties": {
        "description": "representative point"
      }
    },
    {
      "geometry": {
        "type": "LineString",
        "coordinates": [
          [
            40.7230829,
            34.7466185
          ],
          [
            40.7229337,
            34.7465966
          ],
          [
            40.7229454,
            34.7465427
          ],
          [
            40.7227339,
            34.7465117
          ],
          [
            40.7228344,
            34.7460492
          ],
          [
            40.723195,
            34.7461021
          ],
          [
            40.7230829,
            34.7466185
          ]
        ]
      },
      "id": "osm-location-of-arch-of-trajan-at-dura-europos",
      "type": "Feature",
      "properties": {
        "description": "Representative location based on OpenStreetMap",
        "location_precision": "precise",
        "title": "OSM location of Arch of Trajan at Dura-Europos",
        "link": "http://pleiades.stoa.org/places/56308089/osm-location-of-arch-of-trajan-at-dura-europos"
      }
    }
  ]
}