{
  "type": "FeatureCollection",
  "title": "Pen-y-crug",
  "id": "56616071",
  "bbox": [
    -3.4157501,
    51.9621707,
    -3.4127139,
    51.9644679
  ],
  "description": "Pen-y-crug is the location of an Iron Age hill fort in south Wales.",
  "features": [
    {
      "type": "Feature",
      "geometry": {
        "type": "Point",
        "coordinates": [
          -3.41431944669,
          51.9632512424
        ]
      },
      "properties": {
        "description": "representative point"
      }
    },
    {
      "geometry": {
        "type": "LineString",
        "coordinates": [
          [
            -3.4151171,
            51.9642927
          ],
          [
            -3.4153585,
            51.9641837
          ],
          [
            -3.415557,
            51.964074599999996
          ],
          [
            -3.4156643,
            51.9639655
          ],
          [
            -3.4157394,
            51.9637705
          ],
          [
            -3.4157287,
            51.9633441
          ],
          [
            -3.4157287,
            51.9630995
          ],
          [
            -3.4157501,
            51.9628681
          ],
          [
            -3.415734,
            51.9626566
          ],
          [
            -3.4155946,
            51.9624946
          ],
          [
            -3.41538,
            51.9623822
          ],
          [
            -3.4151279,
            51.9622996
          ],
          [
            -3.4147685,
            51.9621905
          ],
          [
            -3.4144412,
            51.9621707
          ],
          [
            -3.4139852,
            51.9621707
          ],
          [
            -3.4136366,
            51.9622037
          ],
          [
            -3.4132718,
            51.9622798
          ],
          [
            -3.4130626,
            51.9624252
          ],
          [
            -3.4128587,
            51.96265
          ],
          [
            -3.4127461,
            51.9628714
          ],
          [
            -3.4127139,
            51.9630334
          ],
          [
            -3.4127729,
            51.963235
          ],
          [
            -3.4128802,
            51.9633805
          ],
          [
            -3.4130572,
            51.9636614
          ],
          [
            -3.4132503,
            51.9639192
          ],
          [
            -3.4133683,
            51.9640845
          ],
          [
            -3.4135293,
            51.96422
          ],
          [
            -3.4137117,
            51.9643423
          ],
          [
            -3.4139852,
            51.9644216
          ],
          [
            -3.4142642,
            51.9644646
          ],
          [
            -3.4145539,
            51.9644679
          ],
          [
            -3.4148596,
            51.9644051
          ],
          [
            -3.4151171,
            51.9642927
          ]
        ]
      },
      "id": "location-of-pen-y-crug-hill-fort",
      "type": "Feature",
      "properties": {
        "description": "Representative location based on OpenStreetMap",
        "location_precision": "precise",
        "title": "OSM location of Pen-y-crug hill fort",
        "link": "http://pleiades.stoa.org/places/56616071/location-of-pen-y-crug-hill-fort"
      }
    }
  ]
}