{
  "type": "FeatureCollection",
  "title": "Apollo Korythos Sanctuary",
  "id": "570096",
  "bbox": [
    21.9186273,
    36.8640412,
    21.9186273,
    36.8640412
  ],
  "description": "A multi-phase sanctuary of Apollo that begins in the archaic period. Pausanias visited the sanctuary and observed two cult statues of the god. One of these, sacred to Apollo Corynthus, was of wood. The other, sacred to Apollo Argeotas, was of bronze.",
  "connectsWith": [
    "570577"
  ],
  "names": [
    "Apollo Korythos",
    "Agios Andreas",
    "Longa Pylias",
    "Kandianika"
  ],
  "features": [
    {
      "type": "Feature",
      "geometry": {
        "type": "Point",
        "coordinates": [
          21.9186273,
          36.8640412
        ]
      },
      "properties": {
        "description": "representative point"
      }
    },
    {
      "geometry": {
        "type": "Point",
        "coordinates": [
          21.9186273,
          36.8640412
        ]
      },
      "id": "osm-location-iero-apollonos-koruthou",
      "type": "Feature",
      "properties": {
        "description": "Location based on OpenStreetMap",
        "location_precision": "precise",
        "title": "OSM Location: Sanctuary of Apollo Korythos",
        "link": "http://pleiades.stoa.org/places/570096/osm-location-iero-apollonos-koruthou"
      }
    }
  ]
}