{
  "type": "FeatureCollection",
  "title": "Ag. Kyriake",
  "id": "570038",
  "bbox": [
    24.492557,
    36.673835,
    24.492557,
    36.673835
  ],
  "description": "An ancient place, cited: BAtlas 58 G4 Ag. Kyriake",
  "connectsWith": [
    "570475"
  ],
  "names": [
    "Agia Kyriaki"
  ],
  "features": [
    {
      "type": "Feature",
      "geometry": {
        "type": "Point",
        "coordinates": [
          24.492557,
          36.673835
        ]
      },
      "properties": {
        "description": "representative point"
      }
    },
    {
      "geometry": {
        "type": "Point",
        "coordinates": [
          24.492557,
          36.673835
        ]
      },
      "id": "darmc-location-1795",
      "type": "Feature",
      "properties": {
        "description": "1:500,000 scale representative point location digitized from the Barrington Atlas of the Greek and Roman World by the Digital Atlas of Roman and Medieval Civilizations project at Harvard University.",
        "location_precision": "precise",
        "title": "DARMC location 1795",
        "link": "http://pleiades.stoa.org/places/570038/darmc-location-1795"
      }
    }
  ]
}