{
  "type": "FeatureCollection",
  "title": "Asine",
  "id": "570126",
  "bbox": [
    22.4999405,
    36.6685006,
    22.4999405,
    36.6685006
  ],
  "description": "An ancient place, cited: BAtlas 58 D4 Asine",
  "names": [
    "Asine"
  ],
  "features": [
    {
      "type": "Feature",
      "geometry": {
        "type": "Point",
        "coordinates": [
          22.4999405,
          36.6685006
        ]
      },
      "properties": {
        "description": "representative point"
      }
    },
    {
      "geometry": {
        "type": "Point",
        "coordinates": [
          22.4999405,
          36.6685006
        ]
      },
      "id": "osm-location-of-skoutari",
      "type": "Feature",
      "properties": {
        "description": "Location based on OpenStreetMap",
        "location_precision": "precise",
        "title": "OSM location of Skoutari",
        "link": "http://pleiades.stoa.org/places/570126/osm-location-of-skoutari"
      }
    }
  ]
}