{
  "type": "FeatureCollection",
  "title": "Hellenika",
  "id": "570285",
  "bbox": [
    24.346935,
    37.605456,
    24.346935,
    37.605456
  ],
  "description": "An ancient place, cited: BAtlas 58 G2 Hellenika",
  "names": [
    "Ellinika"
  ],
  "features": [
    {
      "type": "Feature",
      "geometry": {
        "type": "Point",
        "coordinates": [
          24.346935,
          37.605456
        ]
      },
      "properties": {
        "description": "representative point"
      }
    },
    {
      "geometry": {
        "type": "Point",
        "coordinates": [
          24.346935,
          37.605456
        ]
      },
      "id": "darmc-location-12695",
      "type": "Feature",
      "properties": {
        "description": "1:500,000 scale representative point location digitized from the Barrington Atlas of the Greek and Roman World by the Digital Atlas of Roman and Medieval Civilizations project at Harvard University.",
        "location_precision": "precise",
        "title": "DARMC location 12695",
        "link": "http://pleiades.stoa.org/places/570285/darmc-location-12695"
      }
    }
  ]
}