{
  "type": "FeatureCollection",
  "title": "Hermai",
  "id": "570291",
  "bbox": [
    22.543094,
    37.32399,
    22.543094,
    37.32399
  ],
  "description": "An ancient place, cited: BAtlas 58 D3 Hermai",
  "names": [
    "Hermai"
  ],
  "features": [
    {
      "type": "Feature",
      "geometry": {
        "type": "Point",
        "coordinates": [
          22.543094,
          37.32399
        ]
      },
      "properties": {
        "description": "representative point"
      }
    },
    {
      "geometry": {
        "type": "Point",
        "coordinates": [
          22.543094,
          37.32399
        ]
      },
      "id": "darmc-location-15998",
      "type": "Feature",
      "properties": {
        "description": "1:500,000 scale representative point location digitized from the Barrington Atlas of the Greek and Roman World by the Digital Atlas of Roman and Medieval Civilizations project at Harvard University.",
        "location_precision": "precise",
        "title": "DARMC location 15998",
        "link": "http://pleiades.stoa.org/places/570291/darmc-location-15998"
      }
    }
  ]
}