{
  "type": "FeatureCollection",
  "title": "Gyth(e)ion",
  "id": "570268",
  "bbox": [
    22.562341,
    36.763663,
    22.562341,
    36.763663
  ],
  "description": "An ancient Greek polis located on the Mani peninsula of the Peloponnese. Modern Gytheio.",
  "names": [
    "Gytheion",
    "Gythion",
    "Gytheum",
    "Cytmon",
    "Gythium"
  ],
  "features": [
    {
      "type": "Feature",
      "geometry": {
        "type": "Point",
        "coordinates": [
          22.562341,
          36.763663
        ]
      },
      "properties": {
        "description": "representative point"
      }
    },
    {
      "geometry": {
        "type": "Point",
        "coordinates": [
          22.562341,
          36.763663
        ]
      },
      "id": "dare-location",
      "type": "Feature",
      "properties": {
        "description": "Representative point location, site precision",
        "location_precision": "precise",
        "title": "DARE Location",
        "link": "http://pleiades.stoa.org/places/570268/dare-location"
      }
    }
  ]
}