{
  "type": "FeatureCollection",
  "title": "Kynaitha(i)",
  "id": "570392",
  "bbox": [
    22.1103931,
    38.0333853,
    22.1103931,
    38.0333853
  ],
  "description": "An ancient settlement in Arcadia, located close to modern Kalavryta. Its precise location is undetermined.",
  "names": [
    "Kalavryta",
    "Kynaithai",
    "Kynaitha"
  ],
  "features": [
    {
      "type": "Feature",
      "geometry": {
        "type": "Point",
        "coordinates": [
          22.1103931,
          38.0333853
        ]
      },
      "properties": {
        "description": "representative point"
      }
    },
    {
      "geometry": {
        "type": "Point",
        "coordinates": [
          22.1103931,
          38.0333853
        ]
      },
      "id": "osm-location-modern-kalavryta",
      "type": "Feature",
      "properties": {
        "description": "Location based on OpenStreetMap",
        "location_precision": "precise",
        "title": "OSM Location: modern Kalavryta",
        "link": "http://pleiades.stoa.org/places/570392/osm-location-modern-kalavryta"
      }
    }
  ]
}