{
  "type": "FeatureCollection",
  "title": "Methana/Anthana?",
  "id": "570481",
  "bbox": [
    22.781371,
    37.365778,
    22.781371,
    37.365778
  ],
  "description": "An ancient place, cited: BAtlas 58 D3 Methana/Anthana?",
  "names": [
    "Methana",
    "Anthana"
  ],
  "features": [
    {
      "type": "Feature",
      "geometry": {
        "type": "Point",
        "coordinates": [
          22.781371,
          37.365778
        ]
      },
      "properties": {
        "description": "representative point"
      }
    },
    {
      "geometry": {
        "type": "Point",
        "coordinates": [
          22.781371,
          37.365778
        ]
      },
      "id": "darmc-location-4808",
      "type": "Feature",
      "properties": {
        "description": "1:500,000 scale representative point location digitized from the Barrington Atlas of the Greek and Roman World by the Digital Atlas of Roman and Medieval Civilizations project at Harvard University.",
        "location_precision": "precise",
        "title": "DARMC location 4808",
        "link": "http://pleiades.stoa.org/places/570481/darmc-location-4808"
      }
    }
  ]
}