{
  "type": "FeatureCollection",
  "title": "Onougnathos (promontory)",
  "id": "570533",
  "bbox": [
    22.9334794,
    36.4642453,
    22.9334794,
    36.4642453
  ],
  "description": "This ancient cape of the Peloponnese is now known as the island of Elaphonisas, separated from the mainland reportedly by a fourth-century earthquake. The island's southwestern terminus -- the modern Akra Ag. Maria -- would correspond to the tip of the ancient promontory.",
  "names": [
    "Onougnathos Pr.",
    "Ὄnou gnáthon",
    "Elaphonisas",
    "Akra Agia Maria"
  ],
  "features": [
    {
      "type": "Feature",
      "geometry": {
        "type": "Point",
        "coordinates": [
          22.9334794,
          36.4642453
        ]
      },
      "properties": {
        "description": "representative point"
      }
    },
    {
      "geometry": {
        "type": "Point",
        "coordinates": [
          22.9334794,
          36.4642453
        ]
      },
      "id": "osm-location-of-akra-agia-maria",
      "type": "Feature",
      "properties": {
        "description": "Location based on OpenStreetMap",
        "location_precision": "precise",
        "title": "OSM location of Akra Agia Maria",
        "link": "http://pleiades.stoa.org/places/570533/osm-location-of-akra-agia-maria"
      }
    }
  ]
}