{
  "type": "FeatureCollection",
  "title": "Pheraia",
  "id": "570597",
  "bbox": [
    21.794283,
    37.696919,
    21.794283,
    37.696919
  ],
  "description": "An ancient place, cited: BAtlas 58 B2 Pheraia",
  "names": [
    "Pheraia",
    "Pharaia"
  ],
  "features": [
    {
      "type": "Feature",
      "geometry": {
        "type": "Point",
        "coordinates": [
          21.794283,
          37.696919
        ]
      },
      "properties": {
        "description": "representative point"
      }
    },
    {
      "geometry": {
        "type": "Point",
        "coordinates": [
          21.794283,
          37.696919
        ]
      },
      "id": "darmc-location-10198",
      "type": "Feature",
      "properties": {
        "description": "1:500,000 scale representative point location digitized from the Barrington Atlas of the Greek and Roman World by the Digital Atlas of Roman and Medieval Civilizations project at Harvard University.",
        "location_precision": "precise",
        "title": "DARMC location 10198",
        "link": "http://pleiades.stoa.org/places/570597/darmc-location-10198"
      }
    }
  ]
}