{
  "type": "FeatureCollection",
  "title": "Peloponnesus/Peloponnesos/Peloponnese",
  "id": "570577",
  "bbox": [
    21.143869,
    36.3852463,
    24.0,
    38.4497385
  ],
  "description": "The large peninsula protuding into the Mediterranean Sea that constitutes the southern part of Greece. It is largely separated from mainland Greece on the north by the Corinthian Gulf, joining it only in the northeast via the narrow Isthmus of Corinth.",
  "connectsWith": [
    "570184",
    "570181",
    "570654",
    "570103",
    "570495",
    "570407",
    "570123",
    "570185",
    "570175"
  ],
  "names": [
    "Peloponnesus",
    "Apia",
    "Inachia",
    "Pelopónnēsos",
    "Pelopónnasos",
    "Morea",
    "Peloponnesus",
    "Peloponnisos",
    "Peloponnese",
    "Apia",
    "Mora Cezīresi"
  ],
  "features": [
    {
      "type": "Feature",
      "geometry": {
        "type": "Point",
        "coordinates": [
          22.3359574955,
          37.092784642
        ]
      },
      "properties": {
        "description": "representative point"
      }
    }
  ]
}