{
  "type": "FeatureCollection",
  "title": "Pollonia",
  "id": "570626",
  "bbox": [
    24.512746,
    36.761562,
    24.512746,
    36.761562
  ],
  "description": "An ancient place, cited: BAtlas 58 H4 Pollonia",
  "connectsWith": [
    "570475"
  ],
  "names": [
    "Pollonia"
  ],
  "features": [
    {
      "type": "Feature",
      "geometry": {
        "type": "Point",
        "coordinates": [
          24.512746,
          36.761562
        ]
      },
      "properties": {
        "description": "representative point"
      }
    },
    {
      "geometry": {
        "type": "Point",
        "coordinates": [
          24.512746,
          36.761562
        ]
      },
      "id": "darmc-location-14354",
      "type": "Feature",
      "properties": {
        "description": "1:500,000 scale representative point location digitized from the Barrington Atlas of the Greek and Roman World by the Digital Atlas of Roman and Medieval Civilizations project at Harvard University.",
        "location_precision": "precise",
        "title": "DARMC location 14354",
        "link": "http://pleiades.stoa.org/places/570626/darmc-location-14354"
      }
    }
  ]
}