{
  "type": "FeatureCollection",
  "title": "Rema",
  "id": "570644",
  "bbox": [
    24.539147,
    36.700827,
    24.539147,
    36.700827
  ],
  "description": "An ancient place, cited: BAtlas 58 H4 Rema",
  "connectsWith": [
    "570475"
  ],
  "features": [
    {
      "type": "Feature",
      "geometry": {
        "type": "Point",
        "coordinates": [
          24.539147,
          36.700827
        ]
      },
      "properties": {
        "description": "representative point"
      }
    },
    {
      "geometry": {
        "type": "Point",
        "coordinates": [
          24.539147,
          36.700827
        ]
      },
      "id": "imagery-location",
      "type": "Feature",
      "properties": {
        "description": "Imagery location determined in Google Earth with reference to description from McGilcrest's Greek Islands published in ToposText (measured back 600m up the trail from Rhema beach). Dates after BAtlDir.",
        "location_precision": "precise",
        "title": "Imagery Location",
        "link": "http://pleiades.stoa.org/places/570644/imagery-location"
      }
    }
  ]
}