{
  "type": "FeatureCollection",
  "title": "Tan(a)os (river)",
  "id": "570704",
  "bbox": [
    22.7291447,
    37.4172939,
    22.7563749,
    37.4332895
  ],
  "description": "An ancient place, cited: BAtlas 58 D3 Tan(a)os fl.",
  "names": [
    "Tanaos",
    "Tanos"
  ],
  "features": [
    {
      "type": "Feature",
      "geometry": {
        "type": "Point",
        "coordinates": [
          22.7435130959,
          37.4241120917
        ]
      },
      "properties": {
        "description": "representative point"
      }
    },
    {
      "geometry": {
        "type": "LineString",
        "coordinates": [
          [
            22.7291447,
            37.4172939
          ],
          [
            22.7298221,
            37.4182281
          ],
          [
            22.7310301,
            37.4187189
          ],
          [
            22.7334022,
            37.4194456
          ],
          [
            22.7355978,
            37.4199821
          ],
          [
            22.7369793,
            37.4201955
          ],
          [
            22.7387157,
            37.4204909
          ],
          [
            22.7403577,
            37.4214609
          ],
          [
            22.7424548,
            37.4223308
          ],
          [
            22.7444581,
            37.4228087
          ],
          [
            22.7460816,
            37.4236143
          ],
          [
            22.7469817,
            37.4247208
          ],
          [
            22.7471084,
            37.4252834
          ],
          [
            22.7473007,
            37.4261372
          ],
          [
            22.7484168,
            37.4272165
          ],
          [
            22.748542,
            37.4273375
          ],
          [
            22.7501592,
            37.4283434
          ],
          [
            22.7519156,
            37.4288772
          ],
          [
            22.7527741,
            37.4292071
          ],
          [
            22.7528593,
            37.4292313
          ],
          [
            22.7532806,
            37.4296265
          ],
          [
            22.7543126,
            37.4309147
          ],
          [
            22.7552644,
            37.4318237
          ],
          [
            22.7558292,
            37.4325646
          ],
          [
            22.7563749,
            37.4332895
          ]
        ]
      },
      "id": "location-of-tanos-river",
      "type": "Feature",
      "properties": {
        "description": "Location based on OpenStreetMap",
        "location_precision": "precise",
        "title": "location of Tanos (river)",
        "link": "http://pleiades.stoa.org/places/570704/location-of-tanos-river"
      }
    }
  ]
}