{
  "type": "FeatureCollection",
  "title": "Akontion (Arcadian settlement)",
  "id": "573066",
  "description": "An ancient settlement of Arcadia in Parrasia, near Lykosoura. It is mentioned by both Pausanias and Stephanus, but its precise location cannot be determined today.",
  "names": [
    "Akontion"
  ],
  "features": [
    {
      "type": "Feature",
      "geometry": null,
      "properties": {
        "description": "representative point"
      }
    },
    {
      "geometry": null,
      "id": "batlas-location",
      "type": "Feature",
      "properties": {
        "description": null,
        "location_precision": "unlocated",
        "title": "Barrington Atlas location",
        "link": "http://pleiades.stoa.org/places/573066/batlas-location"
      }
    }
  ]
}