{
  "type": "FeatureCollection",
  "title": "Makistia",
  "id": "573354",
  "bbox": [
    21.5796488466,
    37.4266716553,
    21.7914208762,
    37.6070347995
  ],
  "description": "An ancient place, cited: BAtlas 58 unlocated Makistia",
  "connectsWith": [
    "570754"
  ],
  "names": [
    "Makistia"
  ],
  "features": [
    {
      "type": "Feature",
      "geometry": {
        "type": "Point",
        "coordinates": [
          21.6925174652,
          37.5174754063
        ]
      },
      "properties": {
        "description": "representative point"
      }
    },
    {
      "geometry": null,
      "id": "batlas-location",
      "type": "Feature",
      "properties": {
        "description": null,
        "location_precision": "unlocated",
        "title": "Barrington Atlas location",
        "link": "http://pleiades.stoa.org/places/573354/batlas-location"
      }
    }
  ]
}