{
  "type": "FeatureCollection",
  "title": "Roman theater of Acinipo",
  "id": "577784362",
  "bbox": [
    -5.2403014,
    36.832168,
    -5.2403014,
    36.832168
  ],
  "description": "The Roman theater of Acinipo dates ca. 59-53 B.C.",
  "connectsWith": [
    "255950"
  ],
  "features": [
    {
      "type": "Feature",
      "geometry": {
        "type": "Point",
        "coordinates": [
          -5.2403014,
          36.832168
        ]
      },
      "properties": {
        "description": "representative point"
      }
    },
    {
      "geometry": {
        "type": "LineString",
        "coordinates": [
          [
            -5.2403207,
            36.832168
          ],
          [
            -5.2402391,
            36.8315472
          ],
          [
            -5.2404483,
            36.8315266
          ],
          [
            -5.2406071,
            36.8315463
          ],
          [
            -5.2407337,
            36.8316056
          ],
          [
            -5.2408196,
            36.8316708
          ],
          [
            -5.2408791,
            36.831788
          ],
          [
            -5.2408914,
            36.8318778
          ],
          [
            -5.2408539,
            36.83198
          ],
          [
            -5.240767,
            36.8320718
          ],
          [
            -5.240693,
            36.8321182
          ],
          [
            -5.2405696,
            36.8321474
          ],
          [
            -5.2403207,
            36.832168
          ]
        ]
      },
      "id": "osm-location-of-roman-theater",
      "type": "Feature",
      "properties": {
        "description": "Location based on OpenStreetMap",
        "location_precision": "precise",
        "title": "OSM location of Roman theater",
        "link": "http://pleiades.stoa.org/places/577784362/osm-location-of-roman-theater"
      }
    }
  ]
}