{
  "type": "FeatureCollection",
  "title": "Artemis Tauropolos temple",
  "id": "579878",
  "bbox": [
    24.0084984,
    37.9794018,
    24.0093391,
    37.9801564
  ],
  "description": "Near Artemida/Loutsa in modern Attiki, the archaeological remains of a temple in the Doric order were first identified in 1956. Excavators identified the sanctuary as belonging to Artemis Tauropolos. The compilers of the Barrington Atlas, in keeping with the discussion offered in PECS by C.W.J. Eliot, associate the temple site with the deme of Halai Araphenides.",
  "connectsWith": [
    "579940"
  ],
  "names": [
    "Artemis"
  ],
  "features": [
    {
      "type": "Feature",
      "geometry": {
        "type": "Point",
        "coordinates": [
          24.008911842,
          37.9797510416
        ]
      },
      "properties": {
        "description": "representative point"
      }
    },
    {
      "geometry": {
        "type": "LineString",
        "coordinates": [
          [
            24.0088857,
            37.9800957
          ],
          [
            24.0087356,
            37.9801564
          ],
          [
            24.0084984,
            37.9795638
          ],
          [
            24.0091519,
            37.9794018
          ],
          [
            24.0093391,
            37.9798379
          ],
          [
            24.0088857,
            37.9800957
          ]
        ]
      },
      "id": "osm-location-of-iiuii-i-i-iii-iii-i-i-iiiii1-4i1ii",
      "type": "Feature",
      "properties": {
        "description": "Representative location based on OpenStreetMap",
        "location_precision": "precise",
        "title": "OSM location of Ιερό Ταυροπόλου Αρτέμιδος",
        "link": "http://pleiades.stoa.org/places/579878/osm-location-of-iiuii-i-i-iii-iii-i-i-iiiii1-4i1ii"
      }
    }
  ]
}