{
  "type": "FeatureCollection",
  "title": "Eroiadai",
  "id": "579927",
  "bbox": [
    23.646275,
    38.014601999999996,
    23.646275,
    38.014601999999996
  ],
  "description": "An ancient place, cited: BAtlas 59 B2 Eroiadai",
  "connectsWith": [
    "908290183"
  ],
  "names": [
    "Eroiadai"
  ],
  "features": [
    {
      "type": "Feature",
      "geometry": {
        "type": "Point",
        "coordinates": [
          23.646275,
          38.014601999999996
        ]
      },
      "properties": {
        "description": "representative point"
      }
    },
    {
      "geometry": {
        "type": "Point",
        "coordinates": [
          23.646275,
          38.014601999999996
        ]
      },
      "id": "darmc-location-21267",
      "type": "Feature",
      "properties": {
        "description": "Representative point location digitized from the Barrington Atlas of the Greek and Roman World by the Digital Atlas of Roman and Medieval Civilizations project at Harvard University.",
        "location_precision": "precise",
        "title": "DARMC location 21267",
        "link": "http://pleiades.stoa.org/places/579927/darmc-location-21267"
      }
    }
  ]
}