{
  "type": "FeatureCollection",
  "title": "Kyllou Pera/Kallia",
  "id": "580000",
  "bbox": [
    23.799558,
    37.959445,
    23.799558,
    37.959445
  ],
  "description": "An ancient place, cited: BAtlas 59 C3 Kyllou Pera/Kallia",
  "names": [
    "Kyllou Pera",
    "Kallia"
  ],
  "features": [
    {
      "type": "Feature",
      "geometry": {
        "type": "Point",
        "coordinates": [
          23.799558,
          37.959445
        ]
      },
      "properties": {
        "description": "representative point"
      }
    },
    {
      "geometry": {
        "type": "Point",
        "coordinates": [
          23.799558,
          37.959445
        ]
      },
      "id": "darmc-location-22364",
      "type": "Feature",
      "properties": {
        "description": "Representative point location digitized from the Barrington Atlas of the Greek and Roman World by the Digital Atlas of Roman and Medieval Civilizations project at Harvard University.",
        "location_precision": "precise",
        "title": "DARMC location 22364",
        "link": "http://pleiades.stoa.org/places/580000/darmc-location-22364"
      }
    }
  ]
}