{
  "type": "FeatureCollection",
  "title": "Psaphis",
  "id": "580093",
  "bbox": [
    23.901388,
    38.284442,
    23.933127,
    38.292659
  ],
  "description": "An deme of ancient Attica.",
  "names": [
    "Psaphis"
  ],
  "features": [
    {
      "type": "Feature",
      "geometry": {
        "type": "Point",
        "coordinates": [
          23.9172575,
          38.2885505
        ]
      },
      "properties": {
        "description": "representative point"
      }
    },
    {
      "geometry": {
        "type": "Point",
        "coordinates": [
          23.933127,
          38.284442
        ]
      },
      "id": "darmc-location-10212",
      "type": "Feature",
      "properties": {
        "description": "1:500,000 scale representative point location digitized from the Barrington Atlas of the Greek and Roman World by the Digital Atlas of Roman and Medieval Civilizations project at Harvard University.",
        "location_precision": "precise",
        "title": "DARMC location 10212",
        "link": "http://pleiades.stoa.org/places/580093/darmc-location-10212"
      }
    },
    {
      "geometry": {
        "type": "Point",
        "coordinates": [
          23.901388,
          38.292659
        ]
      },
      "id": "darmc-location-21328",
      "type": "Feature",
      "properties": {
        "description": "Representative point location digitized from the Barrington Atlas of the Greek and Roman World by the Digital Atlas of Roman and Medieval Civilizations project at Harvard University.",
        "location_precision": "precise",
        "title": "DARMC location 21328",
        "link": "http://pleiades.stoa.org/places/580093/darmc-location-21328"
      }
    }
  ]
}