{
  "type": "FeatureCollection",
  "title": "Potamos Kathyperthen",
  "id": "580089",
  "bbox": [
    23.797853,
    37.961768,
    23.797853,
    37.961768
  ],
  "description": "An ancient place, cited: BAtlas 59 C3 Potamos Kathyperthen",
  "names": [
    "Potamos Kathyperthen"
  ],
  "features": [
    {
      "type": "Feature",
      "geometry": {
        "type": "Point",
        "coordinates": [
          23.797853,
          37.961768
        ]
      },
      "properties": {
        "description": "representative point"
      }
    },
    {
      "geometry": {
        "type": "Point",
        "coordinates": [
          23.797853,
          37.961768
        ]
      },
      "id": "darmc-location-22715",
      "type": "Feature",
      "properties": {
        "description": "Representative point location digitized from the Barrington Atlas of the Greek and Roman World by the Digital Atlas of Roman and Medieval Civilizations project at Harvard University.",
        "location_precision": "precise",
        "title": "DARMC location 22715",
        "link": "http://pleiades.stoa.org/places/580089/darmc-location-22715"
      }
    }
  ]
}