{
  "type": "FeatureCollection",
  "title": "Panormos",
  "id": "580057",
  "bbox": [
    24.0617733,
    37.6981745,
    24.0617733,
    37.6981745
  ],
  "description": "An ancient place, cited: BAtlas 59 D4 Panormos",
  "connectsWith": [
    "579888"
  ],
  "names": [
    "Panormos"
  ],
  "features": [
    {
      "type": "Feature",
      "geometry": {
        "type": "Point",
        "coordinates": [
          24.0617733,
          37.6981745
        ]
      },
      "properties": {
        "description": "representative point"
      }
    },
    {
      "geometry": {
        "type": "Point",
        "coordinates": [
          24.0617733,
          37.6981745
        ]
      },
      "id": "osm-location",
      "type": "Feature",
      "properties": {
        "description": "Location based on OpenStreetMap",
        "location_precision": "precise",
        "title": "OSM location",
        "link": "http://pleiades.stoa.org/places/580057/osm-location"
      }
    }
  ]
}