{
  "type": "FeatureCollection",
  "title": "Zeus Panhellenios sanctuary (Aegina)",
  "id": "580139",
  "bbox": [
    23.4975105,
    37.7077333,
    23.4979256,
    37.7079324
  ],
  "description": "An oracular mountaintop sanctuary of Zeus on the island of Aegina.",
  "connectsWith": [
    "579844",
    "580055"
  ],
  "names": [
    "Zeus Panhellenios"
  ],
  "features": [
    {
      "type": "Feature",
      "geometry": {
        "type": "Point",
        "coordinates": [
          23.4977180672,
          37.7078328279
        ]
      },
      "properties": {
        "description": "representative point"
      }
    },
    {
      "geometry": {
        "type": "LineString",
        "coordinates": [
          [
            23.4975105,
            37.7078863
          ],
          [
            23.4975397,
            37.7077333
          ],
          [
            23.4979256,
            37.7077793
          ],
          [
            23.4978964,
            37.7079324
          ],
          [
            23.4975105,
            37.7078863
          ]
        ]
      },
      "id": "osm-location-sanctuary-of-zeus-pan-hellenios",
      "type": "Feature",
      "properties": {
        "description": "Representative location based on OpenStreetMap",
        "location_precision": "precise",
        "title": "OSM location: Sanctuary of Zeus (Pan)Hellenios",
        "link": "http://pleiades.stoa.org/places/580139/osm-location-sanctuary-of-zeus-pan-hellenios"
      }
    }
  ]
}