{
  "type": "FeatureCollection",
  "title": "Aedes Ceres Liber Liberaque",
  "id": "581361483",
  "bbox": [
    12.483333,
    41.883333,
    12.483333,
    41.883333
  ],
  "description": "The Temple of Ceres, located on the slope of the Aventine Hill in Rome, was originally dedicated by Sp. Cassius in 494/3 B.C.",
  "connectsWith": [
    "865014139",
    "423025"
  ],
  "names": [
    "Temple of Ceres Liber and Libera"
  ],
  "features": [
    {
      "type": "Feature",
      "geometry": {
        "type": "Point",
        "coordinates": [
          12.483333,
          41.883333
        ]
      },
      "properties": {
        "description": "representative point"
      }
    }
  ]
}