{
  "type": "FeatureCollection",
  "title": "Shrine of Strenia",
  "id": "582254847",
  "bbox": [
    12.4873295,
    41.8906913,
    12.4885844,
    41.891654
  ],
  "description": "The Shrine of Strenia was located in the valley of the Colosseum and is mentioned as the starting point of the Sacra Via.",
  "connectsWith": [
    "423025",
    "434423626"
  ],
  "names": [
    "sacellum Streniae"
  ],
  "features": [
    {
      "type": "Feature",
      "geometry": {
        "type": "Point",
        "coordinates": [
          12.4880815071,
          41.8911605799
        ]
      },
      "properties": {
        "description": "representative point"
      }
    }
  ]
}