{
  "type": "FeatureCollection",
  "title": "Palaestra at Olympia",
  "id": "582667283",
  "bbox": [
    21.6282522,
    37.6382058,
    21.6290596,
    37.6388629
  ],
  "description": "Palaestra in the sanctuary of Zeus at Olympia",
  "connectsWith": [
    "570531"
  ],
  "features": [
    {
      "type": "Feature",
      "geometry": {
        "type": "Point",
        "coordinates": [
          21.6286558922,
          37.6385343166
        ]
      },
      "properties": {
        "description": "representative point"
      }
    },
    {
      "geometry": {
        "type": "LineString",
        "coordinates": [
          [
            21.6289651,
            37.6388629
          ],
          [
            21.6282522,
            37.6387906
          ],
          [
            21.6283466,
            37.6382058
          ],
          [
            21.6290596,
            37.638278
          ],
          [
            21.6289651,
            37.6388629
          ]
        ]
      },
      "id": "osm-location-of-palaestra",
      "type": "Feature",
      "properties": {
        "description": "Representative location based on OpenStreetMap",
        "location_precision": "precise",
        "title": "OSM location of Palaestra",
        "link": "http://pleiades.stoa.org/places/582667283/osm-location-of-palaestra"
      }
    }
  ]
}