{
  "type": "FeatureCollection",
  "title": "Montefortini",
  "id": "584523670",
  "bbox": [
    11.0642942,
    43.7924465,
    11.0655632,
    43.7930557
  ],
  "description": "A monumental Etruscan tumulus that covers two chamber tombs that were looted in antiquity but that likely dated to the seventh and sixth centuries B.C.",
  "features": [
    {
      "type": "Feature",
      "geometry": {
        "type": "Point",
        "coordinates": [
          11.0649518719,
          43.7928107145
        ]
      },
      "properties": {
        "description": "representative point"
      }
    },
    {
      "geometry": {
        "type": "LineString",
        "coordinates": [
          [
            11.0650482,
            43.7930557
          ],
          [
            11.0653429,
            43.7929764
          ],
          [
            11.0655283,
            43.7929221
          ],
          [
            11.0655632,
            43.792771
          ],
          [
            11.0655336,
            43.792682
          ],
          [
            11.0651903,
            43.7924465
          ],
          [
            11.0648792,
            43.792510299999996
          ],
          [
            11.0646271,
            43.7926491
          ],
          [
            11.0642942,
            43.7930151
          ],
          [
            11.0644071,
            43.7930324
          ],
          [
            11.0646941,
            43.7930518
          ],
          [
            11.0650482,
            43.7930557
          ]
        ]
      },
      "id": "location-of-tumulus",
      "type": "Feature",
      "properties": {
        "description": "Representative location based on OpenStreetMap.",
        "location_precision": "precise",
        "title": "OSM location of Tumulo etrusco di Montefortini",
        "link": "http://pleiades.stoa.org/places/584523670/location-of-tumulus"
      }
    }
  ]
}