{
  "type": "FeatureCollection",
  "title": "Villa di Teodorico",
  "id": "584523671",
  "bbox": [
    11.9132257,
    44.0045092,
    11.9141709,
    44.0051712
  ],
  "description": "A palatial Roman villa and bath complex that has been connected with Theodoric the Great, with twentieth century interpretations labeling it as Theodoric's \"hunting lodge\". More recent excavations have uncovered evidence for earlier building phases, dating from the first century B.C. through the third century A.D.",
  "connectsWith": [
    "413154"
  ],
  "features": [
    {
      "type": "Feature",
      "geometry": {
        "type": "Point",
        "coordinates": [
          11.9136983086,
          44.0048402014
        ]
      },
      "properties": {
        "description": "representative point"
      }
    },
    {
      "geometry": {
        "type": "LineString",
        "coordinates": [
          [
            11.913258,
            44.0051726
          ],
          [
            11.913207,
            44.0050087
          ],
          [
            11.9131815,
            44.0049276
          ],
          [
            11.9132003,
            44.0048283
          ],
          [
            11.9138011,
            44.0045051
          ],
          [
            11.9138803,
            44.0044733
          ],
          [
            11.9142678,
            44.0047897
          ],
          [
            11.9137022,
            44.0051126
          ],
          [
            11.9135785,
            44.0051833
          ],
          [
            11.9135666,
            44.0051712
          ],
          [
            11.913456,
            44.0050815
          ],
          [
            11.913258,
            44.0051726
          ]
        ]
      },
      "id": "location-of-roman-villa",
      "type": "Feature",
      "properties": {
        "description": "Location based on OpenStreetMap",
        "location_precision": "precise",
        "title": "OSM location of the so-called \"Villa di Teodorico\"",
        "link": "http://pleiades.stoa.org/places/584523671/location-of-roman-villa"
      }
    }
  ]
}