{
  "type": "FeatureCollection",
  "title": "Bothynos",
  "id": "585897",
  "description": "A locality along the sacred way to Eleusis from Athens. Its precise location has not been determined.",
  "connectsWith": [
    "522406511"
  ],
  "names": [
    "Bothynos"
  ],
  "features": [
    {
      "type": "Feature",
      "geometry": null,
      "properties": {
        "description": "representative point"
      }
    },
    {
      "geometry": null,
      "id": "batlas-location",
      "type": "Feature",
      "properties": {
        "description": null,
        "location_precision": "unlocated",
        "title": "Barrington Atlas location",
        "link": "http://pleiades.stoa.org/places/585897/batlas-location"
      }
    }
  ]
}