{
  "type": "FeatureCollection",
  "title": "Ponte di Annibale",
  "id": "587781815",
  "bbox": [
    14.5492247,
    41.2920097,
    14.5494136,
    41.2920551
  ],
  "description": "An arched Roman bridge across the Titerno near Cerreto Sannita in Campania.",
  "names": [
    "Ponte di Annibale"
  ],
  "features": [
    {
      "type": "Feature",
      "geometry": {
        "type": "Point",
        "coordinates": [
          14.5493204671,
          41.2920250028
        ]
      },
      "properties": {
        "description": "representative point"
      }
    },
    {
      "geometry": {
        "type": "LineString",
        "coordinates": [
          [
            14.5492247,
            41.29201
          ],
          [
            14.5492893,
            41.2920097
          ],
          [
            14.5494136,
            41.2920551
          ]
        ]
      },
      "id": "location-of-roman-bridge",
      "type": "Feature",
      "properties": {
        "description": "Location based on OpenStreetMap",
        "location_precision": "precise",
        "title": "OSM location of Roman bridge",
        "link": "http://pleiades.stoa.org/places/587781815/location-of-roman-bridge"
      }
    }
  ]
}