{
  "type": "FeatureCollection",
  "title": "Rota",
  "id": "588365926",
  "bbox": [
    12.0097834,
    42.1502567,
    12.0097834,
    42.1502567
  ],
  "description": "What would become Medieval Rota was once a pagus of Etruscan Caere. Writing in PECS, Mario Torelli describes this an an important Archaic center in the area of Tolfa.",
  "connectsWith": [
    "971724591",
    "413202"
  ],
  "features": [
    {
      "type": "Feature",
      "geometry": {
        "type": "Point",
        "coordinates": [
          12.0097834,
          42.1502567
        ]
      },
      "properties": {
        "description": "representative point"
      }
    },
    {
      "geometry": {
        "type": "Point",
        "coordinates": [
          12.0097834,
          42.1502567
        ]
      },
      "id": "osm-location-of-rota",
      "type": "Feature",
      "properties": {
        "description": "Location based on OpenStreetMap",
        "location_precision": "precise",
        "title": "OSM location of Rota",
        "link": "http://pleiades.stoa.org/places/588365926/osm-location-of-rota"
      }
    }
  ]
}