{
  "type": "FeatureCollection",
  "title": "Ag. Andreas",
  "id": "589659",
  "bbox": [
    24.6348242,
    36.9011463,
    24.7651168,
    37.0416501
  ],
  "description": "An ancient place, cited: BAtlas 60 C5 Ag. Andreas",
  "connectsWith": [
    "590049",
    "492082396"
  ],
  "features": [
    {
      "type": "Feature",
      "geometry": {
        "type": "Point",
        "coordinates": [
          24.6987853384,
          36.973575988
        ]
      },
      "properties": {
        "description": "representative point"
      }
    },
    {
      "geometry": null,
      "id": "batlas-location",
      "type": "Feature",
      "properties": {
        "description": null,
        "location_precision": "unlocated",
        "title": "Barrington Atlas location",
        "link": "http://pleiades.stoa.org/places/589659/batlas-location"
      }
    }
  ]
}