{
  "type": "FeatureCollection",
  "title": "Ag. Georgios",
  "id": "589663",
  "bbox": [
    24.64343,
    37.03878,
    24.64343,
    37.03878
  ],
  "description": "An ancient place, cited: BAtlas 60 C4 Ag. Georgios",
  "connectsWith": [
    "590049"
  ],
  "names": [
    "Ag. Georgios"
  ],
  "features": [
    {
      "type": "Feature",
      "geometry": {
        "type": "Point",
        "coordinates": [
          24.64343,
          37.03878
        ]
      },
      "properties": {
        "description": "representative point"
      }
    },
    {
      "geometry": {
        "type": "Point",
        "coordinates": [
          24.64343,
          37.03878
        ]
      },
      "id": "topostext-location",
      "type": "Feature",
      "properties": {
        "description": null,
        "location_precision": "precise",
        "title": "ToposText Location",
        "link": "http://pleiades.stoa.org/places/589663/topostext-location"
      }
    }
  ]
}