{
  "type": "FeatureCollection",
  "title": "Chalke (settlement)",
  "id": "589741",
  "bbox": [
    27.612308,
    36.2220226,
    27.6254751,
    36.226496
  ],
  "description": "Chalke is a settlement located on an island of the same name located in the Dodecanese off the west coast of Rhodes.",
  "connectsWith": [
    "589742",
    "599691"
  ],
  "names": [
    "Chalke"
  ],
  "features": [
    {
      "type": "Feature",
      "geometry": {
        "type": "Point",
        "coordinates": [
          27.618974325,
          36.224235196
        ]
      },
      "properties": {
        "description": "representative point"
      }
    },
    {
      "geometry": {
        "type": "LineString",
        "coordinates": [
          [
            27.6128555,
            36.2220226
          ],
          [
            27.6128741,
            36.2222261
          ],
          [
            27.6123192,
            36.2222686
          ],
          [
            27.6123104,
            36.2223147
          ],
          [
            27.612308,
            36.2223277
          ],
          [
            27.6123105,
            36.2223434
          ],
          [
            27.6123472,
            36.2225736
          ],
          [
            27.6123629,
            36.2226167
          ],
          [
            27.6126387,
            36.2229101
          ],
          [
            27.6126951,
            36.2229435
          ],
          [
            27.6129064,
            36.2230202
          ],
          [
            27.6131733,
            36.2230672
          ],
          [
            27.6132973,
            36.2231402
          ],
          [
            27.6135068,
            36.2232149
          ],
          [
            27.6135545,
            36.2231827
          ],
          [
            27.6136772,
            36.2232192
          ],
          [
            27.6136765,
            36.2232415
          ],
          [
            27.6146695,
            36.2237654
          ],
          [
            27.6152113,
            36.2240916
          ],
          [
            27.6154759,
            36.2242989
          ],
          [
            27.615715,
            36.224502
          ],
          [
            27.6160126,
            36.2246559
          ],
          [
            27.6162364,
            36.2246847
          ],
          [
            27.6164908,
            36.22466
          ],
          [
            27.6168469,
            36.2246724
          ],
          [
            27.6171395,
            36.2246293
          ],
          [
            27.6174015,
            36.2245226
          ],
          [
            27.6178796,
            36.2242964
          ],
          [
            27.6180831,
            36.224243
          ],
          [
            27.6183324,
            36.2242471
          ],
          [
            27.6185257,
            36.2242184
          ],
          [
            27.6187088,
            36.2242676
          ],
          [
            27.6189174,
            36.2242184
          ],
          [
            27.6189378,
            36.224165
          ],
          [
            27.619299,
            36.2241158
          ],
          [
            27.6198993,
            36.2240132
          ],
          [
            27.62,
            36.2239949
          ],
          [
            27.6201864,
            36.2240352
          ],
          [
            27.6200451,
            36.2238974
          ],
          [
            27.6202843,
            36.2238495
          ],
          [
            27.6205205,
            36.223828
          ],
          [
            27.6208085,
            36.2238504
          ],
          [
            27.621025,
            36.2239611
          ],
          [
            27.6214255,
            36.224165
          ],
          [
            27.6219445,
            36.2244852
          ],
          [
            27.622265,
            36.2247068
          ],
          [
            27.6225954,
            36.2246757
          ],
          [
            27.6230266,
            36.2246924
          ],
          [
            27.6232452,
            36.2247071
          ],
          [
            27.6236573,
            36.2247671
          ],
          [
            27.6240897,
            36.2249333
          ],
          [
            27.6246866,
            36.2250849
          ],
          [
            27.625286,
            36.2252735
          ],
          [
            27.6254294,
            36.2254045
          ],
          [
            27.6254751,
            36.2256179
          ],
          [
            27.6254029,
            36.2257238
          ],
          [
            27.6253154,
            36.2257312
          ],
          [
            27.6252037,
            36.225762
          ],
          [
            27.6251301,
            36.2258432
          ],
          [
            27.6251422,
            36.225873
          ],
          [
            27.6252106,
            36.2258887
          ],
          [
            27.6253191,
            36.2259029
          ],
          [
            27.625292,
            36.2260283
          ],
          [
            27.625099,
            36.226496
          ]
        ]
      },
      "id": "osm-location-of-halki-island",
      "type": "Feature",
      "properties": {
        "description": "Location based on OpenStreetMap",
        "location_precision": "precise",
        "title": "OSM location of Halki (island)",
        "link": "http://pleiades.stoa.org/places/589741/osm-location-of-halki-island"
      }
    }
  ]
}