{
  "type": "FeatureCollection",
  "title": "Erythraion (promuntory)",
  "id": "589782",
  "bbox": [
    26.09567,
    34.99927,
    26.09567,
    34.99927
  ],
  "description": "An ancient place, cited: BAtlas 60 F3 Erythraion Pr.",
  "names": [
    "Erythraion Pr."
  ],
  "features": [
    {
      "type": "Feature",
      "geometry": {
        "type": "Point",
        "coordinates": [
          26.09567,
          34.99927
        ]
      },
      "properties": {
        "description": "representative point"
      }
    },
    {
      "geometry": {
        "type": "Point",
        "coordinates": [
          26.09567,
          34.99927
        ]
      },
      "id": "location-of-akra-goudoura",
      "type": "Feature",
      "properties": {
        "description": "coordinates following GeoNames.",
        "location_precision": "precise",
        "title": "Imagery location of Ákra Goúdoura ",
        "link": "http://pleiades.stoa.org/places/589782/location-of-akra-goudoura"
      }
    }
  ]
}