{
  "type": "FeatureCollection",
  "title": "Kroussonas",
  "id": "589885",
  "bbox": [
    24.979308,
    35.227915,
    24.979308,
    35.227915
  ],
  "description": "An ancient place, cited: BAtlas 60 C2 Kroussonas",
  "features": [
    {
      "type": "Feature",
      "geometry": {
        "type": "Point",
        "coordinates": [
          24.979308,
          35.227915
        ]
      },
      "properties": {
        "description": "representative point"
      }
    },
    {
      "geometry": {
        "type": "Point",
        "coordinates": [
          24.979308,
          35.227915
        ]
      },
      "id": "darmc-location-13320",
      "type": "Feature",
      "properties": {
        "description": "1:500,000 scale representative point location digitized from the Barrington Atlas of the Greek and Roman World by the Digital Atlas of Roman and Medieval Civilizations project at Harvard University.",
        "location_precision": "precise",
        "title": "DARMC location 13320",
        "link": "http://pleiades.stoa.org/places/589885/darmc-location-13320"
      }
    }
  ]
}