{
  "type": "FeatureCollection",
  "title": "Iytos (mountain)",
  "id": "589826",
  "bbox": [
    25.1409222,
    35.2325318,
    25.1409222,
    35.2325318
  ],
  "description": "Gioukhtas, a mountain of north-central Crete, noted for being the location of an important Minoan peak sanctuary.",
  "connectsWith": [
    "589748"
  ],
  "names": [
    "Iytos",
    "Gioukhtas"
  ],
  "features": [
    {
      "type": "Feature",
      "geometry": {
        "type": "Point",
        "coordinates": [
          25.1409222,
          35.2325318
        ]
      },
      "properties": {
        "description": "representative point"
      }
    },
    {
      "geometry": {
        "type": "Point",
        "coordinates": [
          25.1409222,
          35.2325318
        ]
      },
      "id": "osm-location-giouchtas",
      "type": "Feature",
      "properties": {
        "description": "Location based on OpenStreetMap",
        "location_precision": "precise",
        "title": "OSM Location: Γιούχτας",
        "link": "http://pleiades.stoa.org/places/589826/osm-location-giouchtas"
      }
    }
  ]
}