{
  "type": "FeatureCollection",
  "title": "Kolokythia",
  "id": "589874",
  "bbox": [
    25.750284,
    35.259521,
    25.750284,
    35.259521
  ],
  "description": "An ancient place, cited: BAtlas 60 E2 Kolokythia",
  "connectsWith": [
    "589748"
  ],
  "features": [
    {
      "type": "Feature",
      "geometry": {
        "type": "Point",
        "coordinates": [
          25.750284,
          35.259521
        ]
      },
      "properties": {
        "description": "representative point"
      }
    },
    {
      "geometry": {
        "type": "Point",
        "coordinates": [
          25.750284,
          35.259521
        ]
      },
      "id": "darmc-location-13236",
      "type": "Feature",
      "properties": {
        "description": "1:500,000 scale representative point location digitized from the Barrington Atlas of the Greek and Roman World by the Digital Atlas of Roman and Medieval Civilizations project at Harvard University.",
        "location_precision": "precise",
        "title": "DARMC location 13236",
        "link": "http://pleiades.stoa.org/places/589874/darmc-location-13236"
      }
    }
  ]
}