{
  "type": "FeatureCollection",
  "title": "Tholos",
  "id": "590080",
  "bbox": [
    25.859805,
    35.152278,
    25.859805,
    35.152278
  ],
  "description": "An ancient place, cited: BAtlas 60 E2 Tholos",
  "connectsWith": [
    "589748"
  ],
  "features": [
    {
      "type": "Feature",
      "geometry": {
        "type": "Point",
        "coordinates": [
          25.859805,
          35.152278
        ]
      },
      "properties": {
        "description": "representative point"
      }
    },
    {
      "geometry": {
        "type": "Point",
        "coordinates": [
          25.859805,
          35.152278
        ]
      },
      "id": "darmc-location-15149",
      "type": "Feature",
      "properties": {
        "description": "1:500,000 scale representative point location digitized from the Barrington Atlas of the Greek and Roman World by the Digital Atlas of Roman and Medieval Civilizations project at Harvard University.",
        "location_precision": "precise",
        "title": "DARMC location 15149",
        "link": "http://pleiades.stoa.org/places/590080/darmc-location-15149"
      }
    }
  ]
}