{
  "type": "FeatureCollection",
  "title": "Pothereus? (river)",
  "id": "590009",
  "bbox": [
    25.0618906,
    35.1860037,
    25.0802321,
    35.2041419
  ],
  "description": "An ancient place, cited: BAtlas 60 D2 Pothereus? fl.",
  "names": [
    "Pothereus"
  ],
  "features": [
    {
      "type": "Feature",
      "geometry": {
        "type": "Point",
        "coordinates": [
          25.0702485834,
          35.196351771
        ]
      },
      "properties": {
        "description": "representative point"
      }
    },
    {
      "geometry": {
        "type": "LineString",
        "coordinates": [
          [
            25.0618906,
            35.1860037
          ],
          [
            25.061963,
            35.1861725
          ],
          [
            25.0620489,
            35.1865385
          ],
          [
            25.0620113,
            35.1867665
          ],
          [
            25.062014,
            35.1872247
          ],
          [
            25.0620703,
            35.1877354
          ],
          [
            25.0620408,
            35.1879744
          ],
          [
            25.0619523,
            35.1883229
          ],
          [
            25.0619362,
            35.1884785
          ],
          [
            25.0619523,
            35.1887416
          ],
          [
            25.0619791,
            35.1890726
          ],
          [
            25.0620569,
            35.1892918
          ],
          [
            25.0622232,
            35.1895066
          ],
          [
            25.0625317,
            35.1897433
          ],
          [
            25.0628938,
            35.1899275
          ],
          [
            25.0630735,
            35.1899143
          ],
          [
            25.0635375,
            35.1898858
          ],
          [
            25.0638272,
            35.1899209
          ],
          [
            25.0639157,
            35.190048
          ],
          [
            25.0638781,
            35.190276
          ],
          [
            25.0640096,
            35.1905478
          ],
          [
            25.0640149,
            35.1906991
          ],
          [
            25.0637842,
            35.1910498
          ],
          [
            25.0636823,
            35.1914948
          ],
          [
            25.0634221,
            35.1917951
          ],
          [
            25.0632183,
            35.1922313
          ],
          [
            25.0633631,
            35.192514
          ],
          [
            25.0637977,
            35.1926302
          ],
          [
            25.0643529,
            35.1925688
          ],
          [
            25.0648062,
            35.1926412
          ],
          [
            25.0651361,
            35.192582
          ],
          [
            25.0652997,
            35.1925951
          ],
          [
            25.0656001,
            35.192891
          ],
          [
            25.065761,
            35.1930993
          ],
          [
            25.0659139,
            35.1942106
          ],
          [
            25.0659944,
            35.1945065
          ],
          [
            25.066099,
            35.1946512
          ],
          [
            25.066327,
            35.1946906
          ],
          [
            25.0667695,
            35.1946446
          ],
          [
            25.0678612,
            35.1942303
          ],
          [
            25.0681589,
            35.1941909
          ],
          [
            25.0685961,
            35.1944758
          ],
          [
            25.0688912,
            35.1947695
          ],
          [
            25.0689368,
            35.1952605
          ],
          [
            25.0690387,
            35.1955893
          ],
          [
            25.0692077,
            35.1958129
          ],
          [
            25.0694222,
            35.1958479
          ],
          [
            25.069669,
            35.1958041
          ],
          [
            25.0705005,
            35.1959597
          ],
          [
            25.0706131,
            35.1963323
          ],
          [
            25.0706158,
            35.1966282
          ],
          [
            25.070522,
            35.1969263
          ],
          [
            25.0703235,
            35.1971258
          ],
          [
            25.0703101,
            35.1972726
          ],
          [
            25.070538,
            35.1977921
          ],
          [
            25.0707258,
            35.1979762
          ],
          [
            25.0710155,
            35.1980178
          ],
          [
            25.0712891,
            35.1978995
          ],
          [
            25.0714822,
            35.1979915
          ],
          [
            25.0715841,
            35.1982217
          ],
          [
            25.0714205,
            35.1985439
          ],
          [
            25.0714366,
            35.1986337
          ],
          [
            25.0716351,
            35.1987521
          ],
          [
            25.0719462,
            35.1990195
          ],
          [
            25.0719999,
            35.1992233
          ],
          [
            25.0721259,
            35.1993548
          ],
          [
            25.0722842,
            35.1993987
          ],
          [
            25.0725148,
            35.1992694
          ],
          [
            25.0728957,
            35.1990984
          ],
          [
            25.0730915,
            35.1989472
          ],
          [
            25.0733892,
            35.1989515
          ],
          [
            25.0739015,
            35.1991466
          ],
          [
            25.0742395,
            35.1993899
          ],
          [
            25.0741805,
            35.199585
          ],
          [
            25.0741242,
            35.2000562
          ],
          [
            25.0742234,
            35.2003082
          ],
          [
            25.0744863,
            35.2004639
          ],
          [
            25.0747598,
            35.2003126
          ],
          [
            25.0749691,
            35.2003455
          ],
          [
            25.0750314,
            35.2004872
          ],
          [
            25.0750188,
            35.2007288
          ],
          [
            25.0751131,
            35.2008624
          ],
          [
            25.0751949,
            35.200924
          ],
          [
            25.0754841,
            35.2009908
          ],
          [
            25.0756728,
            35.2010473
          ],
          [
            25.0759306,
            35.201145
          ],
          [
            25.0761822,
            35.2012015
          ],
          [
            25.0763708,
            35.2011655
          ],
          [
            25.0765784,
            35.2010062
          ],
          [
            25.0766601,
            35.2007699
          ],
          [
            25.0767859,
            35.2006003
          ],
          [
            25.0771003,
            35.2006517
          ],
          [
            25.0773456,
            35.2007031
          ],
          [
            25.0773959,
            35.200811
          ],
          [
            25.0773519,
            35.2009086
          ],
          [
            25.0773393,
            35.2010782
          ],
          [
            25.0774336,
            35.2011707
          ],
          [
            25.0775845,
            35.2012786
          ],
          [
            25.077572,
            35.201443
          ],
          [
            25.0774336,
            35.2015818
          ],
          [
            25.0769934,
            35.2016588
          ],
          [
            25.0768362,
            35.2017154
          ],
          [
            25.0767985,
            35.2018438
          ],
          [
            25.0768551,
            35.2019415
          ],
          [
            25.0770249,
            35.2020186
          ],
          [
            25.0771946,
            35.2021162
          ],
          [
            25.0773456,
            35.2024091
          ],
          [
            25.0773519,
            35.2025427
          ],
          [
            25.077245,
            35.2026455
          ],
          [
            25.0772324,
            35.2027636
          ],
          [
            25.077289,
            35.2028253
          ],
          [
            25.0775531,
            35.2029743
          ],
          [
            25.0778801,
            35.2030309
          ],
          [
            25.078182,
            35.203036
          ],
          [
            25.0784146,
            35.2029641
          ],
          [
            25.0785844,
            35.2029075
          ],
          [
            25.0787605,
            35.2029641
          ],
          [
            25.0788989,
            35.2030514
          ],
          [
            25.0790435,
            35.2030154
          ],
          [
            25.0791756,
            35.2028921
          ],
          [
            25.0794523,
            35.2028356
          ],
          [
            25.0797227,
            35.2029384
          ],
          [
            25.0799302,
            35.203149
          ],
          [
            25.0802069,
            35.2035447
          ],
          [
            25.0802321,
            35.2037143
          ],
          [
            25.0801503,
            35.2038941
          ],
          [
            25.0801687,
            35.2041419
          ]
        ]
      },
      "id": "osm-location-upper-platyperama-giophyros",
      "type": "Feature",
      "properties": {
        "description": "Location based on OpenStreetMap; determined with reference to labeled feature in BAtlas.",
        "location_precision": "precise",
        "title": "OSM Location: upper Platyperama/Giophyros",
        "link": "http://pleiades.stoa.org/places/590009/osm-location-upper-platyperama-giophyros"
      }
    }
  ]
}