{
  "type": "FeatureCollection",
  "title": "Luxeuil Abbey",
  "id": "591471665",
  "bbox": [
    6.3815193,
    47.8166371,
    6.3823742,
    47.8170345
  ],
  "description": "Located in France's Burgundy region, the Luxeuil Abbey was founded ca. 585–590 by the Irish missionary Saint Columbanus.",
  "connectsWith": [
    "177568"
  ],
  "features": [
    {
      "type": "Feature",
      "geometry": {
        "type": "Point",
        "coordinates": [
          6.38196152756,
          47.8168157005
        ]
      },
      "properties": {
        "description": "representative point"
      }
    },
    {
      "geometry": {
        "type": "LineString",
        "coordinates": [
          [
            6.3815356,
            47.8168857
          ],
          [
            6.3815499,
            47.8168872
          ],
          [
            6.3815523,
            47.8168786
          ],
          [
            6.381624,
            47.8168882
          ],
          [
            6.3816195,
            47.8169038
          ],
          [
            6.3816373,
            47.8169061
          ],
          [
            6.3816421,
            47.8168907
          ],
          [
            6.3817009,
            47.8168986
          ],
          [
            6.3816967,
            47.8169141
          ],
          [
            6.3817126,
            47.816916
          ],
          [
            6.3817171,
            47.8169008
          ],
          [
            6.3817747,
            47.8169085
          ],
          [
            6.3817703,
            47.8169236
          ],
          [
            6.3817852,
            47.8169255
          ],
          [
            6.3817901,
            47.8169106
          ],
          [
            6.3818498,
            47.8169183
          ],
          [
            6.3818458,
            47.8169337
          ],
          [
            6.3818611,
            47.8169357
          ],
          [
            6.3818656,
            47.8169205
          ],
          [
            6.3819598,
            47.816933
          ],
          [
            6.3819593,
            47.8169371
          ],
          [
            6.3819604,
            47.8169417
          ],
          [
            6.381964,
            47.816945
          ],
          [
            6.3819695,
            47.816948
          ],
          [
            6.3819798,
            47.8169499
          ],
          [
            6.3819704,
            47.8169763
          ],
          [
            6.3819526,
            47.8169732
          ],
          [
            6.3819494,
            47.8169831
          ],
          [
            6.3819484,
            47.8169861
          ],
          [
            6.3819667,
            47.8169892
          ],
          [
            6.3819626,
            47.8170021
          ],
          [
            6.3821595,
            47.8170345
          ],
          [
            6.3821666,
            47.8170133
          ],
          [
            6.3822063,
            47.8168967
          ],
          [
            6.3822345,
            47.8169003
          ],
          [
            6.3822323,
            47.8169111
          ],
          [
            6.3822479,
            47.816913
          ],
          [
            6.3822508,
            47.8169029
          ],
          [
            6.3822891,
            47.8169067
          ],
          [
            6.3822924,
            47.8169174
          ],
          [
            6.3823053,
            47.8169161
          ],
          [
            6.3823034,
            47.8169042
          ],
          [
            6.3823423,
            47.8168908
          ],
          [
            6.3823525,
            47.8168964
          ],
          [
            6.3823619,
            47.8168882
          ],
          [
            6.3823508,
            47.8168832
          ],
          [
            6.3823611,
            47.8168542
          ],
          [
            6.3823742,
            47.8168528
          ],
          [
            6.3823716,
            47.8168422
          ],
          [
            6.3823583,
            47.8168442
          ],
          [
            6.3823331,
            47.8168182
          ],
          [
            6.382341,
            47.8168125
          ],
          [
            6.382329,
            47.8168064
          ],
          [
            6.3823191,
            47.8168141
          ],
          [
            6.3822832,
            47.8168071
          ],
          [
            6.382287,
            47.8167976
          ],
          [
            6.3822718,
            47.8167952
          ],
          [
            6.3822674,
            47.8168042
          ],
          [
            6.3822401,
            47.8167989
          ],
          [
            6.3822638,
            47.8167404
          ],
          [
            6.3822845,
            47.8166893
          ],
          [
            6.3822982,
            47.8166915
          ],
          [
            6.3823029,
            47.8166787
          ],
          [
            6.3822886,
            47.8166765
          ],
          [
            6.3822915,
            47.8166673
          ],
          [
            6.3822792,
            47.8166657
          ],
          [
            6.3820693,
            47.8166371
          ],
          [
            6.382065,
            47.8166521
          ],
          [
            6.382082,
            47.8166541
          ],
          [
            6.3820705,
            47.8167024
          ],
          [
            6.381687,
            47.8166573
          ],
          [
            6.3816364,
            47.8166523
          ],
          [
            6.3816367,
            47.8166456
          ],
          [
            6.3815578,
            47.8166392
          ],
          [
            6.3815506,
            47.8167015
          ],
          [
            6.3815447,
            47.8167009
          ],
          [
            6.3815193,
            47.8168158
          ],
          [
            6.3815505,
            47.8168188
          ],
          [
            6.3815453,
            47.8168426
          ],
          [
            6.3815356,
            47.8168857
          ]
        ]
      },
      "id": "osm-location-of-luxeuil-abbey",
      "type": "Feature",
      "properties": {
        "description": "Representative location based on OpenStreetMap.",
        "location_precision": "precise",
        "title": "OSM location of Luxeuil Abbey",
        "link": "http://pleiades.stoa.org/places/591471665/osm-location-of-luxeuil-abbey"
      }
    }
  ]
}