{
  "type": "FeatureCollection",
  "title": "Akra",
  "id": "59666",
  "bbox": [
    70.632381,
    32.876347,
    70.636867,
    32.878238
  ],
  "description": "A significant ancient settlement located in the modern Bannu district of Pakistan's Khyber Pakhtunkhwa province. The site, comprising several settlement mounds, is divided by a stream known as the Lohra nullah.",
  "features": [
    {
      "type": "Feature",
      "geometry": {
        "type": "Point",
        "coordinates": [
          70.634624,
          32.8772925
        ]
      },
      "properties": {
        "description": "representative point"
      }
    },
    {
      "geometry": {
        "type": "Point",
        "coordinates": [
          70.636867,
          32.876347
        ]
      },
      "id": "approximate-location-akra-area-a",
      "type": "Feature",
      "properties": {
        "description": "Centerpoint of visible mounded area to east of Lohra nullah, found with reference to Magee 2005, Figure 5, page 722. General dates after Magee 2005, page 727.",
        "location_precision": "precise",
        "title": "Approximate Location: Akra Area A",
        "link": "http://pleiades.stoa.org/places/59666/approximate-location-akra-area-a"
      }
    },
    {
      "geometry": {
        "type": "Point",
        "coordinates": [
          70.632381,
          32.878238
        ]
      },
      "id": "approximate-location-akra-area-b",
      "type": "Feature",
      "properties": {
        "description": "Centerpoint of visible mounded area to west of Lohra nullah, found with reference to Magee 2005, Figure 5, page 722. General dates after Magee 2005, page 727.",
        "location_precision": "precise",
        "title": "Approximate Location: Akra Area B",
        "link": "http://pleiades.stoa.org/places/59666/approximate-location-akra-area-b"
      }
    }
  ]
}