{
  "type": "FeatureCollection",
  "title": "Arabis (river)",
  "id": "59690",
  "bbox": [
    66.68797,
    24.8807081,
    66.9513537,
    25.0344713
  ],
  "description": "A river that flows through the Hub District, Balochistan, Pakistan. It originates in the Pab Range of southeastern Balochistan and flows into the Arabian Sea.",
  "names": [
    "Arabis",
    "Arbius",
    "Arbis",
    "Barbarus",
    "Chariphou",
    "Arbius",
    "Hab",
    "Daryaye Hab",
    "Hub River",
    "Aravī"
  ],
  "features": [
    {
      "type": "Feature",
      "geometry": {
        "type": "Point",
        "coordinates": [
          66.8130000046,
          24.9697618302
        ]
      },
      "properties": {
        "description": "representative point"
      }
    },
    {
      "geometry": {
        "type": "MultiLineString",
        "coordinates": [
          [
            [
              66.9507436,
              25.0344713
            ],
            [
              66.9507436,
              25.0339448
            ],
            [
              66.9513537,
              25.0334709
            ],
            [
              66.9513537,
              25.0326811
            ],
            [
              66.9506479,
              25.0305834
            ]
          ],
          [
            [
              66.9506479,
              25.0305834
            ],
            [
              66.9496806,
              25.0289045
            ],
            [
              66.9472715,
              25.0272448
            ],
            [
              66.9468357,
              25.0266919
            ],
            [
              66.9454556,
              25.0258231
            ],
            [
              66.943785,
              25.0248754
            ],
            [
              66.9424194,
              25.0243883
            ],
            [
              66.9410538,
              25.024283
            ],
            [
              66.9390926,
              25.0230719
            ],
            [
              66.9385987,
              25.0221636
            ],
            [
              66.9368409,
              25.021071
            ],
            [
              66.9349954,
              25.0199489
            ]
          ],
          [
            [
              66.9349954,
              25.0199489
            ],
            [
              66.9348612,
              25.0198663
            ]
          ],
          [
            [
              66.9348612,
              25.0198663
            ],
            [
              66.9342986,
              25.0195045
            ],
            [
              66.9335722,
              25.018188
            ],
            [
              66.9317708,
              25.0178853
            ],
            [
              66.9304343,
              25.0175693
            ],
            [
              66.9286619,
              25.0168979
            ],
            [
              66.9264392,
              25.0160817
            ],
            [
              66.9246669,
              25.0162002
            ],
            [
              66.9232432,
              25.0158974
            ],
            [
              66.9214127,
              25.015384
            ],
            [
              66.9193063,
              25.0160027
            ],
            [
              66.9162991,
              25.0158448
            ],
            [
              66.9140764,
              25.0155157
            ],
            [
              66.9131612,
              25.0160027
            ],
            [
              66.911999,
              25.0163714
            ],
            [
              66.9098635,
              25.0160949
            ],
            [
              66.9076698,
              25.0159633
            ],
            [
              66.9052002,
              25.0157263
            ],
            [
              66.9039072,
              25.0152787
            ],
            [
              66.9033988,
              25.015542
            ],
            [
              66.90244,
              25.0154762
            ],
            [
              66.8999558,
              25.0155025
            ],
            [
              66.8989679,
              25.015147
            ],
            [
              66.8979219,
              25.0151865
            ],
            [
              66.8941303,
              25.0157
            ],
            [
              66.8925613,
              25.0156736
            ],
            [
              66.8917187,
              25.0157131
            ],
            [
              66.8910795,
              25.0160686
            ],
            [
              66.8908616,
              25.0164898
            ],
            [
              66.88999,
              25.0165688
            ],
            [
              66.8896123,
              25.0162924
            ],
            [
              66.8890166,
              25.0159106
            ],
            [
              66.8860966,
              25.0158184
            ],
            [
              66.8852395,
              25.0153577
            ],
            [
              66.8829587,
              25.015226
            ],
            [
              66.8816076,
              25.0152787
            ],
            [
              66.8802566,
              25.015147
            ],
            [
              66.8793268,
              25.0146994
            ],
            [
              66.8752737,
              25.0137516
            ],
            [
              66.8740534,
              25.0134751
            ],
            [
              66.8733128,
              25.0130615
            ],
            [
              66.872804,
              25.0127774
            ],
            [
              66.8717871,
              25.0123298
            ],
            [
              66.8716128,
              25.0118163
            ],
            [
              66.8705668,
              25.0111844
            ],
            [
              66.8677776,
              25.0101839
            ],
            [
              66.8643781,
              25.0090121
            ],
            [
              66.8627947,
              25.0087883
            ],
            [
              66.8614581,
              25.0081696
            ],
            [
              66.8600635,
              25.0076166
            ],
            [
              66.8590611,
              25.0064712
            ],
            [
              66.8581742,
              25.0061209
            ],
            [
              66.8578726,
              25.0060052
            ],
            [
              66.8567803,
              25.0057471
            ],
            [
              66.8563735,
              25.0059314
            ],
            [
              66.855948,
              25.0057673
            ],
            [
              66.8557634,
              25.0057076
            ],
            [
              66.8541508,
              25.0051678
            ],
            [
              66.8528143,
              25.0052073
            ],
            [
              66.8515813,
              25.0048691
            ],
            [
              66.8510878,
              25.0046333
            ],
            [
              66.8510409,
              25.0046163
            ],
            [
              66.8509993,
              25.0045871
            ],
            [
              66.8509457,
              25.0044887
            ],
            [
              66.8508491,
              25.0042687
            ],
            [
              66.8507177,
              25.0040669
            ],
            [
              66.8505507,
              25.0038966
            ],
            [
              66.8505449,
              25.0038941
            ]
          ],
          [
            [
              66.8505449,
              25.0038941
            ],
            [
              66.8504414,
              25.0038457
            ]
          ],
          [
            [
              66.8504414,
              25.0038457
            ],
            [
              66.8504267,
              25.0038395
            ],
            [
              66.8502201,
              25.0037703
            ],
            [
              66.848921,
              25.0038249
            ],
            [
              66.847599,
              25.0034957
            ],
            [
              66.8459864,
              25.0027716
            ],
            [
              66.8443303,
              25.0014155
            ],
            [
              66.8427032,
              25.0003096
            ],
            [
              66.8420059,
              24.9993352
            ],
            [
              66.8414248,
              24.9988876
            ],
            [
              66.8397251,
              24.9969784
            ],
            [
              66.8397112,
              24.9967961
            ],
            [
              66.839638,
              24.9964123
            ],
            [
              66.8394782,
              24.9956618
            ],
            [
              66.8387082,
              24.9949113
            ],
            [
              66.8387954,
              24.9945426
            ],
            [
              66.8379237,
              24.9938579
            ],
            [
              66.8363838,
              24.9927124
            ],
            [
              66.835425,
              24.9923964
            ],
            [
              66.8346841,
              24.9918433
            ],
            [
              66.8342919,
              24.9914088
            ],
            [
              66.8344372,
              24.9913562
            ],
            [
              66.833827,
              24.9906188
            ],
            [
              66.8334783,
              24.9906451
            ],
            [
              66.832505,
              24.9904213
            ],
            [
              66.8317786,
              24.9896181
            ],
            [
              66.8314881,
              24.9895917
            ],
            [
              66.8308198,
              24.9888017
            ],
            [
              66.8304131,
              24.9879721
            ],
            [
              66.8301516,
              24.9865764
            ],
            [
              66.8289458,
              24.983956
            ],
            [
              66.8274495,
              24.982389
            ],
            [
              66.826418,
              24.98044
            ],
            [
              66.8248636,
              24.9785833
            ],
            [
              66.8247016,
              24.9778537
            ],
            [
              66.8246747,
              24.977701
            ],
            [
              66.8239484,
              24.9767397
            ],
            [
              66.8231203,
              24.9765026
            ],
            [
              66.8221034,
              24.9752779
            ],
            [
              66.8202293,
              24.9739742
            ],
            [
              66.8190962,
              24.9729075
            ],
            [
              66.8182965,
              24.9724536
            ],
            [
              66.8161738,
              24.971279
            ],
            [
              66.8158566,
              24.9711955
            ],
            [
              66.8142402,
              24.9705622
            ],
            [
              66.8139191,
              24.9704902
            ]
          ],
          [
            [
              66.8139191,
              24.9704902
            ],
            [
              66.8137729,
              24.9704026
            ]
          ],
          [
            [
              66.8137729,
              24.9704026
            ],
            [
              66.813621,
              24.9704166
            ],
            [
              66.8120068,
              24.970537
            ],
            [
              66.8101537,
              24.9707091
            ],
            [
              66.8095953,
              24.9707609
            ],
            [
              66.808404,
              24.9709189
            ],
            [
              66.80783,
              24.9718819
            ],
            [
              66.807053,
              24.9722095
            ],
            [
              66.8068787,
              24.9721042
            ],
            [
              66.8064503,
              24.972547
            ],
            [
              66.8052806,
              24.9722095
            ],
            [
              66.804409,
              24.9722754
            ],
            [
              66.8032177,
              24.9733157
            ],
            [
              66.8015326,
              24.9735791
            ],
            [
              66.7983316,
              24.9733879
            ],
            [
              66.7981511,
              24.97338
            ],
            [
              66.797907,
              24.973349
            ],
            [
              66.7978553,
              24.9733216
            ]
          ],
          [
            [
              66.7978553,
              24.9733216
            ],
            [
              66.7977333,
              24.9732742
            ]
          ],
          [
            [
              66.7977333,
              24.9732742
            ],
            [
              66.7976898,
              24.9732643
            ],
            [
              66.7976012,
              24.9732353
            ],
            [
              66.7971714,
              24.9732195
            ],
            [
              66.7970078,
              24.9732207
            ],
            [
              66.7968394,
              24.973223
            ],
            [
              66.796651,
              24.9731867
            ],
            [
              66.7965196,
              24.9731247
            ],
            [
              66.7963614,
              24.9730882
            ],
            [
              66.7961287,
              24.9730596
            ],
            [
              66.7960086,
              24.973056
            ],
            [
              66.7959228,
              24.9730438
            ],
            [
              66.7958182,
              24.9730153
            ],
            [
              66.7956519,
              24.9729289
            ],
            [
              66.7955285,
              24.9728833
            ],
            [
              66.7954642,
              24.9728736
            ],
            [
              66.7953636,
              24.9728499
            ],
            [
              66.7952053,
              24.972777
            ],
            [
              66.7950491,
              24.9727198
            ],
            [
              66.7949914,
              24.9726949
            ],
            [
              66.7949505,
              24.9726797
            ],
            [
              66.7949036,
              24.9726791
            ],
            [
              66.7948338,
              24.9726718
            ],
            [
              66.7947165,
              24.9726493
            ],
            [
              66.7946488,
              24.9726299
            ],
            [
              66.7946072,
              24.972622
            ],
            [
              66.7945825,
              24.9726279
            ],
            [
              66.7944778,
              24.9726968
            ],
            [
              66.7941672,
              24.9727495
            ],
            [
              66.7936373,
              24.9729619
            ],
            [
              66.7934117,
              24.9730524
            ],
            [
              66.7929214,
              24.9729605
            ],
            [
              66.7926563,
              24.9728416
            ],
            [
              66.7921769,
              24.9725651
            ],
            [
              66.7908404,
              24.9717091
            ],
            [
              66.7900559,
              24.9711691
            ],
            [
              66.7891116,
              24.9702605
            ],
            [
              66.7878187,
              24.9694571
            ],
            [
              66.7865984,
              24.9692464
            ],
            [
              66.7844048,
              24.968983
            ],
            [
              66.7837655,
              24.9695361
            ],
            [
              66.7831263,
              24.9692464
            ],
            [
              66.7823709,
              24.9693254
            ],
            [
              66.7809182,
              24.9694966
            ],
            [
              66.7795381,
              24.9686011
            ],
            [
              66.7761968,
              24.9665861
            ],
            [
              66.7749038,
              24.9646633
            ],
            [
              66.7747295,
              24.9631487
            ],
            [
              66.7734947,
              24.9603434
            ],
            [
              66.7722889,
              24.9572615
            ],
            [
              66.7708362,
              24.9547063
            ],
            [
              66.7689912,
              24.9529677
            ],
            [
              66.7677999,
              24.9514793
            ],
            [
              66.7657661,
              24.9493719
            ],
            [
              66.7642552,
              24.9479098
            ],
            [
              66.7612372,
              24.9448784
            ],
            [
              66.7601295,
              24.9445246
            ],
            [
              66.759374,
              24.9442084
            ],
            [
              66.7586477,
              24.9439187
            ],
            [
              66.7575436,
              24.9431547
            ],
            [
              66.7569625,
              24.9433918
            ],
            [
              66.7565121,
              24.9430493
            ],
            [
              66.7565848,
              24.9427858
            ],
            [
              66.7571078,
              24.9422458
            ],
            [
              66.7575436,
              24.9418111
            ],
            [
              66.7571223,
              24.9411788
            ],
            [
              66.7563523,
              24.9402304
            ],
            [
              66.7553209,
              24.9392819
            ],
            [
              66.7540425,
              24.9381886
            ],
            [
              66.7506721,
              24.9359623
            ],
            [
              66.7493501,
              24.9347899
            ],
            [
              66.746924,
              24.9330247
            ],
            [
              66.7440476,
              24.9310618
            ],
            [
              66.7432922,
              24.9300738
            ],
            [
              66.7415053,
              24.9294283
            ],
            [
              66.7390066,
              24.9285456
            ],
            [
              66.7364643,
              24.9271228
            ],
            [
              66.7341254,
              24.9260821
            ],
            [
              66.7309294,
              24.9252126
            ],
            [
              66.7297817,
              24.9255287
            ],
            [
              66.7283435,
              24.925397
            ],
            [
              66.7267164,
              24.9251599
            ],
            [
              66.7256995,
              24.9244089
            ],
            [
              66.724639,
              24.9227489
            ],
            [
              66.7231427,
              24.9211416
            ],
            [
              66.7218698,
              24.9191999
            ],
            [
              66.7207359,
              24.9166762
            ],
            [
              66.7188476,
              24.9129008
            ],
            [
              66.7185258,
              24.9120639
            ],
            [
              66.7163371,
              24.9056805
            ],
            [
              66.7118524,
              24.9006787
            ],
            [
              66.7095544,
              24.8959762
            ],
            [
              66.7083977,
              24.8951705
            ],
            [
              66.7044281,
              24.8921536
            ],
            [
              66.703677,
              24.8915502
            ],
            [
              66.7030548,
              24.89083
            ],
            [
              66.7028831,
              24.8899541
            ],
            [
              66.7020463,
              24.8888057
            ],
            [
              66.6988929,
              24.8879383
            ],
            [
              66.6980337,
              24.8865088
            ],
            [
              66.6957038,
              24.8842554
            ],
            [
              66.6946434,
              24.8824989
            ],
            [
              66.6933988,
              24.8814088
            ],
            [
              66.6916087,
              24.8809674
            ],
            [
              66.689515,
              24.8807081
            ],
            [
              66.68797,
              24.881194700000002
            ]
          ]
        ]
      },
      "id": "osm-location-modern-hub-river",
      "type": "Feature",
      "properties": {
        "description": "Location based on OpenStreetMap",
        "location_precision": "precise",
        "title": "OSM Location: modern Hub river",
        "link": "http://pleiades.stoa.org/places/59690/osm-location-modern-hub-river"
      }
    }
  ]
}