{
  "type": "FeatureCollection",
  "title": "Bactrus?/Zariaspis? (river)",
  "id": "59726",
  "bbox": [
    66.7661782,
    36.6405553,
    66.9270725,
    36.7143214
  ],
  "description": "An ancient place, cited: BAtlas 6 B2 Bactrus?/Zariaspis? fl.",
  "connectsWith": [
    "59969"
  ],
  "names": [
    "Bactrus",
    "Zariaspis"
  ],
  "features": [
    {
      "type": "Feature",
      "geometry": {
        "type": "Point",
        "coordinates": [
          66.8469552116,
          36.6743895078
        ]
      },
      "properties": {
        "description": "representative point"
      }
    },
    {
      "geometry": {
        "type": "LineString",
        "coordinates": [
          [
            66.9270725,
            36.6405553
          ],
          [
            66.9266484,
            36.6409743
          ],
          [
            66.9260519,
            36.6413935
          ],
          [
            66.9253786,
            36.6421373
          ],
          [
            66.9237049,
            36.6432709
          ],
          [
            66.922488,
            36.6438567
          ],
          [
            66.9215058,
            36.6436846
          ],
          [
            66.9210725,
            36.6438451
          ],
          [
            66.9201725,
            36.6448881
          ],
          [
            66.9197392,
            36.6454498
          ],
          [
            66.9186058,
            36.6462521
          ],
          [
            66.9170058,
            36.6471079
          ],
          [
            66.9151392,
            36.6480975
          ],
          [
            66.9140059,
            36.6489533
          ],
          [
            66.9131392,
            36.6500765
          ],
          [
            66.9129059,
            36.6511729
          ],
          [
            66.9132059,
            36.6519217
          ],
          [
            66.9136725,
            36.6522159
          ],
          [
            66.9148059,
            36.6523763
          ],
          [
            66.9154392,
            36.6524566
          ],
          [
            66.9159392,
            36.6529379
          ],
          [
            66.9163392,
            36.6531251
          ],
          [
            66.9160392,
            36.653553
          ],
          [
            66.9154392,
            36.6539541
          ],
          [
            66.9145059,
            36.6546761
          ],
          [
            66.9138725,
            36.6553714
          ],
          [
            66.9129392,
            36.656548
          ],
          [
            66.9127725,
            36.6571631
          ],
          [
            66.9123392,
            36.6577514
          ],
          [
            66.9118392,
            36.6582862
          ],
          [
            66.9113392,
            36.6585536
          ],
          [
            66.9108725,
            36.6584733
          ],
          [
            66.9104059,
            36.6580455
          ],
          [
            66.9099059,
            36.6572165
          ],
          [
            66.9092725,
            36.6567887
          ],
          [
            66.9084725,
            36.6563074
          ],
          [
            66.9077392,
            36.6562539
          ],
          [
            66.9070726,
            36.6564945
          ],
          [
            66.9068392,
            36.6567887
          ],
          [
            66.9069059,
            36.6572433
          ],
          [
            66.9068392,
            36.6576979
          ],
          [
            66.9063392,
            36.6579653
          ],
          [
            66.9056059,
            36.6580188
          ],
          [
            66.9050726,
            36.6578851
          ],
          [
            66.9043059,
            36.6578316
          ],
          [
            66.9028392,
            36.6581792
          ],
          [
            66.9008392,
            36.6586338
          ],
          [
            66.8976393,
            36.6592488
          ],
          [
            66.8952393,
            36.6595964
          ],
          [
            66.892806,
            36.6595697
          ],
          [
            66.8910393,
            36.6597569
          ],
          [
            66.8895393,
            36.6600243
          ],
          [
            66.8878393,
            36.6600243
          ],
          [
            66.885906,
            36.6599708
          ],
          [
            66.8842727,
            36.6606125
          ],
          [
            66.8821727,
            36.6610671
          ],
          [
            66.880506,
            36.6614682
          ],
          [
            66.878506,
            36.6622169
          ],
          [
            66.8770394,
            36.6631527
          ],
          [
            66.8761394,
            36.6640886
          ],
          [
            66.875606,
            36.6648105
          ],
          [
            66.8751727,
            36.6654789
          ],
          [
            66.8743394,
            36.6660137
          ],
          [
            66.8734394,
            36.6662543
          ],
          [
            66.8718727,
            36.6661206
          ],
          [
            66.8710061,
            36.6657731
          ],
          [
            66.8698727,
            36.6646768
          ],
          [
            66.8688061,
            36.6636073
          ],
          [
            66.8679727,
            36.6625912
          ],
          [
            66.8677061,
            36.6619495
          ],
          [
            66.8668727,
            36.6615751
          ],
          [
            66.8660727,
            36.6613612
          ],
          [
            66.8653061,
            36.6614949
          ],
          [
            66.8646728,
            36.6618158
          ],
          [
            66.8643728,
            36.6621901
          ],
          [
            66.8643061,
            36.6626714
          ],
          [
            66.8638728,
            36.663019
          ],
          [
            66.8633394,
            36.6630458
          ],
          [
            66.8626394,
            36.6632597
          ],
          [
            66.8622061,
            36.6632329
          ],
          [
            66.8614394,
            36.6627516
          ],
          [
            66.8609728,
            36.6622971
          ],
          [
            66.8603394,
            36.6621099
          ],
          [
            66.8592061,
            36.6620297
          ],
          [
            66.8585394,
            36.6624308
          ],
          [
            66.8579394,
            36.6628051
          ],
          [
            66.8570061,
            36.6629656
          ],
          [
            66.8566061,
            36.6628853
          ],
          [
            66.8563061,
            36.6625645
          ],
          [
            66.8556061,
            36.662511
          ],
          [
            66.8551728,
            36.6628586
          ],
          [
            66.8548728,
            36.6633399
          ],
          [
            66.8542728,
            36.663741
          ],
          [
            66.8534395,
            36.6639014
          ],
          [
            66.8525061,
            36.6640351
          ],
          [
            66.8510061,
            36.6641153
          ],
          [
            66.8505728,
            36.6644896
          ],
          [
            66.8495728,
            36.6647035
          ],
          [
            66.8483728,
            36.6649174
          ],
          [
            66.8471395,
            36.6649709
          ],
          [
            66.8455062,
            36.6651314
          ],
          [
            66.8440728,
            36.6655057
          ],
          [
            66.8435728,
            36.6658265
          ],
          [
            66.8433395,
            36.6661741
          ],
          [
            66.8427729,
            36.6662811
          ],
          [
            66.8416062,
            36.6662811
          ],
          [
            66.8409062,
            36.6665752
          ],
          [
            66.8406729,
            36.6670565
          ],
          [
            66.8406729,
            36.6678853
          ],
          [
            66.8405062,
            36.6685805
          ],
          [
            66.8403729,
            36.6688746
          ],
          [
            66.8398729,
            36.6690082
          ],
          [
            66.8392729,
            36.6689815
          ],
          [
            66.8382729,
            36.6687141
          ],
          [
            66.8372062,
            36.6682864
          ],
          [
            66.8364062,
            36.6682329
          ],
          [
            66.8354062,
            36.6685002
          ],
          [
            66.8344396,
            36.6689815
          ],
          [
            66.8334062,
            36.6694628
          ],
          [
            66.8324062,
            36.6703451
          ],
          [
            66.8319396,
            36.6710135
          ],
          [
            66.8319062,
            36.6717888
          ],
          [
            66.8318729,
            36.6724304
          ],
          [
            66.8313062,
            36.6728047
          ],
          [
            66.8302729,
            36.6730186
          ],
          [
            66.8297396,
            36.6728582
          ],
          [
            66.8292729,
            36.6724304
          ],
          [
            66.8286063,
            36.6720561
          ],
          [
            66.8280729,
            36.6720294
          ],
          [
            66.8274729,
            36.6720829
          ],
          [
            66.8269396,
            36.6723235
          ],
          [
            66.8268063,
            36.6729117
          ],
          [
            66.8268396,
            36.6732592
          ],
          [
            66.8273729,
            36.6735533
          ],
          [
            66.8277396,
            36.6738474
          ],
          [
            66.8277063,
            36.6741949
          ],
          [
            66.8273063,
            36.6756386
          ],
          [
            66.8267396,
            36.676708
          ],
          [
            66.8262063,
            36.67751
          ],
          [
            66.8252729,
            36.6786595
          ],
          [
            66.8249729,
            36.6793011
          ],
          [
            66.8248396,
            36.6802635
          ],
          [
            66.8245063,
            36.6814397
          ],
          [
            66.8241063,
            36.6824555
          ],
          [
            66.8236396,
            36.6833911
          ],
          [
            66.8231324,
            36.6838813
          ],
          [
            66.8223396,
            36.6846475
          ],
          [
            66.8212396,
            36.6860108
          ],
          [
            66.820873,
            36.6869731
          ],
          [
            66.8201379,
            36.687114
          ],
          [
            66.8194394,
            36.6875428
          ],
          [
            66.8182985,
            36.688168
          ],
          [
            66.8175298,
            36.6882446
          ],
          [
            66.8174223,
            36.6882553
          ],
          [
            66.8166948,
            36.6882721
          ],
          [
            66.814773,
            36.6878819
          ],
          [
            66.813973,
            36.6874542
          ],
          [
            66.8130397,
            36.6871335
          ],
          [
            66.812173,
            36.6872136
          ],
          [
            66.8111397,
            36.6875344
          ],
          [
            66.8106063,
            36.6881225
          ],
          [
            66.808673,
            36.6896193
          ],
          [
            66.8079397,
            36.6899935
          ],
          [
            66.8068064,
            36.6906618
          ],
          [
            66.8061064,
            36.6914102
          ],
          [
            66.8059064,
            36.6919447
          ],
          [
            66.805873,
            36.6927733
          ],
          [
            66.8057064,
            36.6934415
          ],
          [
            66.805373,
            36.694083
          ],
          [
            66.805273,
            36.6945374
          ],
          [
            66.8044397,
            36.694965
          ],
          [
            66.8036397,
            36.6954461
          ],
          [
            66.803173,
            36.6956065
          ],
          [
            66.8027064,
            36.6953926
          ],
          [
            66.8022397,
            36.6957134
          ],
          [
            66.8014397,
            36.6959806
          ],
          [
            66.8009064,
            36.6960876
          ],
          [
            66.8003064,
            36.6958737
          ],
          [
            66.7997064,
            36.6954461
          ],
          [
            66.7990064,
            36.6954461
          ],
          [
            66.7979397,
            36.6956332
          ],
          [
            66.7971064,
            36.6960876
          ],
          [
            66.7962397,
            36.6968092
          ],
          [
            66.7952064,
            36.6971032
          ],
          [
            66.7947064,
            36.6969695
          ],
          [
            66.7943397,
            36.6964885
          ],
          [
            66.7935397,
            36.6961143
          ],
          [
            66.7921064,
            36.6963014
          ],
          [
            66.7916731,
            36.6967825
          ],
          [
            66.7913731,
            36.6971566
          ],
          [
            66.7904064,
            36.6974239
          ],
          [
            66.7897731,
            36.6979317
          ],
          [
            66.7895064,
            36.698493
          ],
          [
            66.7897398,
            36.6992413
          ],
          [
            66.7898731,
            36.699562
          ],
          [
            66.7896398,
            36.6998827
          ],
          [
            66.7890731,
            36.7002569
          ],
          [
            66.7886731,
            36.7003103
          ],
          [
            66.7882064,
            36.7000698
          ],
          [
            66.7878064,
            36.6999362
          ],
          [
            66.7873064,
            36.7000698
          ],
          [
            66.7870731,
            36.7003103
          ],
          [
            66.7870398,
            36.7007647
          ],
          [
            66.7867664,
            36.7012012
          ],
          [
            66.7858081,
            36.7013682
          ],
          [
            66.7853081,
            36.7017357
          ],
          [
            66.7850581,
            36.7020364
          ],
          [
            66.7848081,
            36.7026043
          ],
          [
            66.7838915,
            36.7028047
          ],
          [
            66.7830581,
            36.7027713
          ],
          [
            66.7823915,
            36.7028381
          ],
          [
            66.7816415,
            36.7030051
          ],
          [
            66.7808081,
            36.7032056
          ],
          [
            66.7805581,
            36.7037401
          ],
          [
            66.7803498,
            36.7042745
          ],
          [
            66.7801831,
            36.7047088
          ],
          [
            66.7795581,
            36.7050763
          ],
          [
            66.7788498,
            36.7056442
          ],
          [
            66.7787397,
            36.7068257
          ],
          [
            66.7791509,
            36.7075676
          ],
          [
            66.7785854,
            36.708598
          ],
          [
            66.7768888,
            36.7085155
          ],
          [
            66.7762205,
            36.7096696
          ],
          [
            66.7745753,
            36.7113594
          ],
          [
            66.7730844,
            36.7116479
          ],
          [
            66.771285,
            36.7129667
          ],
          [
            66.7703833,
            36.7131323
          ],
          [
            66.769072,
            36.7134532
          ],
          [
            66.7679872,
            36.7137425
          ],
          [
            66.7661782,
            36.7143214
          ]
        ]
      },
      "id": "osm-location-of-balkh",
      "type": "Feature",
      "properties": {
        "description": "Location based on OpenStreetMap",
        "location_precision": "precise",
        "title": "OSM location of Balkh",
        "link": "http://pleiades.stoa.org/places/59726/osm-location-of-balkh"
      }
    }
  ]
}