{
  "type": "FeatureCollection",
  "title": "Choes? (river)",
  "id": "59774",
  "bbox": [
    70.2884894,
    34.5126952,
    70.2884894,
    34.5126952
  ],
  "description": "An ancient place, cited: BAtlas 6 C3 Choes? fl.",
  "names": [
    "Choes"
  ],
  "features": [
    {
      "type": "Feature",
      "geometry": {
        "type": "Point",
        "coordinates": [
          70.2884894,
          34.5126952
        ]
      },
      "properties": {
        "description": "representative point"
      }
    },
    {
      "geometry": {
        "type": "LineString",
        "coordinates": [
          [
            70.2336054,
            34.6302786
          ],
          [
            70.2347811,
            34.6269358
          ],
          [
            70.2356291,
            34.6250797
          ],
          [
            70.2362734,
            34.6235893
          ],
          [
            70.2369967,
            34.6228321
          ],
          [
            70.2375989,
            34.6212156
          ],
          [
            70.237309,
            34.6192958
          ],
          [
            70.2371045,
            34.6188955
          ],
          [
            70.2360206,
            34.6173971
          ],
          [
            70.2353829,
            34.6157167
          ],
          [
            70.2352745,
            34.6143604
          ],
          [
            70.2346061,
            34.6120774
          ],
          [
            70.2335413,
            34.6102133
          ],
          [
            70.2323032,
            34.6084435
          ],
          [
            70.2318983,
            34.6069647
          ],
          [
            70.2320809,
            34.6056483
          ],
          [
            70.232332,
            34.6047526
          ],
          [
            70.2322663,
            34.6036032
          ],
          [
            70.2326899,
            34.6020735
          ],
          [
            70.2328414,
            34.6002948
          ],
          [
            70.2326901,
            34.5997599
          ],
          [
            70.2312187,
            34.5991401
          ],
          [
            70.2296924,
            34.5984971
          ],
          [
            70.2283785,
            34.5976419
          ],
          [
            70.2277213,
            34.595967
          ],
          [
            70.2273562,
            34.594311
          ],
          [
            70.2269801,
            34.5934997
          ],
          [
            70.2268117,
            34.5922452
          ],
          [
            70.2270139,
            34.5907501
          ],
          [
            70.2269764,
            34.5897449
          ],
          [
            70.2271842,
            34.5893064
          ],
          [
            70.2277006,
            34.5877251
          ],
          [
            70.2287181,
            34.5869269
          ],
          [
            70.2294379,
            34.5859336
          ],
          [
            70.2317452,
            34.5851273
          ],
          [
            70.2320877,
            34.5844752
          ],
          [
            70.2316276,
            34.5833897
          ],
          [
            70.2318412,
            34.5818351
          ],
          [
            70.2322578,
            34.5801323
          ],
          [
            70.2321552,
            34.5788963
          ],
          [
            70.2316695,
            34.5781604
          ],
          [
            70.2304679,
            34.5773123
          ],
          [
            70.2276596,
            34.5762975
          ],
          [
            70.2272546,
            34.5756762
          ],
          [
            70.2269025,
            34.5745593
          ],
          [
            70.2270658,
            34.5729115
          ],
          [
            70.228726,
            34.5715837
          ],
          [
            70.229849,
            34.5693106
          ],
          [
            70.2309967,
            34.5673993
          ],
          [
            70.2303724,
            34.5659165
          ],
          [
            70.2284308,
            34.5647414
          ],
          [
            70.2281959,
            34.5642275
          ],
          [
            70.2282963,
            34.5635287
          ],
          [
            70.2290946,
            34.5626117
          ],
          [
            70.2301246,
            34.560774
          ],
          [
            70.23186,
            34.5588085
          ],
          [
            70.2314102,
            34.5562735
          ],
          [
            70.2317532,
            34.5557267
          ],
          [
            70.2331101,
            34.5550378
          ],
          [
            70.2356901,
            34.5532164
          ],
          [
            70.2369064,
            34.5512947
          ],
          [
            70.2388761,
            34.5493012
          ],
          [
            70.2405959,
            34.5481913
          ],
          [
            70.2415476,
            34.5474537
          ],
          [
            70.2447464,
            34.5449745
          ],
          [
            70.25031,
            34.5420656
          ],
          [
            70.2542203,
            34.5408822
          ],
          [
            70.2553873,
            34.5389377
          ],
          [
            70.2563887,
            34.5378693
          ],
          [
            70.2577515,
            34.5377797
          ],
          [
            70.2582608,
            34.5359324
          ],
          [
            70.2594786,
            34.5347583
          ],
          [
            70.2615386,
            34.5343341
          ],
          [
            70.2639841,
            34.5336065
          ],
          [
            70.2645254,
            34.5332533
          ],
          [
            70.2647929,
            34.53252
          ],
          [
            70.2639901,
            34.5311185
          ],
          [
            70.2633812,
            34.5296384
          ],
          [
            70.2635694,
            34.5279262
          ],
          [
            70.2634817,
            34.5259897
          ],
          [
            70.2639356,
            34.5241376
          ],
          [
            70.2646317,
            34.5229273
          ],
          [
            70.2677574,
            34.5210876
          ],
          [
            70.2699832,
            34.5194166
          ],
          [
            70.2710584,
            34.5187719
          ],
          [
            70.2722238,
            34.5163811
          ],
          [
            70.2736522,
            34.5150564
          ],
          [
            70.2742765,
            34.5128288
          ],
          [
            70.2757933,
            34.5105428
          ],
          [
            70.2779924,
            34.5092592
          ],
          [
            70.2781945,
            34.5091868
          ],
          [
            70.2784829,
            34.5091194
          ],
          [
            70.2787793,
            34.5089625
          ],
          [
            70.2790609,
            34.508747
          ],
          [
            70.2793452,
            34.5086321
          ],
          [
            70.2797905,
            34.5085105
          ],
          [
            70.2807748,
            34.5083359
          ],
          [
            70.2813971,
            34.5082718
          ],
          [
            70.2826256,
            34.5083735
          ]
        ]
      },
      "id": "osm-location",
      "type": "Feature",
      "properties": {
        "description": "Location based on OpenStreetMap",
        "location_precision": "precise",
        "title": "OSM location of لغمان",
        "link": "http://pleiades.stoa.org/places/59774/osm-location"
      }
    }
  ]
}