{
  "type": "FeatureCollection",
  "title": "Ag. Ioannis",
  "id": "599475",
  "bbox": [
    26.669089,
    37.718815,
    26.669089,
    37.718815
  ],
  "description": "An ancient place, cited: BAtlas 61 D2 Ag. Ioannis",
  "connectsWith": [
    "599926"
  ],
  "features": [
    {
      "type": "Feature",
      "geometry": {
        "type": "Point",
        "coordinates": [
          26.669089,
          37.718815
        ]
      },
      "properties": {
        "description": "representative point"
      }
    },
    {
      "geometry": {
        "type": "Point",
        "coordinates": [
          26.669089,
          37.718815
        ]
      },
      "id": "darmc-location-6897",
      "type": "Feature",
      "properties": {
        "description": "1:500,000 scale representative point location digitized from the Barrington Atlas of the Greek and Roman World by the Digital Atlas of Roman and Medieval Civilizations project at Harvard University.",
        "location_precision": "precise",
        "title": "DARMC location 6897",
        "link": "http://pleiades.stoa.org/places/599475/darmc-location-6897"
      }
    }
  ]
}