{
  "type": "FeatureCollection",
  "title": "Aplomata",
  "id": "599502",
  "bbox": [
    25.384678,
    37.10832,
    25.384678,
    37.10832
  ],
  "description": "An ancient place, cited: BAtlas 61 A3 Aplomata",
  "connectsWith": [
    "599822"
  ],
  "features": [
    {
      "type": "Feature",
      "geometry": {
        "type": "Point",
        "coordinates": [
          25.384678,
          37.10832
        ]
      },
      "properties": {
        "description": "representative point"
      }
    },
    {
      "geometry": {
        "type": "Point",
        "coordinates": [
          25.384678,
          37.10832
        ]
      },
      "id": "darmc-location-6229",
      "type": "Feature",
      "properties": {
        "description": "1:500,000 scale representative point location digitized from the Barrington Atlas of the Greek and Roman World by the Digital Atlas of Roman and Medieval Civilizations project at Harvard University.",
        "location_precision": "precise",
        "title": "DARMC location 6229",
        "link": "http://pleiades.stoa.org/places/599502/darmc-location-6229"
      }
    }
  ]
}