{
  "type": "FeatureCollection",
  "title": "Cnidus (Burgaz)",
  "id": "599576",
  "bbox": [
    27.6993785,
    36.7355973,
    27.6993785,
    36.7355973
  ],
  "description": "A Greek city of ancient Caria that was part of the Dorian Hexapolis, was initially probably located at modern Burgaz in south-western Asia Minor on the Datça peninsula (Knidia) in Turkey. In the late fourth century BCE, the political center of the peninsula moved from the site at Burgaz to the site at Tekir, retaining the its ancient name. The Burgaz site is often referred to as \"Old Cnidus\" or \"Palaia Knidos\" in recognition of this change.",
  "connectsWith": [
    "599564"
  ],
  "names": [
    "Cnidus",
    "Burgaz",
    "Palaia Knidos",
    "Alt-Knidos"
  ],
  "features": [
    {
      "type": "Feature",
      "geometry": {
        "type": "Point",
        "coordinates": [
          27.6993785,
          36.7355973
        ]
      },
      "properties": {
        "description": "representative point"
      }
    },
    {
      "geometry": {
        "type": "Point",
        "coordinates": [
          27.6993785,
          36.7355973
        ]
      },
      "id": "osm-location-of-old-knidos-at-burgaz",
      "type": "Feature",
      "properties": {
        "description": "Presumed site of Old (Archaic-Classical) Knidos at modern Burgaz (municipality of Datça)",
        "location_precision": "precise",
        "title": "OSM Location of Old Cnidus/Palaia Knidos ",
        "link": "http://pleiades.stoa.org/places/599576/osm-location-of-old-knidos-at-burgaz"
      }
    }
  ]
}