{
  "type": "FeatureCollection",
  "title": "Bubasius Sinus",
  "id": "599561",
  "bbox": [
    28.0,
    36.5,
    28.5,
    37.0
  ],
  "description": "The ancient Bubasius Sinus is now known as the Gulf of Hisarönü (Hisarönü Körfezi in Turkish). The gulf lies Bozan Burnu to the north and Atabol Burnu to the south.",
  "names": [
    "Bubasius Sinus"
  ],
  "features": [
    {
      "type": "Feature",
      "geometry": {
        "type": "Point",
        "coordinates": [
          28.25,
          36.75
        ]
      },
      "properties": {
        "description": "representative point"
      }
    },
    {
      "geometry": {
        "type": "Polygon",
        "coordinates": [
          [
            [
              28.0,
              36.5
            ],
            [
              28.0,
              37.0
            ],
            [
              28.5,
              37.0
            ],
            [
              28.5,
              36.5
            ],
            [
              28.0,
              36.5
            ]
          ]
        ]
      },
      "id": "undetermined",
      "type": "Feature",
      "properties": {
        "description": null,
        "location_precision": "rough",
        "title": "Undetermined location",
        "link": "http://pleiades.stoa.org/places/599561/undetermined"
      }
    }
  ]
}