{
  "type": "FeatureCollection",
  "title": "Ephesus/Arsinoe(ia)",
  "id": "599612",
  "bbox": [
    27.3335044,
    37.9335036,
    27.351537,
    37.948407
  ],
  "description": "Ephesus/Arsinoe(ia) was the most important ancient metropolis of Ionian Asia Minor.",
  "connectsWith": [
    "550597",
    "177302800",
    "35475912",
    "35475912",
    "735295266",
    "351685830",
    "48050879",
    "45635759",
    "463803480",
    "981509"
  ],
  "names": [
    "Ephesus",
    " Arsinoeia",
    " Arsinoe",
    "Aya Soluḳ",
    "Aya S̱oluḳ",
    "Aya Soluq",
    "Ayāsulūk",
    "Ayā Sulūk",
    "Arsinoē",
    "Efes",
    "Ufsūs",
    "Selçuk",
    "Apaša",
    "Apasa",
    "ʾfss",
    "Ayasoluk",
    "Afsīs",
    "Ephesus",
    "Ephesos"
  ],
  "features": [
    {
      "type": "Feature",
      "geometry": {
        "type": "Point",
        "coordinates": [
          27.342402982,
          37.940164272
        ]
      },
      "properties": {
        "description": "representative point"
      }
    },
    {
      "geometry": {
        "type": "LineString",
        "coordinates": [
          [
            27.3476131,
            37.9459515
          ],
          [
            27.3476882,
            37.9470177
          ],
          [
            27.3471897,
            37.9474862
          ],
          [
            27.3464864,
            37.94782
          ],
          [
            27.3444105,
            37.9480893
          ],
          [
            27.3437208,
            37.9482454
          ],
          [
            27.3427239,
            37.9480408
          ],
          [
            27.341645,
            37.948407
          ],
          [
            27.3407368,
            37.948267
          ],
          [
            27.3405387,
            37.94782
          ],
          [
            27.3397603,
            37.9480247
          ],
          [
            27.3396032,
            37.9482508
          ],
          [
            27.3392072,
            37.9479708
          ],
          [
            27.3386814,
            37.9471469
          ],
          [
            27.3381556,
            37.94628
          ],
          [
            27.337623,
            37.9462046
          ],
          [
            27.3368513,
            37.9458653
          ],
          [
            27.3361958,
            37.9453538
          ],
          [
            27.3360251,
            37.9451922
          ],
          [
            27.3352944,
            37.9452838
          ],
          [
            27.3357246,
            37.9447507
          ],
          [
            27.3353832,
            37.9447399
          ],
          [
            27.3351852,
            37.9445676
          ],
          [
            27.3354037,
            37.9442768
          ],
          [
            27.335431,
            37.9437706
          ],
          [
            27.3349803,
            37.9435767
          ],
          [
            27.3347823,
            37.9432967
          ],
          [
            27.3345092,
            37.9426236
          ],
          [
            27.3346662,
            37.9423274
          ],
          [
            27.334557,
            37.9420366
          ],
          [
            27.334277,
            37.9417889
          ],
          [
            27.3335044,
            37.9374172
          ],
          [
            27.3354551,
            37.9350257
          ],
          [
            27.3381784,
            37.9343707
          ],
          [
            27.3419639,
            37.9340812
          ],
          [
            27.3436636,
            37.9348581
          ],
          [
            27.3501986,
            37.9339991
          ],
          [
            27.3509429,
            37.9335036
          ],
          [
            27.35138,
            37.9335898
          ],
          [
            27.351537,
            37.9348231
          ],
          [
            27.3510044,
            37.9351678
          ],
          [
            27.3511137,
            37.9355771
          ],
          [
            27.3510795,
            37.9360187
          ],
          [
            27.3502738,
            37.9362557
          ],
          [
            27.3478565,
            37.9363418
          ],
          [
            27.3452616,
            37.9375698
          ],
          [
            27.3439779,
            37.9392285
          ],
          [
            27.3452207,
            37.9416626
          ],
          [
            27.3452207,
            37.9434505
          ],
          [
            27.3469278,
            37.9448829
          ],
          [
            27.3474741,
            37.945066
          ],
          [
            27.3476131,
            37.9459515
          ]
        ]
      },
      "id": "osm-location-of-ephesus",
      "type": "Feature",
      "properties": {
        "description": "Representative location based on OpenStreetMap",
        "location_precision": "precise",
        "title": "OSM location of Ephesus",
        "link": "http://pleiades.stoa.org/places/599612/osm-location-of-ephesus"
      }
    }
  ]
}