{
  "type": "FeatureCollection",
  "title": "Kamares",
  "id": "599685",
  "bbox": [
    26.96955,
    36.736581,
    26.96955,
    36.736581
  ],
  "description": "An ancient place, cited: BAtlas 61 D4 Kamares",
  "connectsWith": [
    "599581"
  ],
  "features": [
    {
      "type": "Feature",
      "geometry": {
        "type": "Point",
        "coordinates": [
          26.96955,
          36.736581
        ]
      },
      "properties": {
        "description": "representative point"
      }
    },
    {
      "geometry": {
        "type": "Point",
        "coordinates": [
          26.96955,
          36.736581
        ]
      },
      "id": "darmc-location-17477",
      "type": "Feature",
      "properties": {
        "description": "1:500,000 scale representative point location digitized from the Barrington Atlas of the Greek and Roman World by the Digital Atlas of Roman and Medieval Civilizations project at Harvard University.",
        "location_precision": "precise",
        "title": "DARMC location 17477",
        "link": "http://pleiades.stoa.org/places/599685/darmc-location-17477"
      }
    }
  ]
}