{
  "type": "FeatureCollection",
  "title": "Hydrousa",
  "id": "599655",
  "bbox": [
    26.732919,
    37.798016,
    26.732919,
    37.798016
  ],
  "description": "An ancient place, cited: BAtlas 61 D2 Hydrousa",
  "connectsWith": [
    "599926"
  ],
  "features": [
    {
      "type": "Feature",
      "geometry": {
        "type": "Point",
        "coordinates": [
          26.732919,
          37.798016
        ]
      },
      "properties": {
        "description": "representative point"
      }
    },
    {
      "geometry": {
        "type": "Point",
        "coordinates": [
          26.732919,
          37.798016
        ]
      },
      "id": "darmc-location-12815",
      "type": "Feature",
      "properties": {
        "description": "1:500,000 scale representative point location digitized from the Barrington Atlas of the Greek and Roman World by the Digital Atlas of Roman and Medieval Civilizations project at Harvard University.",
        "location_precision": "precise",
        "title": "DARMC location 12815",
        "link": "http://pleiades.stoa.org/places/599655/darmc-location-12815"
      }
    }
  ]
}