{
  "type": "FeatureCollection",
  "title": "Hyria (Naxos)",
  "id": "599661",
  "bbox": [
    25.3798489,
    37.0771852,
    25.381764,
    37.0783483
  ],
  "description": "A sixth century B.C. sanctuary located on the island of Naxos.",
  "connectsWith": [
    "599822"
  ],
  "features": [
    {
      "type": "Feature",
      "geometry": {
        "type": "Point",
        "coordinates": [
          25.380676529,
          37.077627877
        ]
      },
      "properties": {
        "description": "representative point"
      }
    },
    {
      "geometry": {
        "type": "MultiLineString",
        "coordinates": [
          [
            [
              25.3817278,
              37.0777266
            ],
            [
              25.3817183,
              37.0777027
            ],
            [
              25.3816405,
              37.0775034
            ],
            [
              25.3816286,
              37.077473
            ],
            [
              25.381764,
              37.0774227
            ],
            [
              25.3816916,
              37.0771852
            ],
            [
              25.3805906,
              37.0772494
            ],
            [
              25.3805114,
              37.0772933
            ],
            [
              25.3800702,
              37.0771895
            ],
            [
              25.380042,
              37.0774174
            ],
            [
              25.3798489,
              37.0774302
            ],
            [
              25.3800045,
              37.0779117
            ],
            [
              25.3800152,
              37.0783483
            ],
            [
              25.3801936,
              37.0783097
            ],
            [
              25.3803974,
              37.0781717
            ],
            [
              25.380844,
              37.0779855
            ],
            [
              25.3808025,
              37.0778721
            ],
            [
              25.3817278,
              37.0777266
            ]
          ],
          [
            [
              25.3804806,
              37.0778903
            ],
            [
              25.3804216,
              37.0777705
            ],
            [
              25.3803773,
              37.0777801
            ],
            [
              25.3803478,
              37.0777352
            ],
            [
              25.3800796,
              37.0778208
            ],
            [
              25.3799669,
              37.0774901
            ],
            [
              25.3801976,
              37.0774816
            ],
            [
              25.3803183,
              37.0774794
            ],
            [
              25.3804551,
              37.0775041
            ],
            [
              25.3805476,
              37.0775586
            ],
            [
              25.3806683,
              37.077519
            ],
            [
              25.3805879,
              37.0773564
            ],
            [
              25.3806871,
              37.0773297
            ],
            [
              25.380726,
              37.0773981
            ],
            [
              25.3809285,
              37.0773157
            ],
            [
              25.3811243,
              37.0777587
            ],
            [
              25.3808011,
              37.0778561
            ],
            [
              25.3804806,
              37.0778903
            ]
          ]
        ]
      },
      "id": "osm-location-of-iria-dionysos-sanctuary",
      "type": "Feature",
      "properties": {
        "description": "Representative location based on OpenStreetMap",
        "location_precision": "precise",
        "title": "OSM location of IRIA - Dionysos Sanctuary",
        "link": "http://pleiades.stoa.org/places/599661/osm-location-of-iria-dionysos-sanctuary"
      }
    }
  ]
}