{
  "type": "FeatureCollection",
  "title": "Magnesia ad Maeandrum/Leukophrys",
  "id": "599778",
  "bbox": [
    27.5146782,
    37.8453351,
    27.5311125,
    37.8542885
  ],
  "description": "Magnesia ad Maeandrum was an ancient city on the Maeander River in Ionia, site of an important sanctuary of Artemis Leukophryene (\"of the white eyebrow\"). Its extensive remains are located near the modern village of Tekin in Turkey's Aydın Province.",
  "connectsWith": [
    "599777",
    "540923",
    "599564",
    "45635759",
    "177302800"
  ],
  "names": [
    "Magnēsía hē Asianḗ",
    "Magnēsía epì Maiándrō",
    "Magnesia ad Maeandrum",
    "Leukophrys",
    "Magnesia",
    "Tekke",
    "Tekin",
    "Aydın"
  ],
  "features": [
    {
      "type": "Feature",
      "geometry": {
        "type": "Point",
        "coordinates": [
          27.5231784408,
          37.8498623435
        ]
      },
      "properties": {
        "description": "representative point"
      }
    },
    {
      "geometry": {
        "type": "LineString",
        "coordinates": [
          [
            27.5304369,
            37.8474651
          ],
          [
            27.5250568,
            37.8457118
          ],
          [
            27.5231943,
            37.8453351
          ],
          [
            27.5211772,
            37.8457248
          ],
          [
            27.5203833,
            37.8454452
          ],
          [
            27.5183234,
            37.8455554
          ],
          [
            27.5171526,
            37.8460915
          ],
          [
            27.5155681,
            37.8481525
          ],
          [
            27.5146782,
            37.8525892
          ],
          [
            27.5226795,
            37.8521526
          ],
          [
            27.5227799,
            37.852875
          ],
          [
            27.5245057,
            37.8528765
          ],
          [
            27.5255118,
            37.8533893
          ],
          [
            27.5256766,
            37.8535137
          ],
          [
            27.5257366,
            37.8538599
          ],
          [
            27.5259944,
            37.8542455
          ],
          [
            27.5269928,
            37.8538245
          ],
          [
            27.528993,
            37.8542885
          ],
          [
            27.5293052,
            37.8538435
          ],
          [
            27.5300761,
            37.8530863
          ],
          [
            27.5305291,
            37.8526884
          ],
          [
            27.5311125,
            37.8508437
          ],
          [
            27.5294415,
            37.8504625
          ],
          [
            27.5304369,
            37.8474651
          ]
        ]
      },
      "id": "osm-location-archaeological-site-of-magnesia",
      "type": "Feature",
      "properties": {
        "description": "Location based on OpenStreetMap. Dates after BAtlDir.",
        "location_precision": "precise",
        "title": "OSM Location: archaeological site of Magnesia",
        "link": "http://pleiades.stoa.org/places/599778/osm-location-archaeological-site-of-magnesia"
      }
    }
  ]
}