{
  "type": "FeatureCollection",
  "title": "Panormos (Korsiai islands)",
  "id": "599858",
  "bbox": [
    26.4803455132,
    37.5803990043,
    26.4803455132,
    37.5803990043
  ],
  "description": "A sheltered bay and anchorage at the modern settlement of Fourni (possibly the ancient settlement of Korsiai) on the island of Fourni in the Korsiai archipelago.",
  "connectsWith": [
    "599726"
  ],
  "names": [
    "Panormos"
  ],
  "features": [
    {
      "type": "Feature",
      "geometry": {
        "type": "Point",
        "coordinates": [
          26.4803455132,
          37.5803990043
        ]
      },
      "properties": {
        "description": "representative point"
      }
    },
    {
      "geometry": {
        "type": "Point",
        "coordinates": [
          26.48034551321707,
          37.58039900426593
        ]
      },
      "id": "batlas-point-location",
      "type": "Feature",
      "properties": {
        "description": "Point location on Barrington Atlas map 61 digitized in QGIS from a raster image of the map that was georegistered by the Ancient World Mapping Center in 2002.",
        "location_precision": "precise",
        "title": "BAtlas Point Location",
        "link": "http://pleiades.stoa.org/places/599858/batlas-point-location"
      }
    }
  ]
}