{
  "type": "FeatureCollection",
  "title": "Panormos (Naxos)",
  "id": "599857",
  "bbox": [
    25.5362708991,
    36.9584333016,
    25.5362708991,
    36.9584333016
  ],
  "description": "A small, sheltered bay on the southeast coast of the Aegean island of Naxos. The modern village of Panermos Naxou (referenced in RE as cited by BAtlDir) is situated at the head of the bay.",
  "connectsWith": [
    "599822"
  ],
  "names": [
    "Panermos Naxou",
    "Kalantou",
    "Panormos"
  ],
  "features": [
    {
      "type": "Feature",
      "geometry": {
        "type": "Point",
        "coordinates": [
          25.5362708991,
          36.9584333016
        ]
      },
      "properties": {
        "description": "representative point"
      }
    },
    {
      "geometry": {
        "type": "Point",
        "coordinates": [
          25.53627089914367,
          36.958433301583064
        ]
      },
      "id": "batlas-point-location",
      "type": "Feature",
      "properties": {
        "description": "Point location on Barrington Atlas map 61 digitized in QGIS from a raster image of the map that was georegistered by the Ancient World Mapping Center in 2002.",
        "location_precision": "precise",
        "title": "BAtlas Point Location",
        "link": "http://pleiades.stoa.org/places/599857/batlas-point-location"
      }
    }
  ]
}