{
  "type": "FeatureCollection",
  "title": "Panormos (Küdür)",
  "id": "599865",
  "bbox": [
    27.259801,
    37.123428,
    27.259801,
    37.123428
  ],
  "description": "A narrow, long bay opening on the north side of the modern Küdür peninsula in the Bodrum district of Turkey's Muğla province. BAtlDir offers the modern name \"Alaman Gölü\".",
  "names": [
    "Panormos",
    "Alaman Gölü"
  ],
  "features": [
    {
      "type": "Feature",
      "geometry": {
        "type": "Point",
        "coordinates": [
          27.259801,
          37.123428
        ]
      },
      "properties": {
        "description": "representative point"
      }
    },
    {
      "geometry": {
        "type": "Point",
        "coordinates": [
          27.259801,
          37.123428
        ]
      },
      "id": "imagery-location-after-batlas",
      "type": "Feature",
      "properties": {
        "description": "Imagery location, determined in Google Earth, with reference to \"PANORMOS\" label and arrow in BAtlas 61 E3. Dates after BAtlDir.",
        "location_precision": "precise",
        "title": "Imagery Location after BAtlas",
        "link": "http://pleiades.stoa.org/places/599865/imagery-location-after-batlas"
      }
    }
  ]
}