{
  "type": "FeatureCollection",
  "title": "Theangela",
  "id": "599969",
  "bbox": [
    27.59493,
    37.042709,
    27.597334,
    37.044491
  ],
  "description": "An ancient place, cited: BAtlas 61 F3 Theangela",
  "connectsWith": [
    "48050879"
  ],
  "names": [
    "Theangela",
    "Theangela"
  ],
  "features": [
    {
      "type": "Feature",
      "geometry": {
        "type": "Point",
        "coordinates": [
          27.596132,
          37.0436
        ]
      },
      "properties": {
        "description": "representative point"
      }
    },
    {
      "geometry": {
        "type": "Point",
        "coordinates": [
          27.59493,
          37.044491
        ]
      },
      "id": "darmc-location-15118",
      "type": "Feature",
      "properties": {
        "description": "1:500,000 scale representative point location digitized from the Barrington Atlas of the Greek and Roman World by the Digital Atlas of Roman and Medieval Civilizations project at Harvard University.",
        "location_precision": "precise",
        "title": "DARMC location 15118",
        "link": "http://pleiades.stoa.org/places/599969/darmc-location-15118"
      }
    },
    {
      "geometry": {
        "type": "Point",
        "coordinates": [
          27.597334,
          37.042709
        ]
      },
      "id": "vici-org-location",
      "type": "Feature",
      "properties": {
        "description": "+/- 5 meter location from vici.org; dates after BAtlas",
        "location_precision": "precise",
        "title": "Vici.org location",
        "link": "http://pleiades.stoa.org/places/599969/vici-org-location"
      }
    }
  ]
}