{
  "type": "FeatureCollection",
  "title": "Teichioussa",
  "id": "599957",
  "bbox": [
    27.457993,
    37.353179,
    27.457993,
    37.353179
  ],
  "description": "An ancient place, cited: BAtlas 61 E3 Teichioussa",
  "names": [
    "Teichioussa"
  ],
  "features": [
    {
      "type": "Feature",
      "geometry": {
        "type": "Point",
        "coordinates": [
          27.457993,
          37.353179
        ]
      },
      "properties": {
        "description": "representative point"
      }
    },
    {
      "geometry": {
        "type": "Point",
        "coordinates": [
          27.457993,
          37.353179
        ]
      },
      "id": "darmc-location-15040",
      "type": "Feature",
      "properties": {
        "description": "1:500,000 scale representative point location digitized from the Barrington Atlas of the Greek and Roman World by the Digital Atlas of Roman and Medieval Civilizations project at Harvard University.",
        "location_precision": "precise",
        "title": "DARMC location 15040",
        "link": "http://pleiades.stoa.org/places/599957/darmc-location-15040"
      }
    }
  ]
}