{
  "type": "FeatureCollection",
  "title": "Xerokambos",
  "id": "599996",
  "bbox": [
    26.87377,
    37.111176,
    26.87377,
    37.111176
  ],
  "description": "An ancient place, cited: BAtlas 61 D3 Xerokambos",
  "connectsWith": [
    "599764"
  ],
  "features": [
    {
      "type": "Feature",
      "geometry": {
        "type": "Point",
        "coordinates": [
          26.87377,
          37.111176
        ]
      },
      "properties": {
        "description": "representative point"
      }
    },
    {
      "geometry": {
        "type": "Point",
        "coordinates": [
          26.87377,
          37.111176
        ]
      },
      "id": "darmc-location-8452",
      "type": "Feature",
      "properties": {
        "description": "1:500,000 scale representative point location digitized from the Barrington Atlas of the Greek and Roman World by the Digital Atlas of Roman and Medieval Civilizations project at Harvard University.",
        "location_precision": "precise",
        "title": "DARMC location 8452",
        "link": "http://pleiades.stoa.org/places/599996/darmc-location-8452"
      }
    }
  ]
}