{
  "type": "FeatureCollection",
  "title": "Samiopoula (settlement opposite)",
  "id": "599924",
  "bbox": [
    26.79967,
    37.651889,
    26.79967,
    37.651889
  ],
  "description": "On the island of Samos, opposite the small islet of Samiopoula on land then controlled by that islets' inhabitants, twentieth-century scholars noted remains of a Roman-Byzantine-era settlement and associated tombs.",
  "connectsWith": [
    "599926",
    "668432190"
  ],
  "names": [
    "Samiopoula"
  ],
  "features": [
    {
      "type": "Feature",
      "geometry": {
        "type": "Point",
        "coordinates": [
          26.79967,
          37.651889
        ]
      },
      "properties": {
        "description": "representative point"
      }
    },
    {
      "geometry": {
        "type": "Point",
        "coordinates": [
          26.79967,
          37.651889
        ]
      },
      "id": "darmc-location-14587",
      "type": "Feature",
      "properties": {
        "description": "1:500,000 scale representative point location digitized from the Barrington Atlas of the Greek and Roman World by the Digital Atlas of Roman and Medieval Civilizations project at Harvard University.",
        "location_precision": "precise",
        "title": "DARMC location 14587",
        "link": "http://pleiades.stoa.org/places/599924/darmc-location-14587"
      }
    }
  ]
}