{
  "type": "FeatureCollection",
  "title": "Lake Farm Roman fort",
  "id": "600065939",
  "bbox": [
    -2.0008954,
    50.7898299,
    -2.0007409,
    50.7927564
  ],
  "description": "Large Roman military installation near present-day Wimborne Minster in Dorset. It was established very shortly after Claudian invasion (ca. 44 CE), and later served as a vexillation fortress.",
  "features": [
    {
      "type": "Feature",
      "geometry": {
        "type": "Point",
        "coordinates": [
          -2.00081815,
          50.79129315
        ]
      },
      "properties": {
        "description": "representative point"
      }
    },
    {
      "geometry": {
        "type": "Point",
        "coordinates": [
          -2.0007409,
          50.7927564
        ]
      },
      "id": "osm-location-of-lake-farm-roman-fort",
      "type": "Feature",
      "properties": {
        "description": "Representative location based on OpenStreetMap",
        "location_precision": "precise",
        "title": "OSM location of Lake Farm Roman fort",
        "link": "http://pleiades.stoa.org/places/600065939/osm-location-of-lake-farm-roman-fort"
      }
    },
    {
      "geometry": {
        "type": "LineString",
        "coordinates": [
          [
            -2.0028034,
            50.7900353
          ],
          [
            -2.002519,
            50.7899618
          ],
          [
            -2.0024251,
            50.7899325
          ],
          [
            -2.0019446,
            50.789805
          ],
          [
            -2.0018168,
            50.7897676
          ],
          [
            -2.0016056,
            50.7897148
          ],
          [
            -2.0014641,
            50.7897055
          ],
          [
            -2.0011441,
            50.7897402
          ],
          [
            -2.0009171,
            50.7897943
          ],
          [
            -2.0008954,
            50.7898299
          ],
          [
            -2.0008304,
            50.7903957
          ],
          [
            -2.0015186,
            50.7904666
          ],
          [
            -2.0014654,
            50.7905675
          ],
          [
            -2.0024106,
            50.790672
          ],
          [
            -2.0028034,
            50.7900353
          ]
        ]
      },
      "id": "osm-location-of-lake-farm",
      "type": "Feature",
      "properties": {
        "description": "Representative point location marking the modern location of Lake Farm, based on OpenStreetMap. According to published reports, the remains of the fort were excavated 240 meters north of Lake Farm.",
        "location_precision": "precise",
        "title": "OSM location of modern Lake Farm",
        "link": "http://pleiades.stoa.org/places/600065939/osm-location-of-lake-farm"
      }
    }
  ]
}