{
  "type": "FeatureCollection",
  "title": "Shurabashat",
  "id": "60046",
  "bbox": [
    73.443172,
    40.697879,
    73.443172,
    40.697879
  ],
  "description": "An ancient place, cited: BAtlas 6 C1 Shurabashat",
  "features": [
    {
      "type": "Feature",
      "geometry": {
        "type": "Point",
        "coordinates": [
          73.443172,
          40.697879
        ]
      },
      "properties": {
        "description": "representative point"
      }
    },
    {
      "geometry": {
        "type": "Point",
        "coordinates": [
          73.443172,
          40.697879
        ]
      },
      "id": "darmc-location-3545",
      "type": "Feature",
      "properties": {
        "description": "5M scale representative point location digitized from the Barrington Atlas of the Greek and Roman World by the Digital Atlas of Roman and Medieval Civilizations project at Harvard University.",
        "location_precision": "precise",
        "title": "DARMC location 3545",
        "link": "http://pleiades.stoa.org/places/60046/darmc-location-3545"
      }
    }
  ]
}