{
  "type": "FeatureCollection",
  "title": "Thorax",
  "id": "60085",
  "bbox": [
    71.7424940058,
    24.375838452,
    71.7424940058,
    24.375838452
  ],
  "description": "Described as a \"beautiful city of the Sarabastrae\" by Pliny the Elder, this ancient settlement may be identifiable with modern Tharad in the Indian state of Gujarat.",
  "connectsWith": [
    "60034"
  ],
  "names": [
    "Thorax"
  ],
  "features": [
    {
      "type": "Feature",
      "geometry": {
        "type": "Point",
        "coordinates": [
          71.7424940058,
          24.375838452
        ]
      },
      "properties": {
        "description": "representative point"
      }
    },
    {
      "geometry": {
        "type": "Point",
        "coordinates": [
          71.74249400575586,
          24.375838451964885
        ]
      },
      "id": "batlas-point-location",
      "type": "Feature",
      "properties": {
        "description": "Point digitized from raster of BAtlas map 6 that had been created and georegistered by the Ancient World Mapping Center. Dates from corresponding entry in BAtlDir.",
        "location_precision": "precise",
        "title": "BAtlas Point Location",
        "link": "http://pleiades.stoa.org/places/60085/batlas-point-location"
      }
    }
  ]
}