{
  "type": "FeatureCollection",
  "title": "Portchester Castle",
  "id": "607646886",
  "bbox": [
    -1.1156756,
    50.8361904,
    -1.1123882,
    50.8382585
  ],
  "description": "An eleventh-century castle was built on the site of the Roman fort known as Portus Adurni. Portchester Castle is located at Portchester, to the east of Fareham in Hampshire, England.",
  "connectsWith": [
    "79645"
  ],
  "names": [
    "Portchester Castle"
  ],
  "features": [
    {
      "type": "Feature",
      "geometry": {
        "type": "Point",
        "coordinates": [
          -1.11412084827,
          50.8372382657
        ]
      },
      "properties": {
        "description": "representative point"
      }
    },
    {
      "geometry": {
        "type": "LineString",
        "coordinates": [
          [
            -1.1156756,
            50.8366058
          ],
          [
            -1.1155806,
            50.8368728
          ],
          [
            -1.1155635,
            50.8369209
          ],
          [
            -1.1155452,
            50.8369724
          ],
          [
            -1.1154671,
            50.8371819
          ],
          [
            -1.1155057,
            50.8371884
          ],
          [
            -1.1155139,
            50.8371907
          ],
          [
            -1.1155199,
            50.8371937
          ],
          [
            -1.1155242,
            50.8371967
          ],
          [
            -1.1155275,
            50.8371991
          ],
          [
            -1.1155308,
            50.8372045
          ],
          [
            -1.1155329,
            50.8372088
          ],
          [
            -1.1155333,
            50.8372132
          ],
          [
            -1.1155325,
            50.8372176
          ],
          [
            -1.1155312,
            50.8372219
          ],
          [
            -1.1155286,
            50.8372262
          ],
          [
            -1.1155249,
            50.8372297
          ],
          [
            -1.1155208,
            50.8372328
          ],
          [
            -1.115515,
            50.8372359
          ],
          [
            -1.1155097,
            50.837238
          ],
          [
            -1.1155026,
            50.8372397
          ],
          [
            -1.1154889,
            50.8372409
          ],
          [
            -1.1154804,
            50.8372404
          ],
          [
            -1.1154485,
            50.8372351
          ],
          [
            -1.1153591,
            50.8374787
          ],
          [
            -1.1153761,
            50.8374345
          ],
          [
            -1.1153926,
            50.8373917
          ],
          [
            -1.1153344,
            50.8375554
          ],
          [
            -1.1153707,
            50.8375606
          ],
          [
            -1.115384,
            50.8375643
          ],
          [
            -1.1153944,
            50.8375706
          ],
          [
            -1.1154003,
            50.8375774
          ],
          [
            -1.1154028,
            50.8375851
          ],
          [
            -1.1154013,
            50.8375937
          ],
          [
            -1.1153956,
            50.8376016
          ],
          [
            -1.1153895,
            50.8376061
          ],
          [
            -1.115382,
            50.8376096
          ],
          [
            -1.1153683,
            50.8376129
          ],
          [
            -1.1153538,
            50.837613
          ],
          [
            -1.1153148,
            50.837608
          ],
          [
            -1.1152192,
            50.8378642
          ],
          [
            -1.1151855,
            50.8379554
          ],
          [
            -1.1151309,
            50.8381032
          ],
          [
            -1.1151758,
            50.8381099
          ],
          [
            -1.1151201,
            50.8382585
          ],
          [
            -1.1148772,
            50.8382222
          ],
          [
            -1.1147631,
            50.8382046
          ],
          [
            -1.1147783,
            50.8381705
          ],
          [
            -1.1146698,
            50.8381528
          ],
          [
            -1.1146269,
            50.8381462
          ],
          [
            -1.1145796,
            50.8381397
          ],
          [
            -1.1145061,
            50.838129
          ],
          [
            -1.1143522,
            50.8381065
          ],
          [
            -1.1142472,
            50.8380913
          ],
          [
            -1.1140582,
            50.8380619
          ],
          [
            -1.1139855,
            50.8380506
          ],
          [
            -1.1137746,
            50.8380178
          ],
          [
            -1.113537,
            50.8379819
          ],
          [
            -1.1134531,
            50.8379692
          ],
          [
            -1.1124878,
            50.8378305
          ],
          [
            -1.1124492,
            50.8378446
          ],
          [
            -1.1124289,
            50.8378478
          ],
          [
            -1.1124096,
            50.8378453
          ],
          [
            -1.1123964,
            50.8378382
          ],
          [
            -1.1123892,
            50.8378298
          ],
          [
            -1.1123882,
            50.8378196
          ],
          [
            -1.1123923,
            50.8378087
          ],
          [
            -1.1124035,
            50.8378003
          ],
          [
            -1.1124431,
            50.8377856
          ],
          [
            -1.1126529,
            50.8372186
          ],
          [
            -1.1126553,
            50.8372122
          ],
          [
            -1.1126745,
            50.8371616
          ],
          [
            -1.1127331,
            50.8370073
          ],
          [
            -1.1127611,
            50.8369333
          ],
          [
            -1.1127663,
            50.8369197
          ],
          [
            -1.1127972,
            50.8368383
          ],
          [
            -1.1128106,
            50.8367969
          ],
          [
            -1.1130175,
            50.8362162
          ],
          [
            -1.1130906,
            50.8361904
          ],
          [
            -1.1135312,
            50.8362566
          ],
          [
            -1.1136033,
            50.8362674
          ],
          [
            -1.1140601,
            50.8363363
          ],
          [
            -1.1141397,
            50.8363484
          ],
          [
            -1.1142739,
            50.8363686
          ],
          [
            -1.1145867,
            50.8364146
          ],
          [
            -1.1146659,
            50.8364262
          ],
          [
            -1.1151158,
            50.8364923
          ],
          [
            -1.1151937,
            50.8365038
          ],
          [
            -1.115634,
            50.8365685
          ],
          [
            -1.1156756,
            50.8366058
          ]
        ]
      },
      "id": "osm-location-of-portchester-castle",
      "type": "Feature",
      "properties": {
        "description": "Representative location based on OpenStreetMap",
        "location_precision": "precise",
        "title": "OSM location of Portchester Castle",
        "link": "http://pleiades.stoa.org/places/607646886/osm-location-of-portchester-castle"
      }
    }
  ]
}