{
  "type": "FeatureCollection",
  "title": "Atlıhisar",
  "id": "609326",
  "bbox": [
    30.5840769,
    38.4497752,
    30.5840769,
    38.4497752
  ],
  "description": "An ancient place, cited: BAtlas 62 E5 Atlıhisar",
  "names": [
    "Atlıhisar"
  ],
  "features": [
    {
      "type": "Feature",
      "geometry": {
        "type": "Point",
        "coordinates": [
          30.5840769,
          38.4497752
        ]
      },
      "properties": {
        "description": "representative point"
      }
    },
    {
      "geometry": {
        "type": "Point",
        "coordinates": [
          30.5840769,
          38.4497752
        ]
      },
      "id": "osm-location-of-atla-hisar",
      "type": "Feature",
      "properties": {
        "description": "Location based on OpenStreetMap",
        "location_precision": "precise",
        "title": "OSM location of Atlıhisar",
        "link": "http://pleiades.stoa.org/places/609326/osm-location-of-atla-hisar"
      }
    }
  ]
}