{
  "type": "FeatureCollection",
  "title": "*Appolena",
  "id": "609315",
  "bbox": [
    31.1456153,
    38.955232,
    31.1456153,
    38.955232
  ],
  "description": "An ancient place, cited: BAtlas 62 F4 *Appolena",
  "names": [
    "Appolena",
    "Tezkalesi"
  ],
  "features": [
    {
      "type": "Feature",
      "geometry": {
        "type": "Point",
        "coordinates": [
          31.1456153,
          38.955232
        ]
      },
      "properties": {
        "description": "representative point"
      }
    },
    {
      "geometry": {
        "type": "Point",
        "coordinates": [
          31.1456153,
          38.955232
        ]
      },
      "id": "osm-location-of-appolena",
      "type": "Feature",
      "properties": {
        "description": "Representative location based on OpenStreetMap",
        "location_precision": "precise",
        "title": "OSM location of Appolena",
        "link": "http://pleiades.stoa.org/places/609315/osm-location-of-appolena"
      }
    }
  ]
}