{
  "type": "FeatureCollection",
  "title": "Unnamed bridge",
  "id": "610798",
  "bbox": [
    28.5,
    38.5,
    29.0,
    39.0
  ],
  "description": "An unnamed bridge that crosses the Hermos River to the southwest of Thermai Theseos near Hamamlar.",
  "connectsWith": [
    "609555"
  ],
  "features": [
    {
      "type": "Feature",
      "geometry": {
        "type": "Point",
        "coordinates": [
          28.75,
          38.75
        ]
      },
      "properties": {
        "description": "representative point"
      }
    },
    {
      "geometry": {
        "type": "Polygon",
        "coordinates": [
          [
            [
              28.5,
              38.5
            ],
            [
              28.5,
              39.0
            ],
            [
              29.0,
              39.0
            ],
            [
              29.0,
              38.5
            ],
            [
              28.5,
              38.5
            ]
          ]
        ]
      },
      "id": "undetermined",
      "type": "Feature",
      "properties": {
        "description": null,
        "location_precision": "rough",
        "title": "Undetermined location",
        "link": "http://pleiades.stoa.org/places/610798/undetermined"
      }
    }
  ]
}