{
  "type": "FeatureCollection",
  "title": "Nuraghe Conca Niedda",
  "id": "613215678",
  "bbox": [
    8.7649829,
    40.8023548,
    8.7652185,
    40.8025326
  ],
  "description": "A nuraghe that is located atop a trachytic rock at a bend in the Rio d'Aridda, a river that has carved a deep valley.",
  "connectsWith": [
    "472014"
  ],
  "names": [
    "Nuraghe Conca Niedda"
  ],
  "features": [
    {
      "type": "Feature",
      "geometry": {
        "type": "Point",
        "coordinates": [
          8.7651008444,
          40.802443118
        ]
      },
      "properties": {
        "description": "representative point"
      }
    },
    {
      "geometry": {
        "type": "LineString",
        "coordinates": [
          [
            8.7652084,
            40.8024059
          ],
          [
            8.7652185,
            40.802434
          ],
          [
            8.7652161,
            40.8024631
          ],
          [
            8.7652015,
            40.8024901
          ],
          [
            8.7651762,
            40.8025121
          ],
          [
            8.7651422,
            40.802527
          ],
          [
            8.7651036,
            40.8025326
          ],
          [
            8.7650646,
            40.8025284
          ],
          [
            8.7650297,
            40.8025147
          ],
          [
            8.7650027,
            40.8024931
          ],
          [
            8.7649865,
            40.8024659
          ],
          [
            8.7649829,
            40.8024363
          ],
          [
            8.7649924,
            40.8024074
          ],
          [
            8.7650138,
            40.8023825
          ],
          [
            8.7650449,
            40.8023642
          ],
          [
            8.7650813,
            40.8023548
          ],
          [
            8.7651198,
            40.8023548
          ],
          [
            8.7651563,
            40.8023641
          ],
          [
            8.7651869,
            40.8023817
          ],
          [
            8.7652084,
            40.8024059
          ]
        ]
      },
      "id": "osm-location-of-nuraghe-conca-niedda",
      "type": "Feature",
      "properties": {
        "description": "Location based on OpenStreetMap",
        "location_precision": "precise",
        "title": "OSM location of Nuraghe Conca Niedda",
        "link": "http://pleiades.stoa.org/places/613215678/osm-location-of-nuraghe-conca-niedda"
      }
    }
  ]
}