{
  "type": "FeatureCollection",
  "title": "Corpeni",
  "id": "614636",
  "description": "An ancient people in the area of ancient Synnada (modern Şuhut, Turkey). Their precise localization cannot be determined today.",
  "names": [
    "Corpeni"
  ],
  "features": [
    {
      "type": "Feature",
      "geometry": null,
      "properties": {
        "description": "representative point"
      }
    },
    {
      "geometry": null,
      "id": "undetermined",
      "type": "Feature",
      "properties": {
        "description": null,
        "location_precision": "unlocated",
        "title": "Undetermined location",
        "link": "http://pleiades.stoa.org/places/614636/undetermined"
      }
    }
  ]
}