{
  "type": "FeatureCollection",
  "title": "Porta Marina ",
  "id": "615138225",
  "bbox": [
    14.4830132,
    40.7484787,
    14.4833651,
    40.7486673
  ],
  "description": "A city gate at the western terminus of the Strada della Marina.",
  "connectsWith": [
    "433032",
    "824486497"
  ],
  "features": [
    {
      "type": "Feature",
      "geometry": {
        "type": "Point",
        "coordinates": [
          14.4831800539,
          40.7485726737
        ]
      },
      "properties": {
        "description": "representative point"
      }
    },
    {
      "geometry": {
        "type": "LineString",
        "coordinates": [
          [
            14.4830132,
            40.7486405
          ],
          [
            14.4830677,
            40.7485405
          ],
          [
            14.4830852,
            40.748509
          ],
          [
            14.4831038,
            40.7484787
          ],
          [
            14.483214,
            40.7485104
          ],
          [
            14.4832915,
            40.7485322
          ],
          [
            14.4833651,
            40.7485544
          ],
          [
            14.4833546,
            40.7485756
          ],
          [
            14.4833318,
            40.7486188
          ],
          [
            14.4833075,
            40.7486128
          ],
          [
            14.483178,
            40.7485775
          ],
          [
            14.4830871,
            40.7486673
          ],
          [
            14.4830248,
            40.7486447
          ],
          [
            14.4830132,
            40.7486405
          ]
        ]
      },
      "id": "porta-marina",
      "type": "Feature",
      "properties": {
        "description": "Location based on OpenStreetMap",
        "location_precision": "precise",
        "title": "OSM location of so-called \"Porta Marina\"",
        "link": "http://pleiades.stoa.org/places/615138225/porta-marina"
      }
    }
  ]
}