{
  "type": "FeatureCollection",
  "title": "Kouloupene (region)",
  "id": "629019",
  "bbox": [
    36.0827655,
    39.1696252724,
    38.6591123542,
    39.9984393
  ],
  "description": "An ancient region of eastern Asia Minor, lying on the border of Armenia Minor and encompassing the cities of Sebasteia and Sebastopolis.",
  "connectsWith": [
    "628936"
  ],
  "names": [
    "Kouloupene",
    "Colopene"
  ],
  "features": [
    {
      "type": "Feature",
      "geometry": {
        "type": "Point",
        "coordinates": [
          36.5499710254,
          39.8732024554
        ]
      },
      "properties": {
        "description": "representative point"
      }
    }
  ]
}