{
  "type": "FeatureCollection",
  "title": "Saint-Guilhem-le-Désert",
  "id": "631410030",
  "bbox": [
    3.5490601,
    43.7337245,
    3.5497228,
    43.7340419
  ],
  "description": "The abbey of Saint-Guilhem-le-Desert or Abbey Gellone, is Benedictine abbey founded in A.D. 804 by Guillaume Gellone. The abbey is a listed historical monument in France and was listed on the UNESCO World Heritage list in 1998 .",
  "features": [
    {
      "type": "Feature",
      "geometry": {
        "type": "Point",
        "coordinates": [
          3.54942462184,
          43.7339117103
        ]
      },
      "properties": {
        "description": "representative point"
      }
    },
    {
      "geometry": {
        "type": "LineString",
        "coordinates": [
          [
            3.5492777,
            43.7339731
          ],
          [
            3.5492935,
            43.7340093
          ],
          [
            3.5493387,
            43.7340026
          ],
          [
            3.5494744,
            43.7339848
          ],
          [
            3.5494827,
            43.7340021
          ],
          [
            3.5495027,
            43.7340419
          ],
          [
            3.5496103,
            43.7340313
          ],
          [
            3.5496757,
            43.734019
          ],
          [
            3.5496696,
            43.7340121
          ],
          [
            3.5496893,
            43.7339923
          ],
          [
            3.5496815,
            43.7339761
          ],
          [
            3.5496704,
            43.7339643
          ],
          [
            3.5496532,
            43.7339553
          ],
          [
            3.5496637,
            43.7339502
          ],
          [
            3.5496785,
            43.733937
          ],
          [
            3.5496898,
            43.7339254
          ],
          [
            3.5496952,
            43.7339148
          ],
          [
            3.5497164,
            43.7339199
          ],
          [
            3.5497228,
            43.7339049
          ],
          [
            3.5496979,
            43.7339014
          ],
          [
            3.5496964,
            43.7338861
          ],
          [
            3.5496935,
            43.7338743
          ],
          [
            3.549685,
            43.733862
          ],
          [
            3.5497025,
            43.7338493
          ],
          [
            3.549687,
            43.7338375
          ],
          [
            3.5496708,
            43.733848
          ],
          [
            3.549659,
            43.7338417
          ],
          [
            3.5496476,
            43.7338369
          ],
          [
            3.5496198,
            43.7338296
          ],
          [
            3.5496248,
            43.7338205
          ],
          [
            3.5496281,
            43.733811
          ],
          [
            3.5496261,
            43.7337974
          ],
          [
            3.549621,
            43.7337889
          ],
          [
            3.5496085,
            43.7337771
          ],
          [
            3.5495966,
            43.7337713
          ],
          [
            3.5495925,
            43.733764
          ],
          [
            3.5495662,
            43.7337682
          ],
          [
            3.5495564,
            43.7337302
          ],
          [
            3.5495536,
            43.7337245
          ],
          [
            3.5494304,
            43.7337435
          ],
          [
            3.5494404,
            43.7337865
          ],
          [
            3.5494567,
            43.7338461
          ],
          [
            3.5492603,
            43.7338739
          ],
          [
            3.5492476,
            43.7338766
          ],
          [
            3.5492493,
            43.7338842
          ],
          [
            3.5492595,
            43.7338833
          ],
          [
            3.5492677,
            43.7339069
          ],
          [
            3.5491097,
            43.7339298
          ],
          [
            3.5491006,
            43.7339311
          ],
          [
            3.5490612,
            43.7339364
          ],
          [
            3.5490614,
            43.7339504
          ],
          [
            3.5490601,
            43.7339514
          ],
          [
            3.5490782,
            43.7339953
          ],
          [
            3.549081,
            43.7339943
          ],
          [
            3.5490902,
            43.7340081
          ],
          [
            3.5492394,
            43.73398
          ],
          [
            3.5492777,
            43.7339731
          ]
        ]
      },
      "id": "osm-location",
      "type": "Feature",
      "properties": {
        "description": "Representative location based on OpenStreetMap.",
        "location_precision": "precise",
        "title": "OSM location of Saint-Guilhem-le-Désert",
        "link": "http://pleiades.stoa.org/places/631410030/osm-location"
      }
    }
  ]
}