{
  "type": "FeatureCollection",
  "title": "Villa in via Enzo Tortora",
  "id": "631723722",
  "bbox": [
    12.500182,
    41.983495,
    12.500182,
    41.983495
  ],
  "description": "A villa site that was active from the middle Republican period to the early Middle Ages was investigated in 2009 and 2010 at via Enzo Tortora, no. 79. The site is located about 500 meters east of the line of the ancient Via Flaminia.",
  "connectsWith": [
    "423025",
    "856514595",
    "423080"
  ],
  "names": [
    "villa di via Enzo Tortora"
  ],
  "features": [
    {
      "type": "Feature",
      "geometry": {
        "type": "Point",
        "coordinates": [
          12.500182,
          41.983495
        ]
      },
      "properties": {
        "description": "representative point"
      }
    },
    {
      "geometry": {
        "type": "Point",
        "coordinates": [
          12.500182,
          41.983495
        ]
      },
      "id": "image-location-of-via-enzo-tortora-79",
      "type": "Feature",
      "properties": {
        "description": "Coordinates following info.roma.it (Monumenti)",
        "location_precision": "precise",
        "title": "Image location of via Enzo Tortora, 79",
        "link": "http://pleiades.stoa.org/places/631723722/image-location-of-via-enzo-tortora-79"
      }
    }
  ]
}