{
  "type": "FeatureCollection",
  "title": "Via Hadriana",
  "id": "632192759",
  "bbox": [
    30.879299,
    23.9103,
    35.4759377,
    27.922197
  ],
  "description": "A Roman road established by Hadrian running from Antinoopolis to Berenice. The road was completed in AD 137.",
  "connectsWith": [
    "756518",
    "756596",
    "756597",
    "766329",
    "785986"
  ],
  "names": [
    "Via Hadriana"
  ],
  "features": [
    {
      "type": "Feature",
      "geometry": {
        "type": "Point",
        "coordinates": [
          32.51410787,
          26.89794875
        ]
      },
      "properties": {
        "description": "representative point"
      }
    }
  ]
}