{
  "type": "FeatureCollection",
  "title": "Roman amphitheater of Carthage",
  "id": "634585138",
  "bbox": [
    10.314578,
    36.8562215,
    10.314578,
    36.8562215
  ],
  "description": "A Roman amphitheater built at Carthage.",
  "connectsWith": [
    "314921"
  ],
  "features": [
    {
      "type": "Feature",
      "geometry": {
        "type": "Point",
        "coordinates": [
          10.314578,
          36.8562215
        ]
      },
      "properties": {
        "description": "representative point"
      }
    },
    {
      "geometry": {
        "type": "LineString",
        "coordinates": [
          [
            10.3146747,
            36.8557454
          ],
          [
            10.3145657,
            36.8558403
          ],
          [
            10.3145298,
            36.8560054
          ],
          [
            10.3145567,
            36.8561346
          ],
          [
            10.314578,
            36.8562215
          ],
          [
            10.3146038,
            36.8563318
          ],
          [
            10.3146869,
            36.8564089
          ],
          [
            10.314894,
            36.8565531
          ],
          [
            10.3150339,
            36.8566225
          ],
          [
            10.3152073,
            36.8565887
          ],
          [
            10.3155559,
            36.8569215
          ],
          [
            10.3156498,
            36.8568891
          ],
          [
            10.3153261,
            36.8564961
          ],
          [
            10.3154445,
            36.8563936
          ],
          [
            10.3154733,
            36.8562723
          ],
          [
            10.3154225,
            36.8560179
          ],
          [
            10.3152154,
            36.8557729
          ],
          [
            10.315018,
            36.855663
          ],
          [
            10.3146747,
            36.8557454
          ]
        ]
      },
      "id": "location-of-roman-amphitheater",
      "type": "Feature",
      "properties": {
        "description": "Representative location based on OpenStreetMap.",
        "location_precision": "precise",
        "title": "OSM location of Amphithéâtre de Carthage",
        "link": "http://pleiades.stoa.org/places/634585138/location-of-roman-amphitheater"
      }
    }
  ]
}