{
  "type": "FeatureCollection",
  "title": "Aphrodisias",
  "id": "638753",
  "bbox": [
    28.7182708,
    37.7043002,
    28.7302419,
    37.7130961
  ],
  "description": "Aphrodisias was a Greek city located in Caria. It is notable especially for the state of its archaeological preservation. The site was inscribed on UNESCO's World Heritage List in July 2017.",
  "connectsWith": [
    "991381"
  ],
  "names": [
    "Aphrodisias",
    "Ninoe",
    "Stauropolis",
    "Lelegon polis",
    "Aphrodeisias",
    "Aphrodisias/Ninoe",
    "Aphrodisias"
  ],
  "features": [
    {
      "type": "Feature",
      "geometry": {
        "type": "Point",
        "coordinates": [
          28.7238151978,
          37.7085024666
        ]
      },
      "properties": {
        "description": "representative point"
      }
    },
    {
      "geometry": {
        "type": "LineString",
        "coordinates": [
          [
            28.7302419,
            37.7083076
          ],
          [
            28.7297757,
            37.706301
          ],
          [
            28.7286488,
            37.7058104
          ],
          [
            28.7274301,
            37.7051023
          ],
          [
            28.7266197,
            37.7050996
          ],
          [
            28.7262976,
            37.7049466
          ],
          [
            28.7258944,
            37.7048578
          ],
          [
            28.7258792,
            37.7047131
          ],
          [
            28.7249672,
            37.7044288
          ],
          [
            28.7248276,
            37.7046239
          ],
          [
            28.724007,
            37.7045604
          ],
          [
            28.7236047,
            37.7044797
          ],
          [
            28.7233901,
            37.7044161
          ],
          [
            28.7231472,
            37.7044801
          ],
          [
            28.7217913,
            37.7043002
          ],
          [
            28.7209816,
            37.7043279
          ],
          [
            28.7198928,
            37.7047383
          ],
          [
            28.7193503,
            37.7052405
          ],
          [
            28.7189837,
            37.7060259
          ],
          [
            28.719086,
            37.7071824
          ],
          [
            28.718602,
            37.708873
          ],
          [
            28.7182708,
            37.7102495
          ],
          [
            28.7186311,
            37.7114134
          ],
          [
            28.7203747,
            37.7119966
          ],
          [
            28.7204867,
            37.7120653
          ],
          [
            28.7204665,
            37.7123268
          ],
          [
            28.7204896,
            37.7125771
          ],
          [
            28.7204064,
            37.7127924
          ],
          [
            28.720665,
            37.7129782
          ],
          [
            28.7210593,
            37.7130961
          ],
          [
            28.7234134,
            37.7130454
          ],
          [
            28.7237303,
            37.7127793
          ],
          [
            28.7238005,
            37.7126187
          ],
          [
            28.7247661,
            37.7125914
          ],
          [
            28.7247855,
            37.7118992
          ],
          [
            28.7253808,
            37.7118669
          ],
          [
            28.7259505,
            37.7114162
          ],
          [
            28.7261749,
            37.7108631
          ],
          [
            28.7261404,
            37.7105217
          ],
          [
            28.7279896,
            37.7103935
          ],
          [
            28.7285757,
            37.7091932
          ],
          [
            28.7288029,
            37.7089277
          ],
          [
            28.7291201,
            37.7086935
          ],
          [
            28.7297371,
            37.708497
          ],
          [
            28.7302419,
            37.7083076
          ]
        ]
      },
      "id": "osm-location-of-aphrodisias",
      "type": "Feature",
      "properties": {
        "description": "Representative location of the archaeological site based on a way derived from OpenStreetMap.",
        "location_precision": "precise",
        "title": "OSM location of Aphrodisias",
        "link": "http://pleiades.stoa.org/places/638753/osm-location-of-aphrodisias"
      }
    }
  ]
}