{
  "type": "FeatureCollection",
  "title": "Arsada",
  "id": "638764",
  "bbox": [
    29.401736,
    36.497058,
    29.420206,
    36.507087
  ],
  "description": "An ancient place, cited: BAtlas 65 B5 Arsada",
  "names": [
    "Arsada"
  ],
  "features": [
    {
      "type": "Feature",
      "geometry": {
        "type": "Point",
        "coordinates": [
          29.410971,
          36.5020725
        ]
      },
      "properties": {
        "description": "representative point"
      }
    },
    {
      "geometry": {
        "type": "Point",
        "coordinates": [
          29.401736,
          36.497058
        ]
      },
      "id": "darmc-location-3362",
      "type": "Feature",
      "properties": {
        "description": "1:500,000 scale representative point location digitized from the Barrington Atlas of the Greek and Roman World by the Digital Atlas of Roman and Medieval Civilizations project at Harvard University.",
        "location_precision": "precise",
        "title": "DARMC location 3362",
        "link": "http://pleiades.stoa.org/places/638764/darmc-location-3362"
      }
    },
    {
      "geometry": {
        "type": "Point",
        "coordinates": [
          29.420206,
          36.507087
        ]
      },
      "id": "darmc-location-11176",
      "type": "Feature",
      "properties": {
        "description": "TIB representative point location digitized from the Barrington Atlas of the Greek and Roman World by the Digital Atlas of Roman and Medieval Civilizations project at Harvard University.",
        "location_precision": "precise",
        "title": "DARMC location 11176",
        "link": "http://pleiades.stoa.org/places/638764/darmc-location-11176"
      }
    }
  ]
}