{
  "type": "FeatureCollection",
  "title": "Balboura",
  "id": "638789",
  "bbox": [
    29.581139,
    36.9500627,
    29.5834805,
    36.95522
  ],
  "description": "An ancient place, cited: BAtlas 65 C4 Balboura",
  "connectsWith": [
    "638965"
  ],
  "names": [
    "Balboura"
  ],
  "features": [
    {
      "type": "Feature",
      "geometry": {
        "type": "Point",
        "coordinates": [
          29.58230975,
          36.95264135
        ]
      },
      "properties": {
        "description": "representative point"
      }
    },
    {
      "geometry": {
        "type": "Point",
        "coordinates": [
          29.581139,
          36.95522
        ]
      },
      "id": "dare-location",
      "type": "Feature",
      "properties": {
        "description": "Representative point location, site precision",
        "location_precision": "precise",
        "title": "DARE Location",
        "link": "http://pleiades.stoa.org/places/638789/dare-location"
      }
    },
    {
      "geometry": {
        "type": "Point",
        "coordinates": [
          29.5834805,
          36.9500627
        ]
      },
      "id": "osm-location-of-balbura",
      "type": "Feature",
      "properties": {
        "description": "Representative location based on OpenStreetMap",
        "location_precision": "precise",
        "title": "OSM location of Balbura",
        "link": "http://pleiades.stoa.org/places/638789/osm-location-of-balbura"
      }
    }
  ]
}