{
  "type": "FeatureCollection",
  "title": "Alina? (island)",
  "id": "638739",
  "bbox": [
    28.9322202,
    36.6985486,
    28.9354271,
    36.7106192
  ],
  "description": "An ancient place, cited: BAtlas 65 A4 Alina? Ins.",
  "names": [
    "Alina"
  ],
  "features": [
    {
      "type": "Feature",
      "geometry": {
        "type": "Point",
        "coordinates": [
          28.9340086582,
          36.7045423532
        ]
      },
      "properties": {
        "description": "representative point"
      }
    },
    {
      "geometry": {
        "type": "LineString",
        "coordinates": [
          [
            28.9324294,
            36.6985486
          ],
          [
            28.9324971,
            36.6985679
          ],
          [
            28.9326268,
            36.6986845
          ],
          [
            28.9328066,
            36.6988173
          ],
          [
            28.9327558,
            36.6989197
          ],
          [
            28.932821,
            36.6990398
          ],
          [
            28.9330331,
            36.6992866
          ],
          [
            28.933113,
            36.6994155
          ],
          [
            28.9333019,
            36.6996184
          ],
          [
            28.933364,
            36.6996056
          ],
          [
            28.9333945,
            36.6996373
          ],
          [
            28.9332094,
            36.6998054
          ],
          [
            28.9334964,
            36.7000871
          ],
          [
            28.9338263,
            36.700312
          ],
          [
            28.9338321,
            36.700413
          ],
          [
            28.9337641,
            36.7005658
          ],
          [
            28.9337899,
            36.7009071
          ],
          [
            28.9340046,
            36.7011834
          ],
          [
            28.9341938,
            36.7014726
          ],
          [
            28.9341647,
            36.7015908
          ],
          [
            28.9342716,
            36.7018217
          ],
          [
            28.9345158,
            36.7023241
          ],
          [
            28.9347511,
            36.7026999
          ],
          [
            28.934778,
            36.7030775
          ],
          [
            28.9349614,
            36.7034096
          ],
          [
            28.9351374,
            36.7039515
          ],
          [
            28.9352382,
            36.7044882
          ],
          [
            28.9353831,
            36.7049011
          ],
          [
            28.9354271,
            36.7058886
          ],
          [
            28.9352511,
            36.7059763
          ],
          [
            28.9351857,
            36.7064451
          ],
          [
            28.935264,
            36.7069372
          ],
          [
            28.9352297,
            36.7071684
          ],
          [
            28.9350043,
            36.70762
          ],
          [
            28.9349496,
            36.7079503
          ],
          [
            28.9348445,
            36.7082393
          ],
          [
            28.9348595,
            36.7084191
          ],
          [
            28.9348632,
            36.7087945
          ],
          [
            28.9349222,
            36.7090569
          ],
          [
            28.9348595,
            36.7092921
          ],
          [
            28.9348305,
            36.7096396
          ],
          [
            28.9349475,
            36.7099036
          ],
          [
            28.9349861,
            36.7103104
          ],
          [
            28.934876,
            36.7105392
          ],
          [
            28.9347415,
            36.7106192
          ],
          [
            28.9345956,
            36.7106011
          ],
          [
            28.934381,
            36.7104945
          ],
          [
            28.9342329,
            36.7103113
          ],
          [
            28.9341342,
            36.7101221
          ],
          [
            28.9341299,
            36.7099199
          ],
          [
            28.934204,
            36.7096912
          ],
          [
            28.9343499,
            36.7094658
          ],
          [
            28.9345216,
            36.709262
          ],
          [
            28.9345677,
            36.7091158
          ],
          [
            28.9346814,
            36.7089523
          ],
          [
            28.9346664,
            36.7084689
          ],
          [
            28.934705,
            36.7081309
          ],
          [
            28.934823,
            36.7078995
          ],
          [
            28.934719,
            36.7077662
          ],
          [
            28.9345516,
            36.7077034
          ],
          [
            28.9343188,
            36.7077464
          ],
          [
            28.9341739,
            36.7077886
          ],
          [
            28.9341096,
            36.7079245
          ],
          [
            28.9338961,
            36.7079916
          ],
          [
            28.9337062,
            36.7079426
          ],
          [
            28.9335935,
            36.7077353
          ],
          [
            28.9336235,
            36.7074764
          ],
          [
            28.9336375,
            36.707159
          ],
          [
            28.9335549,
            36.7070386
          ],
          [
            28.9334969,
            36.7068966
          ],
          [
            28.9334015,
            36.7068459
          ],
          [
            28.9335066,
            36.7065612
          ],
          [
            28.9334798,
            36.706384
          ],
          [
            28.9333886,
            36.7061922
          ],
          [
            28.9334776,
            36.7059909
          ],
          [
            28.9335517,
            36.7058387
          ],
          [
            28.9334927,
            36.7055385
          ],
          [
            28.933624,
            36.7051652
          ],
          [
            28.933851,
            36.7047807
          ],
          [
            28.9339819,
            36.7045011
          ],
          [
            28.9339368,
            36.7043386
          ],
          [
            28.9338186,
            36.7040879
          ],
          [
            28.9337909,
            36.7039334
          ],
          [
            28.933904,
            36.7036192
          ],
          [
            28.934027,
            36.7033098
          ],
          [
            28.9340656,
            36.7029227
          ],
          [
            28.9339369,
            36.7028635
          ],
          [
            28.9336432,
            36.7028697
          ],
          [
            28.9333298,
            36.7028184
          ],
          [
            28.9329842,
            36.702729
          ],
          [
            28.9328282,
            36.7027068
          ],
          [
            28.9326953,
            36.7026448
          ],
          [
            28.9326236,
            36.7025227
          ],
          [
            28.9325947,
            36.7022225
          ],
          [
            28.9325571,
            36.7020066
          ],
          [
            28.9326494,
            36.7018475
          ],
          [
            28.9328865,
            36.7016505
          ],
          [
            28.9329017,
            36.7016324
          ],
          [
            28.9330742,
            36.7014268
          ],
          [
            28.9330978,
            36.7010948
          ],
          [
            28.9330496,
            36.7009185
          ],
          [
            28.9329112,
            36.700712
          ],
          [
            28.9327888,
            36.7005408
          ],
          [
            28.9327899,
            36.7002948
          ],
          [
            28.9329369,
            36.7001667
          ],
          [
            28.932879,
            36.6999834
          ],
          [
            28.9327137,
            36.6998355
          ],
          [
            28.9325507,
            36.6996488
          ],
          [
            28.932349,
            36.6994656
          ],
          [
            28.9322889,
            36.6992024
          ],
          [
            28.9322202,
            36.6989873
          ],
          [
            28.9323228,
            36.6987266
          ],
          [
            28.9324294,
            36.6985486
          ]
        ]
      },
      "id": "yass131ca-adas131",
      "type": "Feature",
      "properties": {
        "description": "Location based on OpenStreetMap",
        "location_precision": "precise",
        "title": "OSM location of Yassıca Adası",
        "link": "http://pleiades.stoa.org/places/638739/yass131ca-adas131"
      }
    }
  ]
}