{
  "type": "FeatureCollection",
  "title": "Herakleia Salbakes",
  "id": "638857",
  "bbox": [
    29.003497,
    37.632878,
    29.003497,
    37.632878
  ],
  "description": "An ancient place, cited: BAtlas 65 A2 Herakleia Salbakes",
  "names": [
    "Herakleia Salbakes"
  ],
  "features": [
    {
      "type": "Feature",
      "geometry": {
        "type": "Point",
        "coordinates": [
          29.003497,
          37.632878
        ]
      },
      "properties": {
        "description": "representative point"
      }
    },
    {
      "geometry": {
        "type": "Point",
        "coordinates": [
          29.003497,
          37.632878
        ]
      },
      "id": "darmc-location-12740",
      "type": "Feature",
      "properties": {
        "description": "1:500,000 scale representative point location digitized from the Barrington Atlas of the Greek and Roman World by the Digital Atlas of Roman and Medieval Civilizations project at Harvard University.",
        "location_precision": "precise",
        "title": "DARMC location 12740",
        "link": "http://pleiades.stoa.org/places/638857/darmc-location-12740"
      }
    }
  ]
}