{
  "type": "FeatureCollection",
  "title": "Aksu - Zindan Mağarası Sanctuary",
  "id": "638837",
  "bbox": [
    31.0845675,
    37.8119089,
    31.0845675,
    37.8119089
  ],
  "description": "An ancient sanctuary complex, incorporating a cave known today as Zindan Mağarası, which overlooks a bend in the river Aksu (locally Zindan Deresi; a tributary of the Eurymedon) in Turkey's Isparta province. Archaeological and epigraphic evidence demonstrate human activity from the Hellenistic to the Seljuk period, with the dedication of a temple to the Vigenon Mother of the Gods during the reign of Marcus Aurelius. A Roman-era bridge and road section has also been identified as part of the complex, which was probably associated with the nearby city of Timbriada. The sanctuary also honored the god Eurymedon. A Christian monastery succeeded the sanctuary, spoliating its buildings for construction material.",
  "names": [
    "Zindan Mağarası",
    "Eurymedon"
  ],
  "features": [
    {
      "type": "Feature",
      "geometry": {
        "type": "Point",
        "coordinates": [
          31.0845675,
          37.8119089
        ]
      },
      "properties": {
        "description": "representative point"
      }
    },
    {
      "geometry": {
        "type": "Point",
        "coordinates": [
          31.0845675,
          37.8119089
        ]
      },
      "id": "osm-location-zindan-maaarasa-cave-mouth",
      "type": "Feature",
      "properties": {
        "description": "Location based on OpenStreetMap",
        "location_precision": "precise",
        "title": "OSM Location: Zindan Mağarası (cave mouth)",
        "link": "http://pleiades.stoa.org/places/638837/osm-location-zindan-maaarasa-cave-mouth"
      }
    }
  ]
}