{
  "type": "FeatureCollection",
  "title": "Roman Arch of Pheradi Majus",
  "id": "63880221",
  "bbox": [
    10.3999265,
    36.2488416,
    10.4000392,
    36.248895
  ],
  "description": "A triumphal arch located in the civic forum.",
  "connectsWith": [
    "315113"
  ],
  "features": [
    {
      "type": "Feature",
      "geometry": {
        "type": "Point",
        "coordinates": [
          10.3999828858,
          36.248868323
        ]
      },
      "properties": {
        "description": "representative point"
      }
    },
    {
      "geometry": {
        "type": "LineString",
        "coordinates": [
          [
            10.3999371,
            36.248895
          ],
          [
            10.3999265,
            36.2488648
          ],
          [
            10.3999797,
            36.2488528
          ],
          [
            10.4000287,
            36.2488416
          ],
          [
            10.4000392,
            36.2488719
          ],
          [
            10.3999913,
            36.2488827
          ],
          [
            10.3999371,
            36.248895
          ]
        ]
      },
      "id": "osm-location-of-arch-of-pheradi-majus",
      "type": "Feature",
      "properties": {
        "description": "Representative location based on OpenStreetMap",
        "location_precision": "precise",
        "title": "OSM location of Arch of Pheradi Majus",
        "link": "http://pleiades.stoa.org/places/63880221/osm-location-of-arch-of-pheradi-majus"
      }
    }
  ]
}