{
  "type": "FeatureCollection",
  "title": "Tabai",
  "id": "639125",
  "bbox": [
    28.856503,
    37.442628,
    28.856503,
    37.442628
  ],
  "description": "An ancient place, cited: BAtlas 65 A3 Tabai",
  "names": [
    "Tabai"
  ],
  "features": [
    {
      "type": "Feature",
      "geometry": {
        "type": "Point",
        "coordinates": [
          28.856503,
          37.442628
        ]
      },
      "properties": {
        "description": "representative point"
      }
    },
    {
      "geometry": {
        "type": "Point",
        "coordinates": [
          28.856503,
          37.442628
        ]
      },
      "id": "darmc-location-14964",
      "type": "Feature",
      "properties": {
        "description": "1:500,000 scale representative point location digitized from the Barrington Atlas of the Greek and Roman World by the Digital Atlas of Roman and Medieval Civilizations project at Harvard University.",
        "location_precision": "precise",
        "title": "DARMC location 14964",
        "link": "http://pleiades.stoa.org/places/639125/darmc-location-14964"
      }
    }
  ]
}