{
  "type": "FeatureCollection",
  "title": "Carranque",
  "id": "642983159",
  "bbox": [
    -3.9605159,
    40.1845888,
    -3.9518928,
    40.1923285
  ],
  "description": "A palatial complex that includes a villa originally built during the fourth century, Carranque also has significant Visigothic and Christian phases.",
  "features": [
    {
      "type": "Feature",
      "geometry": {
        "type": "Point",
        "coordinates": [
          -3.95647830016,
          40.1879117374
        ]
      },
      "properties": {
        "description": "representative point"
      }
    },
    {
      "geometry": {
        "type": "LineString",
        "coordinates": [
          [
            -3.9583441,
            40.1923285
          ],
          [
            -3.9535725,
            40.1916093
          ],
          [
            -3.9519891,
            40.1911516
          ],
          [
            -3.9518928,
            40.1895253
          ],
          [
            -3.952064,
            40.1891657
          ],
          [
            -3.9523101,
            40.188757
          ],
          [
            -3.953412,
            40.1879316
          ],
          [
            -3.954867,
            40.1875965
          ],
          [
            -3.9576059,
            40.1845888
          ],
          [
            -3.9591251,
            40.184932
          ],
          [
            -3.9592855,
            40.1859619
          ],
          [
            -3.9599809,
            40.186583
          ],
          [
            -3.9605159,
            40.1876619
          ],
          [
            -3.9583441,
            40.1923285
          ]
        ]
      },
      "id": "location-of-roman-villa",
      "type": "Feature",
      "properties": {
        "description": "Representative point derived from an OpenStreetMap way.",
        "location_precision": "precise",
        "title": "OSM location of archaeological area",
        "link": "http://pleiades.stoa.org/places/642983159/location-of-roman-villa"
      }
    },
    {
      "geometry": {
        "type": "LineString",
        "coordinates": [
          [
            -3.9575921,
            40.1866104
          ],
          [
            -3.957096,
            40.1863874
          ],
          [
            -3.9574122,
            40.1859768
          ],
          [
            -3.9579083,
            40.1861997
          ],
          [
            -3.9575921,
            40.1866104
          ]
        ]
      },
      "id": "location-of-villa-of-maternus",
      "type": "Feature",
      "properties": {
        "description": "Location based on OpenStreetMap",
        "location_precision": "precise",
        "title": "OSM location of villa of Maternus",
        "link": "http://pleiades.stoa.org/places/642983159/location-of-villa-of-maternus"
      }
    },
    {
      "geometry": {
        "type": "LineString",
        "coordinates": [
          [
            -3.9571286,
            40.1873415
          ],
          [
            -3.9568248,
            40.1872988
          ],
          [
            -3.9568785,
            40.1870757
          ],
          [
            -3.9571823,
            40.1871184
          ],
          [
            -3.9571286,
            40.1873415
          ]
        ]
      },
      "id": "location-of-mausoleum",
      "type": "Feature",
      "properties": {
        "description": "Location based on OpenStreetMap",
        "location_precision": "precise",
        "title": "OSM location of mausoleum",
        "link": "http://pleiades.stoa.org/places/642983159/location-of-mausoleum"
      }
    },
    {
      "geometry": {
        "type": "LineString",
        "coordinates": [
          [
            -3.9555178,
            40.1892214
          ],
          [
            -3.9548733,
            40.188887
          ],
          [
            -3.9544233,
            40.1894722
          ],
          [
            -3.9547456,
            40.1896348
          ],
          [
            -3.9549614,
            40.1895535
          ],
          [
            -3.9552715,
            40.1895396
          ],
          [
            -3.9555178,
            40.1892214
          ]
        ]
      },
      "id": "location-of-basilica",
      "type": "Feature",
      "properties": {
        "description": "Location based on OpenStreetMap",
        "location_precision": "precise",
        "title": "OSM location of basilica",
        "link": "http://pleiades.stoa.org/places/642983159/location-of-basilica"
      }
    }
  ]
}