{
  "type": "FeatureCollection",
  "title": "Akkale",
  "id": "648550",
  "bbox": [
    34.225879,
    36.535912,
    34.225879,
    36.535912
  ],
  "description": "An ancient place, cited: BAtlas 66 E3 Akkale",
  "features": [
    {
      "type": "Feature",
      "geometry": {
        "type": "Point",
        "coordinates": [
          34.225879,
          36.535912
        ]
      },
      "properties": {
        "description": "representative point"
      }
    },
    {
      "geometry": {
        "type": "Point",
        "coordinates": [
          34.225879,
          36.535912
        ]
      },
      "id": "darmc-location-11275",
      "type": "Feature",
      "properties": {
        "description": "1:500,000 scale representative point location digitized from the Barrington Atlas of the Greek and Roman World by the Digital Atlas of Roman and Medieval Civilizations project at Harvard University.",
        "location_precision": "precise",
        "title": "DARMC location 11275",
        "link": "http://pleiades.stoa.org/places/648550/darmc-location-11275"
      }
    }
  ]
}