{
  "type": "FeatureCollection",
  "title": "Diocaesarea",
  "id": "648623",
  "bbox": [
    33.925395,
    36.581263,
    33.926722,
    36.584172
  ],
  "description": "An ancient place, cited: BAtlas 66 D3 Diocaesarea",
  "names": [
    "Diocaesarea",
    "Uzuncaburc"
  ],
  "features": [
    {
      "type": "Feature",
      "geometry": {
        "type": "Point",
        "coordinates": [
          33.9260585,
          36.5827175
        ]
      },
      "properties": {
        "description": "representative point"
      }
    },
    {
      "geometry": {
        "type": "Point",
        "coordinates": [
          33.926722,
          36.584172
        ]
      },
      "id": "darmc-location-11916",
      "type": "Feature",
      "properties": {
        "description": "TIB representative point location digitized from the Barrington Atlas of the Greek and Roman World by the Digital Atlas of Roman and Medieval Civilizations project at Harvard University.",
        "location_precision": "precise",
        "title": "DARMC location 11916",
        "link": "http://pleiades.stoa.org/places/648623/darmc-location-11916"
      }
    },
    {
      "geometry": {
        "type": "Point",
        "coordinates": [
          33.925395,
          36.581263
        ]
      },
      "id": "dare-location",
      "type": "Feature",
      "properties": {
        "description": "Representative point location, site precision",
        "location_precision": "precise",
        "title": "DARE Location",
        "link": "http://pleiades.stoa.org/places/648623/dare-location"
      }
    }
  ]
}