{
  "type": "FeatureCollection",
  "title": "Cilicia Pedias",
  "id": "648600",
  "bbox": [
    34.532152,
    36.729749,
    35.898549,
    37.256404
  ],
  "description": "A region of southern Asia Minor, \"Flat Cilicia\". This region is described as \"well-watered\" and fertile. It was bounded by the Taurus and Anti-Taurus Mountains and the Mediterranean Sea.",
  "connectsWith": [
    "837",
    "658440"
  ],
  "names": [
    "Cilicia Pedias",
    "Que",
    "Qawe",
    "Qawāja",
    "Quwāja"
  ],
  "features": [
    {
      "type": "Feature",
      "geometry": {
        "type": "Point",
        "coordinates": [
          34.5392216667,
          36.7400556667
        ]
      },
      "properties": {
        "description": "representative point"
      }
    }
  ]
}