{
  "type": "FeatureCollection",
  "title": "Ma(m)psoukrenai",
  "id": "648704",
  "bbox": [
    34.8965119,
    37.0803908,
    34.8965119,
    37.0803908
  ],
  "description": "A place located in the eastern part of Cilicia on the river Cydnus.",
  "names": [
    "Mampsoukrenai",
    "Mapsoukrenai",
    "Nampsucrone",
    "Kırıtlar",
    "Kırıt"
  ],
  "features": [
    {
      "type": "Feature",
      "geometry": {
        "type": "Point",
        "coordinates": [
          34.8965119,
          37.0803908
        ]
      },
      "properties": {
        "description": "representative point"
      }
    },
    {
      "geometry": {
        "type": "Point",
        "coordinates": [
          34.8965119,
          37.0803908
        ]
      },
      "id": "osm-location-modern-ka-ra-t",
      "type": "Feature",
      "properties": {
        "description": "Location based on OpenStreetMap",
        "location_precision": "precise",
        "title": "OSM Location: modern Kırıt",
        "link": "http://pleiades.stoa.org/places/648704/osm-location-modern-ka-ra-t"
      }
    }
  ]
}