{
  "type": "FeatureCollection",
  "title": "Villa Augustea",
  "id": "652231747",
  "bbox": [
    14.4230801,
    40.8753687,
    14.4249335,
    40.8762733
  ],
  "description": "The so-called “Villa of Augustus” at Somma Vesuviana was first discovered in the late nineteenth century. The villa has been shown to have survived the 79 CE eruption of Mt. Vesuvius but was eventually destroyed by a volcanic event in 472.",
  "names": [
    "“Villa of Augustus” at Somma Vesuviana",
    "Villa Augustea"
  ],
  "features": [
    {
      "type": "Feature",
      "geometry": {
        "type": "Point",
        "coordinates": [
          14.4240718966,
          40.8758366465
        ]
      },
      "properties": {
        "description": "representative point"
      }
    },
    {
      "geometry": {
        "type": "LineString",
        "coordinates": [
          [
            14.4236889,
            40.8759467
          ],
          [
            14.4230801,
            40.8757703
          ],
          [
            14.4235656,
            40.8753687
          ],
          [
            14.4249335,
            40.8757378
          ],
          [
            14.4248933,
            40.8762733
          ],
          [
            14.4246452,
            40.8762165
          ],
          [
            14.4242254,
            40.8762185
          ],
          [
            14.4236594,
            40.8760694
          ],
          [
            14.4236889,
            40.8759467
          ]
        ]
      },
      "id": "osm-location-of-villa-augustea",
      "type": "Feature",
      "properties": {
        "description": "Representative location based on OpenStreetMap",
        "location_precision": "precise",
        "title": "OSM location of Villa Augustea",
        "link": "http://pleiades.stoa.org/places/652231747/osm-location-of-villa-augustea"
      }
    }
  ]
}