{
  "type": "FeatureCollection",
  "title": "Broch of Mousa",
  "id": "6525101",
  "bbox": [
    -1.1821733,
    59.9951932,
    -1.1818815,
    59.9953389
  ],
  "description": "The Broch of Mousa is a drystone broch in Scotland, dating ca. 400-200 BC.",
  "connectsWith": [
    "586811197"
  ],
  "features": [
    {
      "type": "Feature",
      "geometry": {
        "type": "Point",
        "coordinates": [
          -1.18202775156,
          59.9952663829
        ]
      },
      "properties": {
        "description": "representative point"
      }
    },
    {
      "geometry": {
        "type": "LineString",
        "coordinates": [
          [
            -1.1820937,
            59.9953318
          ],
          [
            -1.1820477,
            59.9953389
          ],
          [
            -1.1819995,
            59.9953382
          ],
          [
            -1.1819544,
            59.9953298
          ],
          [
            -1.1819172,
            59.9953144
          ],
          [
            -1.181892,
            59.9952939
          ],
          [
            -1.1818815,
            59.9952703
          ],
          [
            -1.1818869,
            59.9952464
          ],
          [
            -1.1819075,
            59.9952246
          ],
          [
            -1.1819411,
            59.9952073
          ],
          [
            -1.1819842,
            59.9951965
          ],
          [
            -1.1820319,
            59.9951932
          ],
          [
            -1.1820792,
            59.9951978
          ],
          [
            -1.1821209,
            59.9952099
          ],
          [
            -1.1821526,
            59.9952281
          ],
          [
            -1.1821707,
            59.9952504
          ],
          [
            -1.1821733,
            59.9952745
          ],
          [
            -1.1821601,
            59.9952977
          ],
          [
            -1.1821326,
            59.9953175
          ],
          [
            -1.1820937,
            59.9953318
          ]
        ]
      },
      "id": "location-of-broch-of-mousa",
      "type": "Feature",
      "properties": {
        "description": "Location based on OpenStreetMap",
        "location_precision": "precise",
        "title": "OSM location of Broch of Mousa",
        "link": "http://pleiades.stoa.org/places/6525101/location-of-broch-of-mousa"
      }
    }
  ]
}