{
  "type": "FeatureCollection",
  "title": "Casa del Rilievo di Telefo",
  "id": "656691255",
  "bbox": [
    14.3469511,
    40.8049822,
    14.3476731,
    40.8055567
  ],
  "description": "The House of the Relief of Telephus or Casa del Rilievo di Telefo is one of the largest houses attested in the excavated area of Herculaneum (ca. 1,800 sq. m.). The house was excavated between 1934 and 1936.",
  "connectsWith": [
    "432873"
  ],
  "names": [
    "Casa del Rilievo di Telefo",
    "House of the Relief of Telephus"
  ],
  "features": [
    {
      "type": "Feature",
      "geometry": {
        "type": "Point",
        "coordinates": [
          14.3472860975,
          40.8052488003
        ]
      },
      "properties": {
        "description": "representative point"
      }
    },
    {
      "geometry": {
        "type": "LineString",
        "coordinates": [
          [
            14.3473607,
            40.8055567
          ],
          [
            14.3473894,
            40.8055216
          ],
          [
            14.3473458,
            40.8054996
          ],
          [
            14.3474273,
            40.805402
          ],
          [
            14.3474643,
            40.8053604
          ],
          [
            14.3474531,
            40.8053446
          ],
          [
            14.3475953,
            40.8052797
          ],
          [
            14.3476175,
            40.8052698
          ],
          [
            14.3476731,
            40.8052451
          ],
          [
            14.3473352,
            40.8050638
          ],
          [
            14.347198,
            40.8051337
          ],
          [
            14.3470454,
            40.8049822
          ],
          [
            14.3469879,
            40.8050191
          ],
          [
            14.3469511,
            40.8050384
          ],
          [
            14.3470666,
            40.8051462
          ],
          [
            14.3470978,
            40.8051681
          ],
          [
            14.3471287,
            40.805178
          ],
          [
            14.3471596,
            40.8051536
          ],
          [
            14.3472513,
            40.8052343
          ],
          [
            14.3472299,
            40.8052465
          ],
          [
            14.3472647,
            40.8052667
          ],
          [
            14.3471069,
            40.8054429
          ],
          [
            14.3473607,
            40.8055567
          ]
        ]
      },
      "id": "osm-location-of-house-of-the-telephus-relief",
      "type": "Feature",
      "properties": {
        "description": "Representative location based on OpenStreetMap",
        "location_precision": "precise",
        "title": "OSM location of House of the Telephus Relief",
        "link": "http://pleiades.stoa.org/places/656691255/osm-location-of-house-of-the-telephus-relief"
      }
    }
  ]
}