{
  "type": "FeatureCollection",
  "title": "Villa Cuomo",
  "id": "658098857",
  "bbox": [
    14.5539453,
    40.7200133,
    14.5544122,
    40.7202889
  ],
  "description": "The so-called Villa Cuomo in the modern Italian comune of Sant'Antonio Abate in greater metropolitan Naples is a Roman villa rustica of the first century CE.",
  "connectsWith": [
    "433128"
  ],
  "features": [
    {
      "type": "Feature",
      "geometry": {
        "type": "Point",
        "coordinates": [
          14.5541787638,
          40.7201510811
        ]
      },
      "properties": {
        "description": "representative point"
      }
    },
    {
      "geometry": {
        "type": "LineString",
        "coordinates": [
          [
            14.5539453,
            40.7201806
          ],
          [
            14.5543303,
            40.7202889
          ],
          [
            14.5544122,
            40.7201215
          ],
          [
            14.5540272,
            40.7200133
          ],
          [
            14.5539453,
            40.7201806
          ]
        ]
      },
      "id": "osm-location-of-villa-cuomo",
      "type": "Feature",
      "properties": {
        "description": "Representative location based on OpenStreetMap",
        "location_precision": "precise",
        "title": "OSM location of Villa Cuomo",
        "link": "http://pleiades.stoa.org/places/658098857/osm-location-of-villa-cuomo"
      }
    }
  ]
}