{
  "type": "FeatureCollection",
  "title": "Roman Theater of Minturnae",
  "id": "658246004",
  "bbox": [
    13.7680117,
    41.2422514,
    13.7689102,
    41.2427395
  ],
  "description": "A theater constructed in Minturnae under Augustus or Tiberius, and further embellished under Hadrian.",
  "connectsWith": [
    "432940"
  ],
  "names": [
    "Theater of Minturnae",
    "Teatro Romano Minturno"
  ],
  "features": [
    {
      "type": "Feature",
      "geometry": {
        "type": "Point",
        "coordinates": [
          13.7684925371,
          41.2425122571
        ]
      },
      "properties": {
        "description": "representative point"
      }
    },
    {
      "geometry": {
        "type": "LineString",
        "coordinates": [
          [
            13.7688673,
            41.2422514
          ],
          [
            13.7689102,
            41.2423442
          ],
          [
            13.7689075,
            41.2424591
          ],
          [
            13.7688619,
            41.2425459
          ],
          [
            13.7687895,
            41.2426265
          ],
          [
            13.7686178,
            41.2427112
          ],
          [
            13.7685401,
            41.2427395
          ],
          [
            13.7683362,
            41.2427294
          ],
          [
            13.7682209,
            41.2426991
          ],
          [
            13.7681964,
            41.2426896
          ],
          [
            13.7681757,
            41.2426815
          ],
          [
            13.768076,
            41.2426427
          ],
          [
            13.7680385,
            41.2425781
          ],
          [
            13.7680278,
            41.2425317
          ],
          [
            13.7680117,
            41.2424954
          ],
          [
            13.7686422,
            41.2423156
          ],
          [
            13.7688673,
            41.2422514
          ]
        ]
      },
      "id": "location-of-roman-theater",
      "type": "Feature",
      "properties": {
        "description": "Representative location based on a way derived from OpenStreetMap.",
        "location_precision": "precise",
        "title": "OSM location of Roman theater",
        "link": "http://pleiades.stoa.org/places/658246004/location-of-roman-theater"
      }
    }
  ]
}