{
  "type": "FeatureCollection",
  "title": "Tourmanin",
  "id": "658626",
  "bbox": [
    36.8237088,
    36.2418776,
    36.8237088,
    36.2418776
  ],
  "description": "An ancient place, cited: BAtlas 67 D4 Tourmanin",
  "features": [
    {
      "type": "Feature",
      "geometry": {
        "type": "Point",
        "coordinates": [
          36.8237088,
          36.2418776
        ]
      },
      "properties": {
        "description": "representative point"
      }
    },
    {
      "geometry": {
        "type": "Point",
        "coordinates": [
          36.8237088,
          36.2418776
        ]
      },
      "id": "osm-location-of-deir-turmanin",
      "type": "Feature",
      "properties": {
        "description": "Representative location based on OpenStreetMap",
        "location_precision": "precise",
        "title": "OSM location of Deir Turmanin",
        "link": "http://pleiades.stoa.org/places/658626/osm-location-of-deir-turmanin"
      }
    }
  ]
}