{
  "type": "FeatureCollection",
  "title": "Doric temple at Kaulonia",
  "id": "66028350",
  "bbox": [
    16.5784254,
    38.4455162,
    16.5784254,
    38.4455162
  ],
  "description": "The Doric Temple at Caulonia has been dated ca. 420 B.C.",
  "connectsWith": [
    "452352"
  ],
  "features": [
    {
      "type": "Feature",
      "geometry": {
        "type": "Point",
        "coordinates": [
          16.5784254,
          38.4455162
        ]
      },
      "properties": {
        "description": "representative point"
      }
    },
    {
      "geometry": {
        "type": "LineString",
        "coordinates": [
          [
            16.5784224,
            38.4455185
          ],
          [
            16.5784176,
            38.44536
          ],
          [
            16.5789019,
            38.4453511
          ],
          [
            16.5789066,
            38.4455096
          ],
          [
            16.5784224,
            38.4455185
          ]
        ]
      },
      "id": "location-of-doric-temple",
      "type": "Feature",
      "properties": {
        "description": "Location based on OpenStreetMap",
        "location_precision": "precise",
        "title": "OSM location of Tempio di Kaulon",
        "link": "http://pleiades.stoa.org/places/66028350/location-of-doric-temple"
      }
    }
  ]
}