{
  "type": "FeatureCollection",
  "title": "Roman theater at Falerio Picenus",
  "id": "672180338",
  "bbox": [
    13.5004421,
    43.1023718,
    13.5004421,
    43.1023718
  ],
  "description": "The Roman theater at Falerio Picenus was completed during the reign of Tiberius.",
  "connectsWith": [
    "413127"
  ],
  "features": [
    {
      "type": "Feature",
      "geometry": {
        "type": "Point",
        "coordinates": [
          13.5004421,
          43.1023718
        ]
      },
      "properties": {
        "description": "representative point"
      }
    },
    {
      "geometry": {
        "type": "LineString",
        "coordinates": [
          [
            13.5003627,
            43.102381
          ],
          [
            13.4998099,
            43.1021701
          ],
          [
            13.4997664,
            43.1022353
          ],
          [
            13.4997464,
            43.102319
          ],
          [
            13.4997619,
            43.1023859
          ],
          [
            13.4998118,
            43.1024567
          ],
          [
            13.4999045,
            43.1025098
          ],
          [
            13.4999956,
            43.1025421
          ],
          [
            13.5001138,
            43.1025415
          ],
          [
            13.5002044,
            43.1025108
          ],
          [
            13.5002536,
            43.1024933
          ],
          [
            13.50031,
            43.1024563
          ],
          [
            13.5003627,
            43.102381
          ]
        ]
      },
      "id": "osm-location-of-roman-theater",
      "type": "Feature",
      "properties": {
        "description": "Location based on OpenStreetMap",
        "location_precision": "precise",
        "title": "OSM Location of Roman theater",
        "link": "http://pleiades.stoa.org/places/672180338/osm-location-of-roman-theater"
      }
    }
  ]
}