{
  "type": "FeatureCollection",
  "title": "Ain Hersha Roman Temple",
  "id": "678007",
  "bbox": [
    35.7904283,
    33.4534239,
    35.7906271,
    33.4535269
  ],
  "description": "Ain Hersha is the site of a Roman temple located in the environs of Mount Hermon.",
  "names": [
    "Ain Hersha"
  ],
  "features": [
    {
      "type": "Feature",
      "geometry": {
        "type": "Point",
        "coordinates": [
          35.7905283496,
          33.4534750461
        ]
      },
      "properties": {
        "description": "representative point"
      }
    },
    {
      "geometry": {
        "type": "LineString",
        "coordinates": [
          [
            35.7904376,
            33.4535234
          ],
          [
            35.7904283,
            33.4534239
          ],
          [
            35.7906202,
            33.4534268
          ],
          [
            35.7906271,
            33.4535269
          ],
          [
            35.7904376,
            33.4535234
          ]
        ]
      },
      "id": "osm-way-313847408",
      "type": "Feature",
      "properties": {
        "description": "Location based on OpenStreetMap. Dates after BAtlas.",
        "location_precision": "precise",
        "title": "OSM Location: Temple of Ain Hersha",
        "link": "http://pleiades.stoa.org/places/678007/osm-way-313847408"
      }
    }
  ]
}