{
  "type": "FeatureCollection",
  "title": "Aqaba",
  "id": "678026",
  "bbox": [
    35.8091041525,
    33.5104569641,
    35.8091041525,
    33.5104569641
  ],
  "description": "Aqaba - now Aaqbe - is a place located in the Beqaa Governorate in Lebanon. It is the site of a Roman temple that has been classified as belonging to the \"Mount Hermon\" temple group.",
  "names": [
    "Aaqbe",
    "Aaqbe",
    "Aqaba"
  ],
  "features": [
    {
      "type": "Feature",
      "geometry": {
        "type": "Point",
        "coordinates": [
          35.8091041525,
          33.5104569641
        ]
      },
      "properties": {
        "description": "representative point"
      }
    },
    {
      "geometry": {
        "type": "Point",
        "coordinates": [
          35.809104152522394,
          33.51045696410063
        ]
      },
      "id": "aqaba",
      "type": "Feature",
      "properties": {
        "description": "Representative point derived from an imagery analysis (OpenStreetMap) after site visit",
        "location_precision": "precise",
        "title": "Imagery location after site visit",
        "link": "http://pleiades.stoa.org/places/678026/aqaba"
      }
    }
  ]
}