{
  "type": "FeatureCollection",
  "title": "So-called Kalamon Limne",
  "id": "678217",
  "bbox": [
    35.5,
    33.5,
    36.0,
    34.0
  ],
  "description": "An ancient, marshy lake that was located in the Marsyas valley between ancient Gerra (modern Anjar in Lebanon) and the Libanus Mons. Polybius describes the general topography, including the lake, and Theophrastus mentions \"the lake in Syria where the kalamos euodēs grows\". Neither provides a proper name for the lake, but BAtlas evokes Theophrastus in creating the label \"Kalamon Limne\". The lake was drained in the 14th century CE and the general area was known in the 20th century as \"le Merdj\" (Dussaud 1927) and \"Merj el-Kebir\" (BAtlDir).",
  "names": [
    "Kalamon Limne",
    "Merj el-Kebir",
    "Le Merdj"
  ],
  "features": [
    {
      "type": "Feature",
      "geometry": {
        "type": "Point",
        "coordinates": [
          35.75,
          33.75
        ]
      },
      "properties": {
        "description": "representative point"
      }
    },
    {
      "geometry": {
        "type": "Polygon",
        "coordinates": [
          [
            [
              35.5,
              33.5
            ],
            [
              35.5,
              34.0
            ],
            [
              36.0,
              34.0
            ],
            [
              36.0,
              33.5
            ],
            [
              35.5,
              33.5
            ]
          ]
        ]
      },
      "id": "undetermined",
      "type": "Feature",
      "properties": {
        "description": null,
        "location_precision": "rough",
        "title": "Undetermined location",
        "link": "http://pleiades.stoa.org/places/678217/undetermined"
      }
    }
  ]
}