{
  "type": "FeatureCollection",
  "title": "Scythopolis/Nysa",
  "id": "678378",
  "bbox": [
    35.50196,
    32.502074,
    35.504002,
    32.504649
  ],
  "description": "A settlement located at the juncture of the Jordan and Jezreel valleys, Scythopolis/Nysa had important Egyptian through Roman phases.",
  "connectsWith": [
    "687932",
    "1001940"
  ],
  "names": [
    "Scythopolis",
    "Nysa",
    "Bisan",
    "Beit She'an"
  ],
  "features": [
    {
      "type": "Feature",
      "geometry": {
        "type": "Point",
        "coordinates": [
          35.5030916333,
          32.5036976
        ]
      },
      "properties": {
        "description": "representative point"
      }
    },
    {
      "geometry": {
        "type": "Point",
        "coordinates": [
          35.504002,
          32.504649
        ]
      },
      "id": "darmc-location-4862",
      "type": "Feature",
      "properties": {
        "description": "1:500,000 scale representative point location digitized from the Barrington Atlas of the Greek and Roman World by the Digital Atlas of Roman and Medieval Civilizations project at Harvard University.",
        "location_precision": "precise",
        "title": "DARMC location 4862",
        "link": "http://pleiades.stoa.org/places/678378/darmc-location-4862"
      }
    },
    {
      "geometry": {
        "type": "Point",
        "coordinates": [
          35.50196,
          32.502074
        ]
      },
      "id": "dare-location",
      "type": "Feature",
      "properties": {
        "description": "Representative point location, site precision",
        "location_precision": "precise",
        "title": "DARE Location",
        "link": "http://pleiades.stoa.org/places/678378/dare-location"
      }
    },
    {
      "geometry": {
        "type": "Point",
        "coordinates": [
          35.5033129,
          32.5043698
        ]
      },
      "id": "5ea5dc-5d15d95ea-5e95d05df",
      "type": "Feature",
      "properties": {
        "description": "Location based on OpenStreetMap",
        "location_precision": "precise",
        "title": "OSM location of תל בית שאן",
        "link": "http://pleiades.stoa.org/places/678378/5ea5dc-5d15d95ea-5e95d05df"
      }
    }
  ]
}