{
  "type": "FeatureCollection",
  "title": "Nelkomia/Neela?",
  "id": "678305",
  "bbox": [
    36.775857,
    32.74287,
    36.775857,
    32.74287
  ],
  "description": "An ancient place, cited: BAtlas 69 E4 Nelkomia/Neela?",
  "names": [
    "Nelkomia",
    "Neela"
  ],
  "features": [
    {
      "type": "Feature",
      "geometry": {
        "type": "Point",
        "coordinates": [
          36.775857,
          32.74287
        ]
      },
      "properties": {
        "description": "representative point"
      }
    },
    {
      "geometry": {
        "type": "Point",
        "coordinates": [
          36.775857,
          32.74287
        ]
      },
      "id": "darmc-location-18691",
      "type": "Feature",
      "properties": {
        "description": "1:500,000 scale representative point location digitized from the Barrington Atlas of the Greek and Roman World by the Digital Atlas of Roman and Medieval Civilizations project at Harvard University.",
        "location_precision": "precise",
        "title": "DARMC location 18691",
        "link": "http://pleiades.stoa.org/places/678305/darmc-location-18691"
      }
    }
  ]
}