{
  "type": "FeatureCollection",
  "title": "Civic forum of Praeneste",
  "id": "678434580",
  "bbox": [
    12.8913346,
    41.8391183,
    12.8930017,
    41.8397695
  ],
  "description": "The so-called civil forum of ancient Praeneste served as the center of the ancient city and was used across multiple periods. Its archaeological remains today correspond to the Piazza Regina Margherita and lie beneath the Sant'Agapito martire's cathedral. A large Etrusco-Italic temple of the fourth century BCE was situated here as well as a Roman-period basilica where the famous \"Nile mosaic\" was located in a flanking, apsidal room.",
  "connectsWith": [
    "423013"
  ],
  "names": [
    "Foro civile di Preneste"
  ],
  "features": [
    {
      "type": "Feature",
      "geometry": {
        "type": "Point",
        "coordinates": [
          12.8922161654,
          41.839434695
        ]
      },
      "properties": {
        "description": "representative point"
      }
    },
    {
      "geometry": {
        "type": "LineString",
        "coordinates": [
          [
            12.8924536,
            41.8391975
          ],
          [
            12.8922863,
            41.8392229
          ],
          [
            12.8922785,
            41.8391942
          ],
          [
            12.8922155,
            41.8392074
          ],
          [
            12.892229,
            41.8392519
          ],
          [
            12.892206,
            41.8392849
          ],
          [
            12.8921204,
            41.8392959
          ],
          [
            12.8920851,
            41.8392714
          ],
          [
            12.8920828,
            41.8392631
          ],
          [
            12.8920547,
            41.839267
          ],
          [
            12.8919974,
            41.8392758
          ],
          [
            12.8919833,
            41.8392352
          ],
          [
            12.8918084,
            41.8392625
          ],
          [
            12.8917232,
            41.8392773
          ],
          [
            12.8917242,
            41.8392981
          ],
          [
            12.8917276,
            41.8393097
          ],
          [
            12.8917532,
            41.8393978
          ],
          [
            12.8917262,
            41.8394026
          ],
          [
            12.8913346,
            41.8394639
          ],
          [
            12.8913788,
            41.8396206
          ],
          [
            12.8914151,
            41.8397413
          ],
          [
            12.8914233,
            41.8397695
          ],
          [
            12.8928557,
            41.8395676
          ],
          [
            12.8930017,
            41.8395094
          ],
          [
            12.8929984,
            41.8394798
          ],
          [
            12.8929569,
            41.8393916
          ],
          [
            12.8929527,
            41.8393827
          ],
          [
            12.8929261,
            41.8393024
          ],
          [
            12.8929211,
            41.8392873
          ],
          [
            12.8928931,
            41.8392499
          ],
          [
            12.8928851,
            41.8391939
          ],
          [
            12.8929223,
            41.8391673
          ],
          [
            12.892959,
            41.8391617
          ],
          [
            12.8929571,
            41.8391336
          ],
          [
            12.8929242,
            41.8391404
          ],
          [
            12.8929176,
            41.8391183
          ],
          [
            12.8928047,
            41.8391358
          ],
          [
            12.8926589,
            41.839158
          ],
          [
            12.8926932,
            41.8392833
          ],
          [
            12.8926393,
            41.8392915
          ],
          [
            12.8926481,
            41.8393239
          ],
          [
            12.8924945,
            41.8393473
          ],
          [
            12.89249,
            41.8393309
          ],
          [
            12.8924536,
            41.8391975
          ]
        ]
      },
      "id": "osm-location-of-area-sacra-foro-di-preneste-antro",
      "type": "Feature",
      "properties": {
        "description": "Representative location based on OpenStreetMap",
        "location_precision": "precise",
        "title": "OSM location of Area Sacra Foro di Preneste - Antro delle Sorti",
        "link": "http://pleiades.stoa.org/places/678434580/osm-location-of-area-sacra-foro-di-preneste-antro"
      }
    }
  ]
}