{
  "type": "FeatureCollection",
  "title": "Roads: Via Nova Traiana → Umm el-Jimal",
  "id": "681771",
  "bbox": [
    34.5,
    32.0,
    38.5,
    34.5
  ],
  "description": "An archaeologically attested secondary road, branching off to the southeast from the Via Nova Traiana to the nearby fort at Qasr el-Ba'iq and thence to the settlement at Umm el-Jimal.",
  "connectsWith": [
    "147882288",
    "678439",
    "678347"
  ],
  "features": [
    {
      "type": "Feature",
      "geometry": {
        "type": "Point",
        "coordinates": [
          36.5,
          33.25
        ]
      },
      "properties": {
        "description": "representative point"
      }
    },
    {
      "geometry": {
        "type": "Polygon",
        "coordinates": [
          [
            [
              34.5,
              32.0
            ],
            [
              34.5,
              34.5
            ],
            [
              38.5,
              34.5
            ],
            [
              38.5,
              32.0
            ],
            [
              34.5,
              32.0
            ]
          ]
        ]
      },
      "id": "undetermined",
      "type": "Feature",
      "properties": {
        "description": "Roughly located within a bounding box",
        "location_precision": "rough",
        "title": "Undetermined location",
        "link": "http://pleiades.stoa.org/places/681771/undetermined"
      }
    }
  ]
}