{
  "type": "FeatureCollection",
  "title": "Roads: Caesarea → Scythopolis via Ginai(a)",
  "id": "681792",
  "bbox": [
    34.5,
    32.0,
    38.5,
    34.5
  ],
  "description": "Ancient road segments running from Caesarea through Ginai(a) to Scythopolis.",
  "connectsWith": [
    "678401",
    "678163",
    "678378"
  ],
  "features": [
    {
      "type": "Feature",
      "geometry": {
        "type": "Point",
        "coordinates": [
          36.5,
          33.25
        ]
      },
      "properties": {
        "description": "representative point"
      }
    },
    {
      "geometry": {
        "type": "Polygon",
        "coordinates": [
          [
            [
              34.5,
              32.0
            ],
            [
              34.5,
              34.5
            ],
            [
              38.5,
              34.5
            ],
            [
              38.5,
              32.0
            ],
            [
              34.5,
              32.0
            ]
          ]
        ]
      },
      "id": "undetermined",
      "type": "Feature",
      "properties": {
        "description": "Roughly located within a bounding box",
        "location_precision": "rough",
        "title": "Undetermined location",
        "link": "http://pleiades.stoa.org/places/681792/undetermined"
      }
    }
  ]
}