{
  "type": "FeatureCollection",
  "title": "Nuraghe Unia",
  "id": "682305779",
  "bbox": [
    8.2282082,
    40.8674117,
    8.2283705,
    40.8675343
  ],
  "description": "A well-preserved monopteral nuraghe located in northwestern Sardinia.",
  "connectsWith": [
    "472014"
  ],
  "features": [
    {
      "type": "Feature",
      "geometry": {
        "type": "Point",
        "coordinates": [
          8.22828971643,
          40.867472746
        ]
      },
      "properties": {
        "description": "representative point"
      }
    },
    {
      "geometry": {
        "type": "LineString",
        "coordinates": [
          [
            8.2283627,
            40.8674453
          ],
          [
            8.2283705,
            40.8674643
          ],
          [
            8.2283698,
            40.8674842
          ],
          [
            8.2283608,
            40.8675029
          ],
          [
            8.2283444,
            40.8675185
          ],
          [
            8.2283215,
            40.8675296
          ],
          [
            8.228295,
            40.8675343
          ],
          [
            8.2282679,
            40.8675322
          ],
          [
            8.2282432,
            40.8675234
          ],
          [
            8.2282238,
            40.867509
          ],
          [
            8.2282116,
            40.8674906
          ],
          [
            8.2282082,
            40.8674702
          ],
          [
            8.2282139,
            40.86745
          ],
          [
            8.228228,
            40.8674324
          ],
          [
            8.228249,
            40.8674193
          ],
          [
            8.2282745,
            40.8674122
          ],
          [
            8.2283008,
            40.8674117
          ],
          [
            8.228326,
            40.8674175
          ],
          [
            8.2283474,
            40.8674291
          ],
          [
            8.2283627,
            40.8674453
          ]
        ]
      },
      "id": "osm-location",
      "type": "Feature",
      "properties": {
        "description": "Location based on OpenStreetMap",
        "location_precision": "precise",
        "title": "OSM location of Nuraghe Unia",
        "link": "http://pleiades.stoa.org/places/682305779/osm-location"
      }
    }
  ]
}