{
  "type": "FeatureCollection",
  "title": "Horvat Zafir",
  "id": "687922",
  "bbox": [
    35.116995,
    30.9120276,
    35.1173021,
    30.9122955
  ],
  "description": "An ancient place, cited: BAtlas 70 G4 Horvat Zafir",
  "names": [
    "Horvat Zafir"
  ],
  "features": [
    {
      "type": "Feature",
      "geometry": {
        "type": "Point",
        "coordinates": [
          35.11714855,
          30.91216155
        ]
      },
      "properties": {
        "description": "representative point"
      }
    },
    {
      "geometry": {
        "type": "LineString",
        "coordinates": [
          [
            35.1170254,
            30.9122955
          ],
          [
            35.116995,
            30.9120531
          ],
          [
            35.1172717,
            30.9120276
          ],
          [
            35.1173021,
            30.91227
          ],
          [
            35.1170254,
            30.9122955
          ]
        ]
      },
      "id": "osm-location-of-horbat-zafir",
      "type": "Feature",
      "properties": {
        "description": "Representative location based on OpenStreetMap",
        "location_precision": "precise",
        "title": "OSM location of Horbat Zafir",
        "link": "http://pleiades.stoa.org/places/687922/osm-location-of-horbat-zafir"
      }
    }
  ]
}