{
  "type": "FeatureCollection",
  "title": "Jericho",
  "id": "687917",
  "bbox": [
    35.4432198,
    31.8693835,
    35.4454109,
    31.8725557
  ],
  "description": "An ancient site in the Jordan valley with occupation beginning ca. 11,000 years BP. The tell of Hierichous (Jericho) has more than 20 settlement horizons, ranging from Natufian Hunter-Gatherers to modern.",
  "connectsWith": [
    "687932"
  ],
  "names": [
    "Hierichous",
    "Hierico",
    "Tall as-Sulṭān",
    "Arīḥā",
    "Arīḥā",
    "Arīḥa",
    "ar-Riḥā",
    "Rīhā",
    "ʿAin as-Sulṭān",
    "Ierichous",
    "Ierichō",
    "Jerico",
    "Mẹ Yǝriḥo",
    "Fons Helisaei",
    "fons Helisaei",
    "Hierichō",
    "Hierichous",
    "Yǝriḥo",
    "Yǝriḥo",
    "Yǝriḥo",
    "Jericho",
    "Jericho",
    "hagiou Elisaiou",
    "Hagiou Elisaiou",
    "Jericho",
    "Herichonte"
  ],
  "features": [
    {
      "type": "Feature",
      "geometry": {
        "type": "Point",
        "coordinates": [
          35.4441417538,
          31.8710168261
        ]
      },
      "properties": {
        "description": "representative point"
      }
    },
    {
      "geometry": {
        "type": "Point",
        "coordinates": [
          35.4441,
          31.871
        ]
      },
      "id": "cigs-location-of-jericho",
      "type": "Feature",
      "properties": {
        "description": null,
        "location_precision": "precise",
        "title": "CIGS location of Jericho",
        "link": "http://pleiades.stoa.org/places/687917/cigs-location-of-jericho"
      }
    },
    {
      "geometry": {
        "type": "LineString",
        "coordinates": [
          [
            35.4439064,
            31.8724327
          ],
          [
            35.4437431,
            31.8721149
          ],
          [
            35.4434558,
            31.8715558
          ],
          [
            35.4432842,
            31.871164
          ],
          [
            35.4432734,
            31.8710455
          ],
          [
            35.4432198,
            31.8703075
          ],
          [
            35.4432198,
            31.8698357
          ],
          [
            35.4432439,
            31.8697627
          ],
          [
            35.4432705,
            31.8696971
          ],
          [
            35.443311,
            31.8696079
          ],
          [
            35.4433807,
            31.8695213
          ],
          [
            35.4434987,
            31.8694439
          ],
          [
            35.4437642,
            31.8693835
          ],
          [
            35.443944,
            31.8694074
          ],
          [
            35.444161,
            31.8694123
          ],
          [
            35.444271,
            31.869418
          ],
          [
            35.444271,
            31.8695057
          ],
          [
            35.4442605,
            31.8695908
          ],
          [
            35.4443651,
            31.8696693
          ],
          [
            35.444392,
            31.8698289
          ],
          [
            35.4444348,
            31.8699587
          ],
          [
            35.4445153,
            31.8701226
          ],
          [
            35.444577,
            31.8703596
          ],
          [
            35.444625,
            31.8705923
          ],
          [
            35.4446974,
            31.8708064
          ],
          [
            35.444802,
            31.8709909
          ],
          [
            35.4449471,
            31.8711727
          ],
          [
            35.4450515,
            31.8712802
          ],
          [
            35.445132,
            31.8713827
          ],
          [
            35.4452153,
            31.8714894
          ],
          [
            35.4452931,
            31.8716853
          ],
          [
            35.4453897,
            31.8720224
          ],
          [
            35.4454109,
            31.8722573
          ],
          [
            35.4453146,
            31.8723003
          ],
          [
            35.4450091,
            31.8723797
          ],
          [
            35.4446599,
            31.8724737
          ],
          [
            35.4442844,
            31.8725557
          ],
          [
            35.4440351,
            31.8725235
          ],
          [
            35.4439064,
            31.8724327
          ]
        ]
      },
      "id": "osm-location-of-tell-as-sultan",
      "type": "Feature",
      "properties": {
        "description": "Location based on OpenStreetMap",
        "location_precision": "precise",
        "title": "OSM Location of Tell as-Sultan",
        "link": "http://pleiades.stoa.org/places/687917/osm-location-of-tell-as-sultan"
      }
    }
  ]
}