{
  "type": "FeatureCollection",
  "title": "Lake Matese",
  "id": "689737510",
  "bbox": [
    14.3772873,
    41.4077354,
    14.4077768,
    41.4183719
  ],
  "description": "Lake Matese is a glacial lake located in the Matese mountains at the foot of Monte Miletto and Monte Gallinola.",
  "names": [
    "Lago del Matese"
  ],
  "features": [
    {
      "type": "Feature",
      "geometry": {
        "type": "Point",
        "coordinates": [
          14.393923643,
          41.4127911809
        ]
      },
      "properties": {
        "description": "representative point"
      }
    },
    {
      "geometry": {
        "type": "LineString",
        "coordinates": [
          [
            14.3976931,
            41.4079542
          ],
          [
            14.399934,
            41.4086949
          ],
          [
            14.4043407,
            41.4077354
          ],
          [
            14.4050237,
            41.4080357
          ],
          [
            14.4051132,
            41.4084973
          ],
          [
            14.4055049,
            41.4088666
          ],
          [
            14.4054266,
            41.4093115
          ],
          [
            14.4058183,
            41.409941
          ],
          [
            14.4064226,
            41.4103943
          ],
          [
            14.4073963,
            41.4106041
          ],
          [
            14.4077768,
            41.4109314
          ],
          [
            14.4076649,
            41.4114518
          ],
          [
            14.4070717,
            41.4116868
          ],
          [
            14.4062324,
            41.4118379
          ],
          [
            14.4053259,
            41.4121401
          ],
          [
            14.4045622,
            41.4128318
          ],
          [
            14.4040296,
            41.4134657
          ],
          [
            14.4038675,
            41.4143601
          ],
          [
            14.4039022,
            41.4148463
          ],
          [
            14.4033812,
            41.4141864
          ],
          [
            14.4032769,
            41.4133528
          ],
          [
            14.4038906,
            41.4127189
          ],
          [
            14.4045738,
            41.4119981
          ],
          [
            14.404458,
            41.41159
          ],
          [
            14.4036243,
            41.4113729
          ],
          [
            14.4039948,
            41.4110255
          ],
          [
            14.4037401,
            41.4104698
          ],
          [
            14.403138,
            41.4107129
          ],
          [
            14.4031843,
            41.4114076
          ],
          [
            14.4034275,
            41.4118679
          ],
          [
            14.4033812,
            41.4121284
          ],
          [
            14.4028138,
            41.4118679
          ],
          [
            14.4023622,
            41.4121544
          ],
          [
            14.4019338,
            41.4119721
          ],
          [
            14.4018643,
            41.4123542
          ],
          [
            14.4015054,
            41.4127189
          ],
          [
            14.4016559,
            41.4131791
          ],
          [
            14.4012854,
            41.4135612
          ],
          [
            14.399971,
            41.4134162
          ],
          [
            14.3992522,
            41.4130837
          ],
          [
            14.399384,
            41.4122033
          ],
          [
            14.3987132,
            41.4117092
          ],
          [
            14.397635,
            41.4118529
          ],
          [
            14.3974194,
            41.412913
          ],
          [
            14.3968085,
            41.4136318
          ],
          [
            14.395922,
            41.4143325
          ],
          [
            14.3949756,
            41.4141349
          ],
          [
            14.39476,
            41.4150243
          ],
          [
            14.3943167,
            41.4161023
          ],
          [
            14.3935198,
            41.4162152
          ],
          [
            14.3934126,
            41.4166285
          ],
          [
            14.3929509,
            41.4167223
          ],
          [
            14.391873,
            41.4153477
          ],
          [
            14.3901599,
            41.4156352
          ],
          [
            14.3896689,
            41.4161598
          ],
          [
            14.3893962,
            41.4171729
          ],
          [
            14.3879957,
            41.4175447
          ],
          [
            14.3855789,
            41.4180373
          ],
          [
            14.3836454,
            41.4183719
          ],
          [
            14.381464,
            41.4181395
          ],
          [
            14.3792579,
            41.4178049
          ],
          [
            14.3782292,
            41.4172659
          ],
          [
            14.3783531,
            41.4167454
          ],
          [
            14.377436,
            41.415788
          ],
          [
            14.3772873,
            41.4148307
          ],
          [
            14.3776219,
            41.4141336
          ],
          [
            14.3789728,
            41.4129531
          ],
          [
            14.3804725,
            41.4119864
          ],
          [
            14.3814764,
            41.4115867
          ],
          [
            14.3822945,
            41.4114101
          ],
          [
            14.3845006,
            41.4119771
          ],
          [
            14.3976931,
            41.4079542
          ]
        ]
      },
      "id": "location-of-lake-matese",
      "type": "Feature",
      "properties": {
        "description": "Location based on OpenStreetMap",
        "location_precision": "precise",
        "title": "OSM location of Lake Matese",
        "link": "http://pleiades.stoa.org/places/689737510/location-of-lake-matese"
      }
    }
  ]
}