{
  "type": "FeatureCollection",
  "title": "Via Amerina",
  "id": "690508612",
  "bbox": [
    12.3384718,
    42.021338,
    12.416853,
    42.557237
  ],
  "description": "A Roman road begun ca. 241 B.C. that connected Veii and Ameria.",
  "features": [
    {
      "type": "Feature",
      "geometry": {
        "type": "Point",
        "coordinates": [
          12.3605890451,
          42.2771438431
        ]
      },
      "properties": {
        "description": "representative point"
      }
    }
  ]
}