{
  "type": "FeatureCollection",
  "title": "Pentascino",
  "id": "690831",
  "description": "Now unlocated, the Barrington Atlas Directory indicates that Pentascino was a road station located east of Pelusium.",
  "names": [
    "Pentascino"
  ],
  "features": [
    {
      "type": "Feature",
      "geometry": null,
      "properties": {
        "description": "representative point"
      }
    },
    {
      "geometry": null,
      "id": "undetermined",
      "type": "Feature",
      "properties": {
        "description": null,
        "location_precision": "unlocated",
        "title": "Undetermined location",
        "link": "http://pleiades.stoa.org/places/690831/undetermined"
      }
    }
  ]
}