{
  "type": "FeatureCollection",
  "title": "Le Pinnacle",
  "id": "69551",
  "bbox": [
    -2.2526707,
    49.2475671,
    -2.2526707,
    49.2475671
  ],
  "description": "An ancient place, cited: BAtlas 7 D2 Le Pinnacle",
  "connectsWith": [
    "69465"
  ],
  "names": [
    "Le Pinnacle",
    "Le Pinacle"
  ],
  "features": [
    {
      "type": "Feature",
      "geometry": {
        "type": "Point",
        "coordinates": [
          -2.2526707,
          49.2475671
        ]
      },
      "properties": {
        "description": "representative point"
      }
    },
    {
      "geometry": {
        "type": "Point",
        "coordinates": [
          -2.2526707,
          49.2475671
        ]
      },
      "id": "osm-location-of-le-pinacle",
      "type": "Feature",
      "properties": {
        "description": "Representative location based on OpenStreetMap",
        "location_precision": "precise",
        "title": "OSM location of Le Pinacle",
        "link": "http://pleiades.stoa.org/places/69551/osm-location-of-le-pinacle"
      }
    }
  ]
}