{
  "type": "FeatureCollection",
  "title": "Da'janiya",
  "id": "697651",
  "bbox": [
    35.7611161,
    30.5520452,
    35.7624474,
    30.5533711
  ],
  "description": "An ancient place, cited: BAtlas 71 B4 Da'janiya",
  "features": [
    {
      "type": "Feature",
      "geometry": {
        "type": "Point",
        "coordinates": [
          35.7617731361,
          30.5527095103
        ]
      },
      "properties": {
        "description": "representative point"
      }
    },
    {
      "geometry": {
        "type": "LineString",
        "coordinates": [
          [
            35.7617668,
            30.5533711
          ],
          [
            35.7611161,
            30.5527338
          ],
          [
            35.7617285,
            30.5520452
          ],
          [
            35.7624474,
            30.5526971
          ],
          [
            35.7617668,
            30.5533711
          ]
        ]
      },
      "id": "osm-location-of-castra-dajaniya",
      "type": "Feature",
      "properties": {
        "description": "Representative location based on OpenStreetMap",
        "location_precision": "precise",
        "title": "OSM location of Castra Dajaniya",
        "link": "http://pleiades.stoa.org/places/697651/osm-location-of-castra-dajaniya"
      }
    }
  ]
}