{
  "type": "FeatureCollection",
  "title": "er-Ruweihi",
  "id": "697746",
  "bbox": [
    35.9188975,
    30.850961,
    35.9200828,
    30.8521218
  ],
  "description": "An ancient place, cited: BAtlas 71 B4 er-Ruweihi",
  "names": [
    "er-Ruweihi"
  ],
  "features": [
    {
      "type": "Feature",
      "geometry": {
        "type": "Point",
        "coordinates": [
          35.9194710673,
          30.8515468775
        ]
      },
      "properties": {
        "description": "representative point"
      }
    },
    {
      "geometry": {
        "type": "LineString",
        "coordinates": [
          [
            35.9188975,
            30.851855
          ],
          [
            35.9193923,
            30.850961
          ],
          [
            35.9200828,
            30.8513265
          ],
          [
            35.91947,
            30.8521218
          ],
          [
            35.9188975,
            30.851855
          ]
        ]
      },
      "id": "osm-location-of-er-ruweihi",
      "type": "Feature",
      "properties": {
        "description": "Representative location based on OpenStreetMap",
        "location_precision": "precise",
        "title": "OSM location of Er-Ruweihi",
        "link": "http://pleiades.stoa.org/places/697746/osm-location-of-er-ruweihi"
      }
    }
  ]
}