{
  "type": "FeatureCollection",
  "title": "Castell Bryn Gwyn",
  "id": "698771115",
  "bbox": [
    -4.2985669,
    53.1780633,
    -4.2973599,
    53.1788124
  ],
  "description": "Castell Bryn Gwyn is a circular Neolithic enclosure some 54 m in diameter that shows signs of re-use during the Iron Age and in the Roman period. The site is located on the Isle of Anglesey.",
  "connectsWith": [
    "79601"
  ],
  "features": [
    {
      "type": "Feature",
      "geometry": {
        "type": "Point",
        "coordinates": [
          -4.29795216274,
          53.1784656459
        ]
      },
      "properties": {
        "description": "representative point"
      }
    },
    {
      "geometry": {
        "type": "LineString",
        "coordinates": [
          [
            -4.2980465,
            53.1788124
          ],
          [
            -4.2982289,
            53.1787593
          ],
          [
            -4.298473,
            53.1785937
          ],
          [
            -4.2985669,
            53.1784507
          ],
          [
            -4.2985025,
            53.1782996
          ],
          [
            -4.2982343,
            53.1781485
          ],
          [
            -4.2979714,
            53.1780633
          ],
          [
            -4.2978668,
            53.1780745
          ],
          [
            -4.2978278,
            53.1780805
          ],
          [
            -4.2977515,
            53.1781179
          ],
          [
            -4.2977354,
            53.1781485
          ],
          [
            -4.2976786,
            53.1781981
          ],
          [
            -4.2975932,
            53.1782473
          ],
          [
            -4.2975208,
            53.1782867
          ],
          [
            -4.2974672,
            53.1783357
          ],
          [
            -4.2974189,
            53.178396
          ],
          [
            -4.2973599,
            53.1785857
          ],
          [
            -4.2974672,
            53.1787465
          ],
          [
            -4.2976442,
            53.1787979
          ],
          [
            -4.2980465,
            53.1788124
          ]
        ]
      },
      "id": "location-of-castell-bryn-gwyn",
      "type": "Feature",
      "properties": {
        "description": "Location based on OpenStreetMap",
        "location_precision": "precise",
        "title": "OSM location of Castell Bryn Gwyn",
        "link": "http://pleiades.stoa.org/places/698771115/location-of-castell-bryn-gwyn"
      }
    }
  ]
}