{
  "type": "FeatureCollection",
  "title": "Castro do Monte Padrão",
  "id": "699777740",
  "bbox": [
    -8.4501637,
    41.3118131,
    -8.448825,
    41.3134509
  ],
  "description": "The remains of a multi-period fortified settlement located in modern Portugal's Porto district, that dates initially from the ninth century BCE.",
  "names": [
    "Castro do Monte Padrão"
  ],
  "features": [
    {
      "type": "Feature",
      "geometry": {
        "type": "Point",
        "coordinates": [
          -8.44939983974,
          41.3125856733
        ]
      },
      "properties": {
        "description": "representative point"
      }
    },
    {
      "geometry": {
        "type": "LineString",
        "coordinates": [
          [
            -8.4491277,
            41.3134509
          ],
          [
            -8.4494264,
            41.313315
          ],
          [
            -8.4494282,
            41.3131869
          ],
          [
            -8.4499277,
            41.3127528
          ],
          [
            -8.4501637,
            41.3121787
          ],
          [
            -8.4498111,
            41.3118714
          ],
          [
            -8.4495673,
            41.3118131
          ],
          [
            -8.4492454,
            41.3118272
          ],
          [
            -8.4489031,
            41.3122431
          ],
          [
            -8.4490898,
            41.3123812
          ],
          [
            -8.4488978,
            41.3127317
          ],
          [
            -8.4489825,
            41.312765
          ],
          [
            -8.448825,
            41.3132138
          ],
          [
            -8.4489903,
            41.3134494
          ],
          [
            -8.4491277,
            41.3134509
          ]
        ]
      },
      "id": "osm-location",
      "type": "Feature",
      "properties": {
        "description": "Representative location based on OpenStreetMap",
        "location_precision": "precise",
        "title": "OSM location of Castro de Monte Padrão",
        "link": "http://pleiades.stoa.org/places/699777740/osm-location"
      }
    }
  ]
}