{
  "type": "FeatureCollection",
  "title": "Italia, Regio VI",
  "id": "699782782",
  "description": "One of the administrative regions from Augustus's division of Italy, comprising Umbria and Ager Gallicus. Described by Pliny the Elder in Book III of his Natural History.",
  "connectsWith": [
    "413360",
    "393373"
  ],
  "names": [
    "Regio VI"
  ],
  "features": [
    {
      "type": "Feature",
      "geometry": null,
      "properties": {
        "description": "representative point"
      }
    }
  ]
}