{
  "type": "FeatureCollection",
  "title": "Forum Aemilianum",
  "id": "700326648",
  "bbox": [
    13.2487003,
    41.29182,
    13.2487003,
    41.29182
  ],
  "description": "The Roman forum of Terracina, entered by a quadrifons arch, sits along the line of the Via Appia.",
  "connectsWith": [
    "433143"
  ],
  "features": [
    {
      "type": "Feature",
      "geometry": {
        "type": "Point",
        "coordinates": [
          13.2487003,
          41.29182
        ]
      },
      "properties": {
        "description": "representative point"
      }
    },
    {
      "geometry": {
        "type": "Point",
        "coordinates": [
          13.2487003,
          41.29182
        ]
      },
      "id": "osm-location-foro-emiliano",
      "type": "Feature",
      "properties": {
        "description": "Reoresentative location based on OpenStreetMap",
        "location_precision": "precise",
        "title": "OSM location: Foro Emiliano",
        "link": "http://pleiades.stoa.org/places/700326648/osm-location-foro-emiliano"
      }
    }
  ]
}