{
  "type": "FeatureCollection",
  "title": "Funtana Coberta",
  "id": "700851260",
  "bbox": [
    9.351953,
    39.5810273,
    9.351953,
    39.5810273
  ],
  "description": "A sacred well of the Nuragic civilization dated between 1200 and 850 BC. The well is located between the modern Sardinian settlements of Escalaplano and Ballao near the junction of highways S6, S13, and S23.",
  "connectsWith": [
    "472014"
  ],
  "names": [
    "Pozzo sacro di Funtana Coberta"
  ],
  "features": [
    {
      "type": "Feature",
      "geometry": {
        "type": "Point",
        "coordinates": [
          9.351953,
          39.5810273
        ]
      },
      "properties": {
        "description": "representative point"
      }
    },
    {
      "geometry": {
        "type": "Point",
        "coordinates": [
          9.351953,
          39.5810273
        ]
      },
      "id": "osm-location",
      "type": "Feature",
      "properties": {
        "description": "Location based on OpenStreetMap",
        "location_precision": "precise",
        "title": "OSM location",
        "link": "http://pleiades.stoa.org/places/700851260/osm-location"
      }
    }
  ]
}