{
  "type": "FeatureCollection",
  "title": "Tomb of Septimia Galla",
  "id": "704804858",
  "bbox": [
    12.5502015,
    41.8256353,
    12.5502015,
    41.8256353
  ],
  "description": "A Roman tomb at the sixth mile of the Via Appia.",
  "connectsWith": [
    "356966898"
  ],
  "names": [
    "Tomb of Septimia Galla"
  ],
  "features": [
    {
      "type": "Feature",
      "geometry": {
        "type": "Point",
        "coordinates": [
          12.5502015,
          41.8256353
        ]
      },
      "properties": {
        "description": "representative point"
      }
    },
    {
      "geometry": {
        "type": "Point",
        "coordinates": [
          12.5502015,
          41.8256353
        ]
      },
      "id": "osm-location-of-tomba-di-septimia-galla",
      "type": "Feature",
      "properties": {
        "description": "Representative location based on OpenStreetMap",
        "location_precision": "precise",
        "title": "OSM location of Tomba di Septimia Galla",
        "link": "http://pleiades.stoa.org/places/704804858/osm-location-of-tomba-di-septimia-galla"
      }
    }
  ]
}