{
  "type": "FeatureCollection",
  "title": "Achna",
  "id": "707486",
  "bbox": [
    33.791481,
    35.057081,
    33.791481,
    35.057081
  ],
  "description": "Achna is a modern village on Cyprus where evidence exists for an ancient sanctuary dedicated to a goddess perhaps associated with Artemis.",
  "connectsWith": [
    "707498"
  ],
  "names": [
    "Artemis",
    "Kybele"
  ],
  "features": [
    {
      "type": "Feature",
      "geometry": {
        "type": "Point",
        "coordinates": [
          33.791481,
          35.057081
        ]
      },
      "properties": {
        "description": "representative point"
      }
    },
    {
      "geometry": {
        "type": "Point",
        "coordinates": [
          33.791481,
          35.057081
        ]
      },
      "id": "darmc-location-6522",
      "type": "Feature",
      "properties": {
        "description": "1:500,000 scale representative point location digitized from the Barrington Atlas of the Greek and Roman World by the Digital Atlas of Roman and Medieval Civilizations project at Harvard University.",
        "location_precision": "precise",
        "title": "DARMC location 6522",
        "link": "http://pleiades.stoa.org/places/707486/darmc-location-6522"
      }
    }
  ]
}