{
  "type": "FeatureCollection",
  "title": "Mavrovounoi",
  "id": "707578",
  "bbox": [
    33.342979,
    34.950533,
    33.342979,
    34.950533
  ],
  "description": "An ancient place, cited: BAtlas 72 C3 Mavrovounoi",
  "connectsWith": [
    "707498"
  ],
  "features": [
    {
      "type": "Feature",
      "geometry": {
        "type": "Point",
        "coordinates": [
          33.342979,
          34.950533
        ]
      },
      "properties": {
        "description": "representative point"
      }
    },
    {
      "geometry": {
        "type": "Point",
        "coordinates": [
          33.342979,
          34.950533
        ]
      },
      "id": "darmc-location-6719",
      "type": "Feature",
      "properties": {
        "description": "1:500,000 scale representative point location digitized from the Barrington Atlas of the Greek and Roman World by the Digital Atlas of Roman and Medieval Civilizations project at Harvard University.",
        "location_precision": "precise",
        "title": "DARMC location 6719",
        "link": "http://pleiades.stoa.org/places/707578/darmc-location-6719"
      }
    }
  ]
}