{
  "type": "FeatureCollection",
  "title": "Kelliake?",
  "id": "707530",
  "bbox": [
    33.611487,
    34.977184,
    33.611487,
    34.977184
  ],
  "description": "An ancient place, cited: BAtlas 72 D3 Kelliake?",
  "connectsWith": [
    "707498"
  ],
  "names": [
    "Kelliake"
  ],
  "features": [
    {
      "type": "Feature",
      "geometry": {
        "type": "Point",
        "coordinates": [
          33.611487,
          34.977184
        ]
      },
      "properties": {
        "description": "representative point"
      }
    },
    {
      "geometry": {
        "type": "Point",
        "coordinates": [
          33.611487,
          34.977184
        ]
      },
      "id": "darmc-location-13100",
      "type": "Feature",
      "properties": {
        "description": "1:500,000 scale representative point location digitized from the Barrington Atlas of the Greek and Roman World by the Digital Atlas of Roman and Medieval Civilizations project at Harvard University.",
        "location_precision": "precise",
        "title": "DARMC location 13100",
        "link": "http://pleiades.stoa.org/places/707530/darmc-location-13100"
      }
    }
  ]
}