{
  "type": "FeatureCollection",
  "title": "Panagia tis Kyras",
  "id": "707601",
  "bbox": [
    34.0300178,
    35.4050818,
    34.0300178,
    35.4050818
  ],
  "description": "A twelfth-century CE Greek Orthodox church located north of modern Livadia on Cyprus' Karpasia peninsula. Its apse had been adapted from part of an older building and contained a 7th-century mosaic of the Theotokos (i.e., Mary, mother of Jesus).",
  "connectsWith": [
    "707498"
  ],
  "names": [
    "Panagia tis Kyras",
    "Κυρά"
  ],
  "features": [
    {
      "type": "Feature",
      "geometry": {
        "type": "Point",
        "coordinates": [
          34.0300178,
          35.4050818
        ]
      },
      "properties": {
        "description": "representative point"
      }
    },
    {
      "geometry": {
        "type": "Point",
        "coordinates": [
          34.0300178,
          35.4050818
        ]
      },
      "id": "osm-location-of-panagia-tis-kyras",
      "type": "Feature",
      "properties": {
        "description": "Representative location based on OpenStreetMap",
        "location_precision": "precise",
        "title": "OSM location of Panagia tis Kyras",
        "link": "http://pleiades.stoa.org/places/707601/osm-location-of-panagia-tis-kyras"
      }
    }
  ]
}