{
  "type": "FeatureCollection",
  "title": "Philoitos?",
  "id": "707609",
  "bbox": [
    33.487928,
    35.078008,
    33.487928,
    35.078008
  ],
  "description": "An ancient place, cited: BAtlas 72 C2 Philoitos?",
  "connectsWith": [
    "707498"
  ],
  "names": [
    "Philoitos"
  ],
  "features": [
    {
      "type": "Feature",
      "geometry": {
        "type": "Point",
        "coordinates": [
          33.487928,
          35.078008
        ]
      },
      "properties": {
        "description": "representative point"
      }
    },
    {
      "geometry": {
        "type": "Point",
        "coordinates": [
          33.487928,
          35.078008
        ]
      },
      "id": "darmc-location-14246",
      "type": "Feature",
      "properties": {
        "description": "1:500,000 scale representative point location digitized from the Barrington Atlas of the Greek and Roman World by the Digital Atlas of Roman and Medieval Civilizations project at Harvard University.",
        "location_precision": "precise",
        "title": "DARMC location 14246",
        "link": "http://pleiades.stoa.org/places/707609/darmc-location-14246"
      }
    }
  ]
}