{
  "type": "FeatureCollection",
  "title": "Zephyrion Pr.",
  "id": "707644",
  "bbox": [
    32.494,
    34.704,
    32.494,
    34.704
  ],
  "description": "An ancient place, cited: BAtlas 72 A3 Zephyrion Pr.",
  "connectsWith": [
    "707498"
  ],
  "names": [
    "Zephyrion Pr.",
    "Zephyrion"
  ],
  "features": [
    {
      "type": "Feature",
      "geometry": {
        "type": "Point",
        "coordinates": [
          32.494,
          34.704
        ]
      },
      "properties": {
        "description": "representative point"
      }
    },
    {
      "geometry": {
        "type": "Point",
        "coordinates": [
          32.494,
          34.704
        ]
      },
      "id": "topostext-location-of-zephyrion-cape-cyprus",
      "type": "Feature",
      "properties": {
        "description": "Coordinates following Topostext",
        "location_precision": "precise",
        "title": "Topostext location of Zephyrion cape (Cyprus)",
        "link": "http://pleiades.stoa.org/places/707644/topostext-location-of-zephyrion-cape-cyprus"
      }
    }
  ]
}