{
  "type": "FeatureCollection",
  "title": "Abbotsbury Castle",
  "id": "708926627",
  "bbox": [
    -2.6345059,
    50.6751409,
    -2.6276117,
    50.6780438
  ],
  "description": "Abbotsbury Castle is an Iron Age hill fort located on Wears Hill in Dorset, England.",
  "connectsWith": [
    "79438"
  ],
  "names": [
    "Abbotsbury Castle"
  ],
  "features": [
    {
      "type": "Feature",
      "geometry": {
        "type": "Point",
        "coordinates": [
          -2.6308091256,
          50.6766593246
        ]
      },
      "properties": {
        "description": "representative point"
      }
    },
    {
      "geometry": {
        "type": "LineString",
        "coordinates": [
          [
            -2.6278294,
            50.6763137
          ],
          [
            -2.6276117,
            50.6758046
          ],
          [
            -2.6276341,
            50.6753379
          ],
          [
            -2.6277314,
            50.6751409
          ],
          [
            -2.6289346,
            50.6756936
          ],
          [
            -2.6293891,
            50.6759012
          ],
          [
            -2.6298189,
            50.6761163
          ],
          [
            -2.6309388,
            50.6762907
          ],
          [
            -2.6322111,
            50.6763898
          ],
          [
            -2.6327292,
            50.6763621
          ],
          [
            -2.633494,
            50.6763942
          ],
          [
            -2.6341554,
            50.6764728
          ],
          [
            -2.6345059,
            50.6766229
          ],
          [
            -2.6344929,
            50.6769539
          ],
          [
            -2.6343584,
            50.6770758
          ],
          [
            -2.6334545,
            50.6769645
          ],
          [
            -2.6321429,
            50.677177
          ],
          [
            -2.6305658,
            50.6776682
          ],
          [
            -2.6298818,
            50.6780132
          ],
          [
            -2.6295009,
            50.6780438
          ],
          [
            -2.6291066,
            50.6777803
          ],
          [
            -2.6278294,
            50.6763137
          ]
        ]
      },
      "id": "osm-location",
      "type": "Feature",
      "properties": {
        "description": "Representative polygon for the modern access land area associated with the hill fort; derived from an OpenStreetMap way. Dates after Wikipedia.",
        "location_precision": "precise",
        "title": "OSM Location",
        "link": "http://pleiades.stoa.org/places/708926627/osm-location"
      }
    }
  ]
}