{
  "type": "FeatureCollection",
  "title": "Winningen",
  "id": "712053696",
  "bbox": [
    7.5007601,
    50.3181028,
    7.5007601,
    50.3181028
  ],
  "description": "A Roman villa rustica.",
  "features": [
    {
      "type": "Feature",
      "geometry": {
        "type": "Point",
        "coordinates": [
          7.5007601,
          50.3181028
        ]
      },
      "properties": {
        "description": "representative point"
      }
    },
    {
      "geometry": {
        "type": "LineString",
        "coordinates": [
          [
            7.5006356,
            50.3180769
          ],
          [
            7.5007601,
            50.3181028
          ],
          [
            7.5009025,
            50.3180859
          ],
          [
            7.5010023,
            50.3180206
          ],
          [
            7.5009868,
            50.3179346
          ],
          [
            7.500826,
            50.3177923
          ],
          [
            7.500666,
            50.3176897
          ],
          [
            7.5005991,
            50.3176507
          ],
          [
            7.5004756,
            50.3176317
          ],
          [
            7.4996705,
            50.3175478
          ],
          [
            7.5006356,
            50.3180769
          ]
        ]
      },
      "id": "osm-location",
      "type": "Feature",
      "properties": {
        "description": "Representative location based on OpenStreetMap.",
        "location_precision": "precise",
        "title": "OSM location of Römisches Herrenhaus",
        "link": "http://pleiades.stoa.org/places/712053696/osm-location"
      }
    }
  ]
}