{
  "type": "FeatureCollection",
  "title": "Son Real necropolis",
  "id": "712997241",
  "bbox": [
    3.1821989,
    39.7549582,
    3.1821989,
    39.7549582
  ],
  "description": "A prehistoric necropolis near punta Fenicis that remained in use through the Roman period.",
  "connectsWith": [
    "632227173"
  ],
  "names": [
    "Son Real necropolis"
  ],
  "features": [
    {
      "type": "Feature",
      "geometry": {
        "type": "Point",
        "coordinates": [
          3.1821989,
          39.7549582
        ]
      },
      "properties": {
        "description": "representative point"
      }
    },
    {
      "geometry": {
        "type": "Point",
        "coordinates": [
          3.1821989,
          39.7549582
        ]
      },
      "id": "osm-location-of-necra2polis-de-son-real",
      "type": "Feature",
      "properties": {
        "description": "Representative location based on OpenStreetMap",
        "location_precision": "precise",
        "title": "OSM location of Necròpolis de Son Real",
        "link": "http://pleiades.stoa.org/places/712997241/osm-location-of-necra2polis-de-son-real"
      }
    }
  ]
}