{
  "type": "FeatureCollection",
  "title": "Roman Theater of Baelo",
  "id": "713816455",
  "bbox": [
    -5.7760189,
    36.0906526,
    -5.7752331,
    36.0911855
  ],
  "description": "A Roman theater in Baelo that dates to the reign of Claudius.",
  "connectsWith": [
    "256005"
  ],
  "names": [
    "Roman Theatre of Baelo Claudia"
  ],
  "features": [
    {
      "type": "Feature",
      "geometry": {
        "type": "Point",
        "coordinates": [
          -5.77559436098,
          36.0909220729
        ]
      },
      "properties": {
        "description": "representative point"
      }
    },
    {
      "geometry": {
        "type": "LineString",
        "coordinates": [
          [
            -5.7760189,
            36.090843
          ],
          [
            -5.7759795,
            36.0909448
          ],
          [
            -5.7759573,
            36.090998
          ],
          [
            -5.7759228,
            36.0910417
          ],
          [
            -5.7758779,
            36.0910868
          ],
          [
            -5.7758342,
            36.0911206
          ],
          [
            -5.775776,
            36.0911511
          ],
          [
            -5.7757169,
            36.091172
          ],
          [
            -5.7756528,
            36.0911826
          ],
          [
            -5.7755822,
            36.0911855
          ],
          [
            -5.7755201,
            36.0911787
          ],
          [
            -5.7754555,
            36.0911622
          ],
          [
            -5.7754083,
            36.0911408
          ],
          [
            -5.7753483,
            36.0911019
          ],
          [
            -5.7753136,
            36.0910705
          ],
          [
            -5.7752802,
            36.0910324
          ],
          [
            -5.7752534,
            36.090989
          ],
          [
            -5.7752373,
            36.0909368
          ],
          [
            -5.7752331,
            36.0908833
          ],
          [
            -5.7752385,
            36.0908313
          ],
          [
            -5.7752564,
            36.0907656
          ],
          [
            -5.7752945,
            36.0906526
          ],
          [
            -5.7760189,
            36.090843
          ]
        ]
      },
      "id": "location-of-roman-theater",
      "type": "Feature",
      "properties": {
        "description": "Representative location based on OpenStreetMap.",
        "location_precision": "precise",
        "title": "OSM location of Roman theater",
        "link": "http://pleiades.stoa.org/places/713816455/location-of-roman-theater"
      }
    }
  ]
}