{
  "type": "FeatureCollection",
  "title": "Abbiar Zergum",
  "id": "716498",
  "bbox": [
    24.765316,
    29.831923,
    24.765316,
    29.831923
  ],
  "description": "An ancient place, cited: None",
  "features": [
    {
      "type": "Feature",
      "geometry": {
        "type": "Point",
        "coordinates": [
          24.765316,
          29.831923
        ]
      },
      "properties": {
        "description": "representative point"
      }
    },
    {
      "geometry": {
        "type": "Point",
        "coordinates": [
          24.765316,
          29.831923
        ]
      },
      "id": "darmc-location-23404",
      "type": "Feature",
      "properties": {
        "description": "Representative point location digitized from the Barrington Atlas of the Greek and Roman World by the Digital Atlas of Roman and Medieval Civilizations project at Harvard University.",
        "location_precision": "precise",
        "title": "DARMC location 23404",
        "link": "http://pleiades.stoa.org/places/716498/darmc-location-23404"
      }
    }
  ]
}