{
  "type": "FeatureCollection",
  "title": "Tempio di Grasceta dei Cavallari",
  "id": "717610741",
  "bbox": [
    11.9415067,
    42.1812003,
    11.9415067,
    42.1812003
  ],
  "description": "The temple of Grasceta dei Cavallari is an Etrusco-Roman sanctuary located in the municipality of Tolfa. This sanctuary sits at the foot of Mount Mazza, above a pass near Tarquinia and Caere's ancient borders. The temple was small, with a rectangular platform and an octastyle arrangement.",
  "connectsWith": [
    "971724591"
  ],
  "features": [
    {
      "type": "Feature",
      "geometry": {
        "type": "Point",
        "coordinates": [
          11.9415067,
          42.1812003
        ]
      },
      "properties": {
        "description": "representative point"
      }
    },
    {
      "geometry": {
        "type": "Point",
        "coordinates": [
          11.9415067,
          42.1812003
        ]
      },
      "id": "osm-location-of-tempio-di-grasceta-dei-cavallari",
      "type": "Feature",
      "properties": {
        "description": "Representative location based on OpenStreetMap",
        "location_precision": "precise",
        "title": "OSM location of Tempio di Grasceta dei Cavallari",
        "link": "http://pleiades.stoa.org/places/717610741/osm-location-of-tempio-di-grasceta-dei-cavallari"
      }
    }
  ]
}