{
  "type": "FeatureCollection",
  "title": "Black Ball Camp",
  "id": "721382239",
  "bbox": [
    -3.4548927,
    51.1737784,
    -3.4537032,
    51.1743268
  ],
  "description": "Black Ball Camp or Gallox hill fort is an Iron Age hill fort in Dunster, Somerset, England.",
  "features": [
    {
      "type": "Feature",
      "geometry": {
        "type": "Point",
        "coordinates": [
          -3.45429091825,
          51.1740474133
        ]
      },
      "properties": {
        "description": "representative point"
      }
    },
    {
      "geometry": {
        "type": "LineString",
        "coordinates": [
          [
            -3.454245,
            51.1743268
          ],
          [
            -3.4546839,
            51.1742603
          ],
          [
            -3.4548927,
            51.1741028
          ],
          [
            -3.4547716,
            51.1738884
          ],
          [
            -3.4544569,
            51.1737784
          ],
          [
            -3.4540271,
            51.1737992
          ],
          [
            -3.4537607,
            51.1739036
          ],
          [
            -3.4537032,
            51.1741047
          ],
          [
            -3.4538848,
            51.1742414
          ],
          [
            -3.454245,
            51.1743268
          ]
        ]
      },
      "id": "location-of-black-ball-camp",
      "type": "Feature",
      "properties": {
        "description": "Representative location based on OpenStreetMap.",
        "location_precision": "precise",
        "title": "OSM location of Black Ball Camp",
        "link": "http://pleiades.stoa.org/places/721382239/location-of-black-ball-camp"
      }
    }
  ]
}