{
  "type": "FeatureCollection",
  "title": "Phernouphis",
  "id": "727200",
  "bbox": [
    31.5800107,
    31.0555312,
    31.5828211,
    31.0585584
  ],
  "description": "An ancient place, cited: BAtlas 74 F2 Phernouphis",
  "names": [
    "Phernouphis"
  ],
  "features": [
    {
      "type": "Feature",
      "geometry": {
        "type": "Point",
        "coordinates": [
          31.5813792536,
          31.057217789
        ]
      },
      "properties": {
        "description": "representative point"
      }
    },
    {
      "geometry": {
        "type": "LineString",
        "coordinates": [
          [
            31.5815768,
            31.0584771
          ],
          [
            31.5826954,
            31.0583902
          ],
          [
            31.5827153,
            31.0581534
          ],
          [
            31.5827468,
            31.0581578
          ],
          [
            31.5827468,
            31.0580625
          ],
          [
            31.5827908,
            31.058037
          ],
          [
            31.5828211,
            31.0576575
          ],
          [
            31.5828204,
            31.0575362
          ],
          [
            31.5827774,
            31.0574674
          ],
          [
            31.5827109,
            31.0574274
          ],
          [
            31.5826507,
            31.0574063
          ],
          [
            31.5825859,
            31.0573904
          ],
          [
            31.5824816,
            31.0573758
          ],
          [
            31.5824647,
            31.0573069
          ],
          [
            31.5824552,
            31.0571012
          ],
          [
            31.5824638,
            31.0569992
          ],
          [
            31.5824854,
            31.0569379
          ],
          [
            31.5824455,
            31.0568595
          ],
          [
            31.5824085,
            31.0567596
          ],
          [
            31.5821439,
            31.0560937
          ],
          [
            31.5821042,
            31.0560269
          ],
          [
            31.5819825,
            31.0559098
          ],
          [
            31.5818346,
            31.0557812
          ],
          [
            31.5817251,
            31.0556936
          ],
          [
            31.5816636,
            31.0555477
          ],
          [
            31.5813292,
            31.0555312
          ],
          [
            31.5810193,
            31.0555629
          ],
          [
            31.5806358,
            31.0556907
          ],
          [
            31.5805255,
            31.0557197
          ],
          [
            31.5803865,
            31.0559499
          ],
          [
            31.580347,
            31.056256
          ],
          [
            31.5802763,
            31.0568715
          ],
          [
            31.5803646,
            31.056914
          ],
          [
            31.5800107,
            31.0582976
          ],
          [
            31.5802397,
            31.0583733
          ],
          [
            31.5803976,
            31.0584337
          ],
          [
            31.5805159,
            31.0584598
          ],
          [
            31.5806189,
            31.0585584
          ],
          [
            31.5815768,
            31.0584771
          ]
        ]
      },
      "id": "osm-location-of-phernouphis",
      "type": "Feature",
      "properties": {
        "description": "Representative location based on OpenStreetMap",
        "location_precision": "precise",
        "title": "OSM location of Phernouphis",
        "link": "http://pleiades.stoa.org/places/727200/osm-location-of-phernouphis"
      }
    }
  ]
}