{
  "type": "FeatureCollection",
  "title": "Gymnasium at Olympia",
  "id": "728329643",
  "bbox": [
    21.6284548,
    37.6389928,
    21.628916,
    37.6399972
  ],
  "description": "The Gymnasium of Olympia was a practice and training field constructed in 250 BC for male Hellenic athletes competing in the Olympic Games.",
  "connectsWith": [
    "570531"
  ],
  "names": [
    "Gymnasium at Olympia",
    "Gymnasion von Olympia"
  ],
  "features": [
    {
      "type": "Feature",
      "geometry": {
        "type": "Point",
        "coordinates": [
          21.6286854,
          37.639495
        ]
      },
      "properties": {
        "description": "representative point"
      }
    },
    {
      "geometry": {
        "type": "LineString",
        "coordinates": [
          [
            21.6284548,
            37.6399631
          ],
          [
            21.6286667,
            37.6399972
          ],
          [
            21.628916,
            37.6390269
          ],
          [
            21.6287041,
            37.6389928
          ],
          [
            21.6284548,
            37.6399631
          ]
        ]
      },
      "id": "osm-location-of-gymnasium",
      "type": "Feature",
      "properties": {
        "description": "Representative location based on OpenStreetMap",
        "location_precision": "precise",
        "title": "OSM location of Gymnasium",
        "link": "http://pleiades.stoa.org/places/728329643/osm-location-of-gymnasium"
      }
    }
  ]
}