{
  "type": "FeatureCollection",
  "title": "Ionian League",
  "id": "735295266",
  "bbox": [
    26.132979,
    37.5276204,
    27.4258624,
    38.6703
  ],
  "description": "An Ancient Greek confederation originally formed in the sixth century BCE by twelve Ionian cities, with religious festivals celebrated at Panionia.",
  "names": [
    "The Koinon of the Ionians"
  ],
  "features": [
    {
      "type": "Feature",
      "geometry": {
        "type": "Point",
        "coordinates": [
          26.5884385998,
          38.3951739832
        ]
      },
      "properties": {
        "description": "representative point"
      }
    }
  ]
}