{
  "type": "FeatureCollection",
  "title": "Trikomia",
  "id": "741644",
  "bbox": [
    30.481269984,
    29.2234546486,
    30.9959473996,
    29.3091152448
  ],
  "description": "An ancient place, cited: BAtlas 75 unlocated Trikomia",
  "connectsWith": [
    "736893"
  ],
  "names": [
    "Trikomia"
  ],
  "features": [
    {
      "type": "Feature",
      "geometry": {
        "type": "Point",
        "coordinates": [
          30.7306351579,
          29.2761099473
        ]
      },
      "properties": {
        "description": "representative point"
      }
    }
  ]
}