{
  "type": "FeatureCollection",
  "title": "Aelana/Aila",
  "id": "746700",
  "bbox": [
    34.9987826,
    29.5296067,
    35.0010863,
    29.5315807
  ],
  "description": "The city of Aqaba on the Red Sea.",
  "connectsWith": [
    "39290",
    "746701"
  ],
  "names": [
    "Aelana",
    "Aila",
    "Haila",
    "Ailana",
    "Berenike",
    "Elath",
    "Aïlas",
    "Ailas",
    "Ailana",
    "ʿEṣyon Gever",
    "ʿEṣyon Geber",
    "Ēla",
    "Ile de Graye",
    "Ẹ̄lat",
    "Ẹlat",
    "Ẹlȧt",
    "Ezion Geber",
    "Berenikē",
    "Berenike",
    "Gazīrat Firʿaun",
    "al-ʿAqaba",
    "Tall al-Ḫulaifa",
    "Aila",
    "Aila",
    "Aila",
    "Eyle",
    "ʿAḳabe",
    "Aqaba"
  ],
  "features": [
    {
      "type": "Feature",
      "geometry": {
        "type": "Point",
        "coordinates": [
          34.999966317,
          29.5306345642
        ]
      },
      "properties": {
        "description": "representative point"
      }
    },
    {
      "geometry": {
        "type": "Point",
        "coordinates": [
          34.999999,
          29.530676
        ]
      },
      "id": "dare-location",
      "type": "Feature",
      "properties": {
        "description": "Representative point location, site precision",
        "location_precision": "precise",
        "title": "DARE Location",
        "link": "http://pleiades.stoa.org/places/746700/dare-location"
      }
    },
    {
      "geometry": {
        "type": "LineString",
        "coordinates": [
          [
            34.9987826,
            29.5304414
          ],
          [
            34.9989363,
            29.5305957
          ],
          [
            34.9989575,
            29.5306636
          ],
          [
            34.9990088,
            29.5306795
          ],
          [
            34.9991042,
            29.5307663
          ],
          [
            34.9991151,
            29.5308103
          ],
          [
            34.9991718,
            29.530872
          ],
          [
            34.9992013,
            29.5308801
          ],
          [
            34.9992667,
            29.530937
          ],
          [
            34.9992918,
            29.5309979
          ],
          [
            34.9993627,
            29.5310595
          ],
          [
            34.9993934,
            29.5311075
          ],
          [
            34.9994733,
            29.5311382
          ],
          [
            34.9995209,
            29.5311939
          ],
          [
            34.9995665,
            29.5312661
          ],
          [
            34.9995996,
            29.5312973
          ],
          [
            34.9996667,
            29.5313303
          ],
          [
            34.9997076,
            29.5313854
          ],
          [
            34.9997363,
            29.5314557
          ],
          [
            34.9998207,
            29.5314908
          ],
          [
            34.9998763,
            29.5315807
          ],
          [
            35.0001611,
            29.5314426
          ],
          [
            35.0003521,
            29.5313217
          ],
          [
            35.0004715,
            29.5312461
          ],
          [
            35.0006963,
            29.531058
          ],
          [
            35.00091,
            29.5308314
          ],
          [
            35.0009881,
            29.5307328
          ],
          [
            35.0010863,
            29.5305803
          ],
          [
            35.0007905,
            29.5304384
          ],
          [
            35.0003995,
            29.5300217
          ],
          [
            35.0000012,
            29.5296067
          ],
          [
            34.9999142,
            29.5296429
          ],
          [
            34.9998646,
            29.5296905
          ],
          [
            34.9992047,
            29.530082
          ],
          [
            34.9987826,
            29.5304414
          ]
        ]
      },
      "id": "osm-location-of-ayla",
      "type": "Feature",
      "properties": {
        "description": "Representative location based on OpenStreetMap",
        "location_precision": "precise",
        "title": "OSM location of Ayla",
        "link": "http://pleiades.stoa.org/places/746700/osm-location-of-ayla"
      }
    }
  ]
}