{
  "type": "FeatureCollection",
  "title": "Caerau Hillfort",
  "id": "747167617",
  "bbox": [
    -3.2489552,
    51.4673777,
    -3.2489552,
    51.4673777
  ],
  "description": "Caerau Hillfort is a multivallate Iron Age hillfort in the western suburbs of Cardiff, Wales. The fort covers an area of ca. 51,000 m².",
  "features": [
    {
      "type": "Feature",
      "geometry": {
        "type": "Point",
        "coordinates": [
          -3.2489552,
          51.4673777
        ]
      },
      "properties": {
        "description": "representative point"
      }
    },
    {
      "geometry": {
        "type": "Point",
        "coordinates": [
          -3.2489552,
          51.4673777
        ]
      },
      "id": "location-of-caerau-hillfort",
      "type": "Feature",
      "properties": {
        "description": "Representative location based on OpenStreetMap",
        "location_precision": "precise",
        "title": "OSM location of Caerau Hillfort",
        "link": "http://pleiades.stoa.org/places/747167617/location-of-caerau-hillfort"
      }
    }
  ]
}