{
  "type": "FeatureCollection",
  "title": "Saint-Romain-en-Gal",
  "id": "747563989",
  "bbox": [
    4.8707459,
    45.529313,
    4.8714368,
    45.5298999
  ],
  "description": "An urban quarter of Roman Vienne, now presented as an archaeological museum.",
  "connectsWith": [
    "167719"
  ],
  "features": [
    {
      "type": "Feature",
      "geometry": {
        "type": "Point",
        "coordinates": [
          4.87108692865,
          45.5296065454
        ]
      },
      "properties": {
        "description": "representative point"
      }
    },
    {
      "geometry": {
        "type": "LineString",
        "coordinates": [
          [
            4.8708139,
            45.5298999
          ],
          [
            4.8707614,
            45.5294753
          ],
          [
            4.8707459,
            45.5293498
          ],
          [
            4.8713528,
            45.529313
          ],
          [
            4.8714368,
            45.5298556
          ],
          [
            4.8708139,
            45.5298999
          ]
        ]
      },
      "id": "osm-location",
      "type": "Feature",
      "properties": {
        "description": "Location based on OpenStreetMap",
        "location_precision": "precise",
        "title": "OSM location of Musée Gallo-Romain de Saint-Romain-en-Gal",
        "link": "http://pleiades.stoa.org/places/747563989/osm-location"
      }
    }
  ]
}