{
  "type": "FeatureCollection",
  "title": "Unnamed settlement near Meğana, Algeria",
  "id": "757729509",
  "bbox": [
    4.6958724328,
    36.1194232363,
    4.6958724328,
    36.1194232363
  ],
  "description": "Remains of a quarried ancient settlement of Roman date, recorded by Gsell (AAA, whence BAtlas). Gsell places it approximately 2 kilometers southeast of the village of \"Medjana\". The location should lie within a kilometer of the BAtlas coordinates: a point west of the modern RN 106 highway between Meğana and Bordj Bou Arreridj in the Algerian wilaya of Bordj Bou Arreridj.",
  "names": [
    "Medjana"
  ],
  "features": [
    {
      "type": "Feature",
      "geometry": {
        "type": "Point",
        "coordinates": [
          4.6958724328,
          36.1194232363
        ]
      },
      "properties": {
        "description": "representative point"
      }
    },
    {
      "geometry": {
        "type": "Point",
        "coordinates": [
          4.695872432795534,
          36.119423236283346
        ]
      },
      "id": "batlas-point-location",
      "type": "Feature",
      "properties": {
        "description": "Coordinates extracted using QGIS from a raster image of Barrington Atlas Map 31 that was georegistered to OpenStreetMap using prominent, stable landscape features. Dates after BAltDir.",
        "location_precision": "precise",
        "title": "BAtlas Point Location",
        "link": "http://pleiades.stoa.org/places/757729509/batlas-point-location"
      }
    }
  ]
}