{
  "type": "FeatureCollection",
  "title": "Surrentium/Rhysadeiron? (promontory)",
  "id": "758467594",
  "bbox": [
    -9.8893,
    30.62926,
    -9.8893,
    30.62926
  ],
  "description": null,
  "names": [
    "Surrentium",
    "Rhysadeiron"
  ],
  "features": [
    {
      "type": "Feature",
      "geometry": {
        "type": "Point",
        "coordinates": [
          -9.8893,
          30.62926
        ]
      },
      "properties": {
        "description": "representative point"
      }
    },
    {
      "geometry": {
        "type": "Point",
        "coordinates": [
          -9.8893,
          30.62926
        ]
      },
      "id": "geonames-location-modern-cap-ghir",
      "type": "Feature",
      "properties": {
        "description": null,
        "location_precision": "precise",
        "title": "GeoNames location: modern Cap Ghir",
        "link": "http://pleiades.stoa.org/places/758467594/geonames-location-modern-cap-ghir"
      }
    }
  ]
}