{
  "type": "FeatureCollection",
  "title": "Stoa of Attalos",
  "id": "759679649",
  "bbox": [
    23.7240907,
    37.9746518,
    23.7243451,
    37.9756889
  ],
  "description": "The Stoa of Attalos, located on the eastern side of the ancient Athenian agora, is a long, rectangular, two-story building of limestone and marble, with an external and internal colonnade. It was originally constructed around 150 BCE and then reconstructed in the 1950s.",
  "connectsWith": [
    "579885",
    "807514119"
  ],
  "names": [
    "Stoa of Attalos",
    "stoa"
  ],
  "features": [
    {
      "type": "Feature",
      "geometry": {
        "type": "Point",
        "coordinates": [
          23.7242194343,
          37.9751415794
        ]
      },
      "properties": {
        "description": "representative point"
      }
    },
    {
      "geometry": {
        "type": "Point",
        "coordinates": [
          23.7242216811,
          37.9751127984
        ]
      },
      "id": "imagery-location-for-the-stoa-of-attalos",
      "type": "Feature",
      "properties": {
        "description": "Location of the Stoa of Attalos, as determined by satellite imagery and published plans.",
        "location_precision": "precise",
        "title": "Imagery location for the Stoa of Attalos",
        "link": "http://pleiades.stoa.org/places/759679649/imagery-location-for-the-stoa-of-attalos"
      }
    },
    {
      "geometry": {
        "type": "LineString",
        "coordinates": [
          [
            23.7241593,
            37.9756872
          ],
          [
            23.7240958,
            37.975686
          ],
          [
            23.7240964,
            37.9756676
          ],
          [
            23.7240964,
            37.9756658
          ],
          [
            23.7240936,
            37.9756657
          ],
          [
            23.7240907,
            37.9756657
          ],
          [
            23.7241216,
            37.9746534
          ],
          [
            23.7241245,
            37.9746535
          ],
          [
            23.7241274,
            37.9746535
          ],
          [
            23.7241274,
            37.9746518
          ],
          [
            23.7243451,
            37.9746559
          ],
          [
            23.7243141,
            37.9756717
          ],
          [
            23.7242499,
            37.9756705
          ],
          [
            23.7242493,
            37.9756889
          ],
          [
            23.7241593,
            37.9756872
          ]
        ]
      },
      "id": "osm-stoa-of-attalos",
      "type": "Feature",
      "properties": {
        "description": "Location based on OpenStreetMap",
        "location_precision": "precise",
        "title": "OSM: Stoa of Attalos",
        "link": "http://pleiades.stoa.org/places/759679649/osm-stoa-of-attalos"
      }
    }
  ]
}