{
  "type": "FeatureCollection",
  "title": "Olynthus, House A 11",
  "id": "764913388",
  "bbox": [
    23.3499242,
    40.2885794,
    23.3579721,
    40.3000133
  ],
  "description": "House A 11 describes the archaeological remains of an irregularly planned house located in ancient Olynthus. These Olynthian houses date after 432 BCE and are destroyed in 348 BCE.",
  "connectsWith": [
    "491678"
  ],
  "names": [
    "Olynthus"
  ],
  "features": [
    {
      "type": "Feature",
      "geometry": {
        "type": "Point",
        "coordinates": [
          23.3542416022,
          40.2938350043
        ]
      },
      "properties": {
        "description": "representative point"
      }
    }
  ]
}