{
  "type": "FeatureCollection",
  "title": "Monterfil II at Corseul ",
  "id": "76617563",
  "bbox": [
    -2.1670734,
    48.4810699,
    -2.1657388,
    48.481622
  ],
  "description": "Remains of the commercial quarter of the Gallo-Roman settlement.",
  "connectsWith": [
    "69507"
  ],
  "features": [
    {
      "type": "Feature",
      "geometry": {
        "type": "Point",
        "coordinates": [
          -2.16643093273,
          48.4813053526
        ]
      },
      "properties": {
        "description": "representative point"
      }
    },
    {
      "geometry": {
        "type": "LineString",
        "coordinates": [
          [
            -2.1657388,
            48.4811188
          ],
          [
            -2.1657436,
            48.4814253
          ],
          [
            -2.1657583,
            48.4814279
          ],
          [
            -2.166842,
            48.481622
          ],
          [
            -2.1669069,
            48.4814468
          ],
          [
            -2.1670336,
            48.4814658
          ],
          [
            -2.1670734,
            48.481308
          ],
          [
            -2.1669694,
            48.4812963
          ],
          [
            -2.166986,
            48.481159
          ],
          [
            -2.16699,
            48.481117
          ],
          [
            -2.167001,
            48.481116
          ],
          [
            -2.1669972,
            48.4810722
          ],
          [
            -2.1667095,
            48.4810699
          ],
          [
            -2.1664812,
            48.4810737
          ],
          [
            -2.1662101,
            48.4810822
          ],
          [
            -2.1659011,
            48.4811062
          ],
          [
            -2.1657388,
            48.4811188
          ]
        ]
      },
      "id": "osm-location-of-archaeological-site-of-monterfil",
      "type": "Feature",
      "properties": {
        "description": "Remains of the commercial quarter of the Gallo-Roman settlement. Location based on OpenStreetMap.",
        "location_precision": "precise",
        "title": "OSM location of archaeological site of Monterfil II",
        "link": "http://pleiades.stoa.org/places/76617563/osm-location-of-archaeological-site-of-monterfil"
      }
    }
  ]
}