{
  "type": "FeatureCollection",
  "title": "Temple of Romulus (Rome)",
  "id": "766385425",
  "bbox": [
    12.487057,
    41.8917419,
    12.4873316,
    41.8919762
  ],
  "description": "A temple along the Sacra Via dedicated to Valerius Romulus, son of Maxentius.",
  "connectsWith": [
    "423025",
    "434423626"
  ],
  "names": [
    "Temple of Romulus"
  ],
  "features": [
    {
      "type": "Feature",
      "geometry": {
        "type": "Point",
        "coordinates": [
          12.4871959022,
          41.891848247
        ]
      },
      "properties": {
        "description": "representative point"
      }
    },
    {
      "geometry": {
        "type": "MultiLineString",
        "coordinates": [
          [
            [
              12.4873077,
              41.8918407
            ],
            [
              12.4872511,
              41.8917419
            ],
            [
              12.4872346,
              41.8917471
            ],
            [
              12.4872425,
              41.8917608
            ],
            [
              12.487236,
              41.8917712
            ],
            [
              12.4872262,
              41.8917805
            ],
            [
              12.4872105,
              41.8917907
            ],
            [
              12.4871931,
              41.8917967
            ],
            [
              12.487169,
              41.8918044
            ],
            [
              12.4871472,
              41.8918114
            ]
          ],
          [
            [
              12.4871472,
              41.8918114
            ],
            [
              12.487131,
              41.8918147
            ],
            [
              12.4871127,
              41.8918155
            ],
            [
              12.4870955,
              41.8918149
            ],
            [
              12.4870797,
              41.8918111
            ],
            [
              12.4870731,
              41.8918007
            ]
          ],
          [
            [
              12.4870731,
              41.8918007
            ],
            [
              12.4870675,
              41.8918026
            ]
          ],
          [
            [
              12.4870675,
              41.8918026
            ],
            [
              12.487057,
              41.8918063
            ]
          ],
          [
            [
              12.487057,
              41.8918063
            ],
            [
              12.4870633,
              41.8918162
            ]
          ],
          [
            [
              12.4870633,
              41.8918162
            ],
            [
              12.4871189,
              41.8919035
            ]
          ],
          [
            [
              12.4871189,
              41.8919035
            ],
            [
              12.4871243,
              41.8919161
            ],
            [
              12.4871326,
              41.8919278
            ],
            [
              12.4871436,
              41.8919383
            ],
            [
              12.4871569,
              41.8919471
            ],
            [
              12.4871721,
              41.891954
            ],
            [
              12.4871887,
              41.8919589
            ],
            [
              12.4872079,
              41.8919621
            ]
          ],
          [
            [
              12.4872079,
              41.8919621
            ],
            [
              12.4872311,
              41.8919762
            ]
          ],
          [
            [
              12.4872311,
              41.8919762
            ],
            [
              12.4872376,
              41.8919699
            ]
          ],
          [
            [
              12.4872253,
              41.8919621
            ],
            [
              12.4872376,
              41.8919699
            ]
          ],
          [
            [
              12.4872253,
              41.8919621
            ],
            [
              12.4872486,
              41.8919592
            ]
          ],
          [
            [
              12.4872486,
              41.8919592
            ],
            [
              12.4873316,
              41.8918907
            ]
          ],
          [
            [
              12.4873316,
              41.8918907
            ],
            [
              12.4873077,
              41.8918407
            ]
          ],
          [
            [
              12.487117,
              41.8918696
            ],
            [
              12.4870884,
              41.8918274
            ],
            [
              12.4871008,
              41.8918289
            ],
            [
              12.4871149,
              41.8918294
            ],
            [
              12.487131,
              41.8918282
            ],
            [
              12.4871473,
              41.8918254
            ],
            [
              12.4871347,
              41.8918372
            ],
            [
              12.4871233,
              41.8918526
            ],
            [
              12.487117,
              41.8918696
            ]
          ],
          [
            [
              12.4872163,
              41.8918019
            ],
            [
              12.4872295,
              41.8917953
            ],
            [
              12.4872397,
              41.8917875
            ],
            [
              12.4872477,
              41.8917785
            ],
            [
              12.487252,
              41.8917709
            ],
            [
              12.4872757,
              41.8918135
            ],
            [
              12.4872543,
              41.8918057
            ],
            [
              12.4872376,
              41.8918024
            ],
            [
              12.4872163,
              41.8918019
            ]
          ]
        ]
      },
      "id": "osm-location-of-temple-of-romulus",
      "type": "Feature",
      "properties": {
        "description": "Representative location based on OpenStreetMap",
        "location_precision": "precise",
        "title": "OSM location of Temple of Romulus",
        "link": "http://pleiades.stoa.org/places/766385425/osm-location-of-temple-of-romulus"
      }
    }
  ]
}