{
  "type": "FeatureCollection",
  "title": "Bir Umm Disi",
  "id": "766344",
  "bbox": [
    33.244311,
    26.983707,
    33.244311,
    26.983707
  ],
  "description": "An ancient place, cited: BAtlas 78 C4 Bir Umm Disi",
  "features": [
    {
      "type": "Feature",
      "geometry": {
        "type": "Point",
        "coordinates": [
          33.244311,
          26.983707
        ]
      },
      "properties": {
        "description": "representative point"
      }
    },
    {
      "geometry": {
        "type": "Point",
        "coordinates": [
          33.244311,
          26.983707
        ]
      },
      "id": "darmc-location-22701",
      "type": "Feature",
      "properties": {
        "description": "Representative point location digitized from the Barrington Atlas of the Greek and Roman World by the Digital Atlas of Roman and Medieval Civilizations project at Harvard University.",
        "location_precision": "precise",
        "title": "DARMC location 22701",
        "link": "http://pleiades.stoa.org/places/766344/darmc-location-22701"
      }
    }
  ]
}