{
  "type": "FeatureCollection",
  "title": "House of the Bronze Herm",
  "id": "769646506",
  "bbox": [
    14.3467909,
    40.8059358,
    14.3470069,
    40.8061338
  ],
  "description": "The so-called House of the Bronze Herm is a domus in Herculaneum (III, 16) that takes its name from a bronze statue found at the site.",
  "connectsWith": [
    "432873"
  ],
  "names": [
    "Casa dell’Erma di Bronzo"
  ],
  "features": [
    {
      "type": "Feature",
      "geometry": {
        "type": "Point",
        "coordinates": [
          14.3468986219,
          40.806034912
        ]
      },
      "properties": {
        "description": "representative point"
      }
    },
    {
      "geometry": {
        "type": "LineString",
        "coordinates": [
          [
            14.3470069,
            40.8059763
          ],
          [
            14.3468792,
            40.8061338
          ],
          [
            14.3467909,
            40.8060953
          ],
          [
            14.3469163,
            40.8059358
          ],
          [
            14.3470069,
            40.8059763
          ]
        ]
      },
      "id": "osm-location-of-house-of-the-bronze-herm",
      "type": "Feature",
      "properties": {
        "description": "Representative location based on OpenStreetMap",
        "location_precision": "precise",
        "title": "OSM location of House of the Bronze Herm",
        "link": "http://pleiades.stoa.org/places/769646506/osm-location-of-house-of-the-bronze-herm"
      }
    }
  ]
}