{
  "type": "FeatureCollection",
  "title": "Sanctae Mariae in Palmis",
  "id": "770702013",
  "bbox": [
    12.5036031,
    41.8663964,
    12.5038289,
    41.8665689
  ],
  "description": "A Medieval Christian sanctuary along the Via Appia, perhaps best known as the Church of Domine Quo Vadis.",
  "connectsWith": [
    "356966898"
  ],
  "names": [
    "Church of Domine Quo Vadis",
    "Santa Maria in Palmis"
  ],
  "features": [
    {
      "type": "Feature",
      "geometry": {
        "type": "Point",
        "coordinates": [
          12.5037166434,
          41.8664818188
        ]
      },
      "properties": {
        "description": "representative point"
      }
    },
    {
      "geometry": {
        "type": "LineString",
        "coordinates": [
          [
            12.5036031,
            41.8664586
          ],
          [
            12.5036602,
            41.8664249
          ],
          [
            12.5037084,
            41.8663964
          ],
          [
            12.5038289,
            41.8665033
          ],
          [
            12.5037306,
            41.8665689
          ],
          [
            12.5037122,
            41.8665529
          ],
          [
            12.5036203,
            41.8664734
          ],
          [
            12.5036031,
            41.8664586
          ]
        ]
      },
      "id": "location-of-church",
      "type": "Feature",
      "properties": {
        "description": "Representative location based on OpenStreetMap.",
        "location_precision": "precise",
        "title": "OSM location of Chiesa del Domine Quo Vadis",
        "link": "http://pleiades.stoa.org/places/770702013/location-of-church"
      }
    }
  ]
}