{
  "type": "FeatureCollection",
  "title": "Hibites Nomos",
  "id": "776182",
  "bbox": [
    30.5552,
    25.4764,
    30.5552,
    25.4764
  ],
  "description": "An ancient place, cited: BAtlas 79 C4 Hibites Nomos",
  "names": [
    "Hibites Nomos"
  ],
  "features": [
    {
      "type": "Feature",
      "geometry": {
        "type": "Point",
        "coordinates": [
          30.5552,
          25.4764
        ]
      },
      "properties": {
        "description": "representative point"
      }
    }
  ]
}