{
  "type": "FeatureCollection",
  "title": "Exotero (Oasis)",
  "id": "776173",
  "bbox": [
    30.5991431,
    24.6947125,
    30.6021897,
    24.6975286
  ],
  "description": "An ancient place, cited: BAtlas 79 D2 Exotero (Oasis)",
  "names": [
    " Exotero Oasis",
    " Exotero",
    "El-Kharga"
  ],
  "features": [
    {
      "type": "Feature",
      "geometry": {
        "type": "Point",
        "coordinates": [
          30.6006662916,
          24.696120556
        ]
      },
      "properties": {
        "description": "representative point"
      }
    },
    {
      "geometry": {
        "type": "Polygon",
        "coordinates": [
          [
            [
              30.5,
              25.5
            ],
            [
              30.5,
              26.0
            ],
            [
              31.0,
              26.0
            ],
            [
              31.0,
              25.5
            ],
            [
              30.5,
              25.5
            ]
          ]
        ]
      },
      "id": "undetermined",
      "type": "Feature",
      "properties": {
        "description": null,
        "location_precision": "rough",
        "title": "Undetermined location",
        "link": "http://pleiades.stoa.org/places/776173/undetermined"
      }
    }
  ]
}