{
  "type": "FeatureCollection",
  "title": "Manawir el-Biyut",
  "id": "776196",
  "bbox": [
    30.676117952,
    24.574305383,
    30.6767881487,
    24.5746695339
  ],
  "description": "Remains of a ruined village with mud brick structures, qanat, and an associated necropolis of Roman date all located 3-5 km west of ancient Dush (Egypt).",
  "connectsWith": [
    "776210"
  ],
  "names": [
    "Pmounousire",
    "Manawir el-Biyut",
    "Ain Manawir"
  ],
  "features": [
    {
      "type": "Feature",
      "geometry": {
        "type": "Point",
        "coordinates": [
          30.6764522318,
          24.5744890697
        ]
      },
      "properties": {
        "description": "representative point"
      }
    }
  ]
}