{
  "type": "FeatureCollection",
  "title": "Oasis Magna/Thebaidos",
  "id": "776210",
  "bbox": [
    29.990903,
    24.588396,
    30.751754,
    25.8254631
  ],
  "description": "Kharga: one of the large oases of Egypt’s Western Desert.",
  "names": [
    "Oasis Magna",
    "Thebaidos",
    "El-Kharga"
  ],
  "features": [
    {
      "type": "Feature",
      "geometry": {
        "type": "Point",
        "coordinates": [
          30.5539448149,
          25.783732501
        ]
      },
      "properties": {
        "description": "representative point"
      }
    },
    {
      "geometry": {
        "type": "Polygon",
        "coordinates": [
          [
            [
              29.5,
              25.5
            ],
            [
              29.5,
              26.0
            ],
            [
              30.0,
              26.0
            ],
            [
              30.0,
              25.5
            ],
            [
              29.5,
              25.5
            ]
          ]
        ]
      },
      "id": "undetermined",
      "type": "Feature",
      "properties": {
        "description": null,
        "location_precision": "rough",
        "title": "Undetermined location",
        "link": "http://pleiades.stoa.org/places/776210/undetermined"
      }
    }
  ]
}