{
  "type": "FeatureCollection",
  "title": "Pizzone necropolis",
  "id": "776750186",
  "bbox": [
    14.6649422,
    40.7417607,
    14.6667028,
    40.7428399
  ],
  "description": "A Roman necropolis located at Nocera Superiore which was buried by the volcanic ejecta of the Vesuvian eruption of A.D. 79.",
  "connectsWith": [
    "432985"
  ],
  "features": [
    {
      "type": "Feature",
      "geometry": {
        "type": "Point",
        "coordinates": [
          14.6659175001,
          40.7423775183
        ]
      },
      "properties": {
        "description": "representative point"
      }
    },
    {
      "geometry": {
        "type": "LineString",
        "coordinates": [
          [
            14.6649786,
            40.742679
          ],
          [
            14.6649422,
            40.7426061
          ],
          [
            14.665596,
            40.7420293
          ],
          [
            14.6656174,
            40.7420104
          ],
          [
            14.6655496,
            40.7419632
          ],
          [
            14.6657591,
            40.7417607
          ],
          [
            14.6659354,
            40.7418522
          ],
          [
            14.6665768,
            40.7418443
          ],
          [
            14.6666386,
            40.7422764
          ],
          [
            14.6667028,
            40.7427933
          ],
          [
            14.6664797,
            40.7428265
          ],
          [
            14.6662058,
            40.7428399
          ],
          [
            14.665794,
            40.7428272
          ],
          [
            14.665421,
            40.7427854
          ],
          [
            14.6649786,
            40.742679
          ]
        ]
      },
      "id": "location-of-pizzone-necropolis",
      "type": "Feature",
      "properties": {
        "description": "Representative location based on OpenStreetMap.",
        "location_precision": "precise",
        "title": "OSM location of Necropoli Monumentale di Pizzone",
        "link": "http://pleiades.stoa.org/places/776750186/location-of-pizzone-necropolis"
      }
    }
  ]
}