{
  "type": "FeatureCollection",
  "title": "Graecostasis",
  "id": "780447855",
  "bbox": [
    12.4832952,
    41.8902165,
    12.4908629,
    41.8931509
  ],
  "description": "The Graecostasis was located at the margin of the comitium in the Forum Romanum. It was a tribunal where foreign ambassadors would wait.",
  "connectsWith": [
    "423025",
    "337325364",
    "502866838"
  ],
  "names": [
    "Graecostasis"
  ],
  "features": [
    {
      "type": "Feature",
      "geometry": {
        "type": "Point",
        "coordinates": [
          12.4869077538,
          41.891643636
        ]
      },
      "properties": {
        "description": "representative point"
      }
    }
  ]
}