{
  "type": "FeatureCollection",
  "title": "Great Church of Hippo Regius",
  "id": "781762826",
  "bbox": [
    7.7506089,
    36.8828922,
    7.751158,
    36.8832121
  ],
  "description": "The Great Church of Hippo Regius is located in the Christian quarter of Hippo. The church is associated with Saint Augustine, who was bishop in Hippo from 395 until he died in 430 CE.",
  "connectsWith": [
    "305090"
  ],
  "features": [
    {
      "type": "Feature",
      "geometry": {
        "type": "Point",
        "coordinates": [
          7.75088003759,
          36.8830643979
        ]
      },
      "properties": {
        "description": "representative point"
      }
    },
    {
      "geometry": {
        "type": "LineString",
        "coordinates": [
          [
            7.7507455,
            36.8832121
          ],
          [
            7.7507127,
            36.8831656
          ],
          [
            7.7506943,
            36.8831718
          ],
          [
            7.7506673,
            36.8831764
          ],
          [
            7.7506435,
            36.8831759
          ],
          [
            7.7506183,
            36.8831647
          ],
          [
            7.7506089,
            36.8831495
          ],
          [
            7.7506097,
            36.8831342
          ],
          [
            7.7506177,
            36.8831094
          ],
          [
            7.7506345,
            36.8830975
          ],
          [
            7.750648,
            36.8830895
          ],
          [
            7.7506659,
            36.883079
          ],
          [
            7.7506354,
            36.8830417
          ],
          [
            7.751075,
            36.8828922
          ],
          [
            7.751158,
            36.8830908
          ],
          [
            7.7507455,
            36.8832121
          ]
        ]
      },
      "id": "osm-location-of-great-church-of-hippo-regius",
      "type": "Feature",
      "properties": {
        "description": "Representative location based on OpenStreetMap",
        "location_precision": "precise",
        "title": "OSM location of Great Church of Hippo Regius",
        "link": "http://pleiades.stoa.org/places/781762826/osm-location-of-great-church-of-hippo-regius"
      }
    }
  ]
}