{
  "type": "FeatureCollection",
  "title": "Abbad",
  "id": "785958",
  "bbox": [
    33.082622,
    24.960424,
    33.0872595,
    25.0501951
  ],
  "description": "An ancient place, cited: BAtlas 80 C3 Abbad",
  "features": [
    {
      "type": "Feature",
      "geometry": {
        "type": "Point",
        "coordinates": [
          33.0848597819,
          25.0052428006
        ]
      },
      "properties": {
        "description": "representative point"
      }
    },
    {
      "geometry": {
        "type": "Point",
        "coordinates": [
          33.082622,
          24.960424
        ]
      },
      "id": "darmc-location-9762",
      "type": "Feature",
      "properties": {
        "description": "500K scale point location",
        "location_precision": "precise",
        "title": "DARMC location 9762",
        "link": "http://pleiades.stoa.org/places/785958/darmc-location-9762"
      }
    },
    {
      "geometry": {
        "type": "LineString",
        "coordinates": [
          [
            33.0869403,
            25.050183
          ],
          [
            33.086943,
            25.049923
          ],
          [
            33.0872595,
            25.0499472
          ],
          [
            33.0872541,
            25.0501951
          ],
          [
            33.0869403,
            25.050183
          ]
        ]
      },
      "id": "location-of-abbad",
      "type": "Feature",
      "properties": {
        "description": "Representative location based on OpenStreetMap.",
        "location_precision": "precise",
        "title": "OSM location of Abbad",
        "link": "http://pleiades.stoa.org/places/785958/location-of-abbad"
      }
    }
  ]
}