{
  "type": "FeatureCollection",
  "title": "Matula",
  "id": "786063",
  "bbox": [
    32.9621625,
    25.9295736,
    32.9626077,
    25.9301236
  ],
  "description": "An ancient place, cited: BAtlas 80 B2 Matula",
  "features": [
    {
      "type": "Feature",
      "geometry": {
        "type": "Point",
        "coordinates": [
          32.9623909555,
          25.9298524459
        ]
      },
      "properties": {
        "description": "representative point"
      }
    },
    {
      "geometry": {
        "type": "LineString",
        "coordinates": [
          [
            32.9622215,
            25.9301236
          ],
          [
            32.9621625,
            25.9296435
          ],
          [
            32.9621868,
            25.9296393
          ],
          [
            32.9623107,
            25.9296176
          ],
          [
            32.9625622,
            25.9295736
          ],
          [
            32.9626077,
            25.9300801
          ],
          [
            32.9622215,
            25.9301236
          ]
        ]
      },
      "id": "location-of-matula",
      "type": "Feature",
      "properties": {
        "description": "Representative location based on OpenStreetMap.",
        "location_precision": "precise",
        "title": "OSM location of Matula",
        "link": "http://pleiades.stoa.org/places/786063/location-of-matula"
      }
    }
  ]
}