{
  "type": "FeatureCollection",
  "title": "Touphion",
  "id": "786132",
  "bbox": [
    32.531244,
    25.5832,
    32.5332,
    25.583701
  ],
  "description": "Touphion is located on the east bank of the Nile River about 20 km south of Thebes. The ruins of a multi-period temple initially built by Sesostris I were found there.",
  "names": [
    "Touphion",
    "El-Tod",
    "Ṭūd",
    "Tôd",
    "Djerty"
  ],
  "features": [
    {
      "type": "Feature",
      "geometry": {
        "type": "Point",
        "coordinates": [
          32.532222,
          25.5834505
        ]
      },
      "properties": {
        "description": "representative point"
      }
    },
    {
      "geometry": {
        "type": "Point",
        "coordinates": [
          32.5332,
          25.5832
        ]
      },
      "id": "cigs-location-of-tud",
      "type": "Feature",
      "properties": {
        "description": null,
        "location_precision": "precise",
        "title": "CIGS location of Ṭūd",
        "link": "http://pleiades.stoa.org/places/786132/cigs-location-of-tud"
      }
    },
    {
      "geometry": {
        "type": "Point",
        "coordinates": [
          32.531244,
          25.583701
        ]
      },
      "id": "osm-location",
      "type": "Feature",
      "properties": {
        "description": "Location based on OpenStreetMap",
        "location_precision": "precise",
        "title": "OSM location of طود",
        "link": "http://pleiades.stoa.org/places/786132/osm-location"
      }
    }
  ]
}