{
  "type": "FeatureCollection",
  "title": "Umm Garahish",
  "id": "786136",
  "bbox": [
    33.989475,
    24.8209503,
    33.989475,
    24.8209503
  ],
  "description": "An ancient place, cited: BAtlas 80 D4 Umm Garahish",
  "features": [
    {
      "type": "Feature",
      "geometry": {
        "type": "Point",
        "coordinates": [
          33.989475,
          24.8209503
        ]
      },
      "properties": {
        "description": "representative point"
      }
    },
    {
      "geometry": {
        "type": "LineString",
        "coordinates": [
          [
            33.989475,
            24.8209503
          ],
          [
            33.9892953,
            24.8206825
          ],
          [
            33.9894321,
            24.8206265
          ],
          [
            33.9896145,
            24.8208772
          ],
          [
            33.989475,
            24.8209503
          ]
        ]
      },
      "id": "umm-garahish",
      "type": "Feature",
      "properties": {
        "description": "Representative location based on OpenStreetMap.",
        "location_precision": "precise",
        "title": "OSM location of Umm Garahish",
        "link": "http://pleiades.stoa.org/places/786136/umm-garahish"
      }
    }
  ]
}