{
  "type": "FeatureCollection",
  "title": "Abbotts Ann",
  "id": "79277",
  "bbox": [
    -1.531274,
    51.189851,
    -1.531274,
    51.189851
  ],
  "description": "An ancient place, cited: BAtlas 8 F3 Abbotts Ann",
  "names": [
    "Abbotts Ann"
  ],
  "features": [
    {
      "type": "Feature",
      "geometry": {
        "type": "Point",
        "coordinates": [
          -1.531274,
          51.189851
        ]
      },
      "properties": {
        "description": "representative point"
      }
    },
    {
      "geometry": {
        "type": "Point",
        "coordinates": [
          -1.531274,
          51.189851
        ]
      },
      "id": "darmc-location-20749",
      "type": "Feature",
      "properties": {
        "description": "1:1 million scale representative point location digitized from the Barrington Atlas of the Greek and Roman World by the Digital Atlas of Roman and Medieval Civilizations project at Harvard University.",
        "location_precision": "precise",
        "title": "DARMC location 20749",
        "link": "http://pleiades.stoa.org/places/79277/darmc-location-20749"
      }
    }
  ]
}