{
  "type": "FeatureCollection",
  "title": "Vila Nova de S. Pedro",
  "id": "792786062",
  "bbox": [
    -8.8413001,
    39.21903,
    -8.8394999,
    39.2204243
  ],
  "description": "A Chalcolithic archaeological site occupied ca. 2600 to 1300 BC.",
  "features": [
    {
      "type": "Feature",
      "geometry": {
        "type": "Point",
        "coordinates": [
          -8.840399988,
          39.219727163
        ]
      },
      "properties": {
        "description": "representative point"
      }
    },
    {
      "geometry": {
        "type": "LineString",
        "coordinates": [
          [
            -8.8403705,
            39.21903
          ],
          [
            -8.8402662,
            39.2190374
          ],
          [
            -8.8401637,
            39.2190541
          ],
          [
            -8.8400645,
            39.2190799
          ],
          [
            -8.8399698,
            39.2191144
          ],
          [
            -8.8398808,
            39.2191573
          ],
          [
            -8.8397989,
            39.2192078
          ],
          [
            -8.8397252,
            39.2192654
          ],
          [
            -8.8396605,
            39.2193292
          ],
          [
            -8.8396059,
            39.2193984
          ],
          [
            -8.839562,
            39.219472
          ],
          [
            -8.8395294,
            39.2195491
          ],
          [
            -8.8395086,
            39.2196286
          ],
          [
            -8.8394999,
            39.2197094
          ],
          [
            -8.8395033,
            39.2197905
          ],
          [
            -8.8395189,
            39.2198707
          ],
          [
            -8.8395464,
            39.219949
          ],
          [
            -8.8395854,
            39.2200243
          ],
          [
            -8.8396354,
            39.2200955
          ],
          [
            -8.8396958,
            39.2201618
          ],
          [
            -8.8397657,
            39.2202222
          ],
          [
            -8.8398442,
            39.2202759
          ],
          [
            -8.8399301,
            39.2203222
          ],
          [
            -8.8400225,
            39.2203604
          ],
          [
            -8.8401199,
            39.2203901
          ],
          [
            -8.8402212,
            39.2204108
          ],
          [
            -8.8403248,
            39.2204223
          ],
          [
            -8.8404295,
            39.2204243
          ],
          [
            -8.8405338,
            39.220417
          ],
          [
            -8.8406362,
            39.2204003
          ],
          [
            -8.8407355,
            39.2203745
          ],
          [
            -8.8408302,
            39.2203399
          ],
          [
            -8.8409191,
            39.2202971
          ],
          [
            -8.841001,
            39.2202465
          ],
          [
            -8.8410748,
            39.220189
          ],
          [
            -8.8411394,
            39.2201251
          ],
          [
            -8.8411941,
            39.2200559
          ],
          [
            -8.841238,
            39.2199823
          ],
          [
            -8.8412705,
            39.2199052
          ],
          [
            -8.8412913,
            39.2198257
          ],
          [
            -8.8413001,
            39.2197449
          ],
          [
            -8.8412966,
            39.2196638
          ],
          [
            -8.8412811,
            39.2195836
          ],
          [
            -8.8412536,
            39.2195053
          ],
          [
            -8.8412146,
            39.21943
          ],
          [
            -8.8411646,
            39.2193588
          ],
          [
            -8.8411042,
            39.2192925
          ],
          [
            -8.8410343,
            39.2192321
          ],
          [
            -8.8409558,
            39.2191784
          ],
          [
            -8.8408698,
            39.2191321
          ],
          [
            -8.8407775,
            39.2190939
          ],
          [
            -8.84068,
            39.2190642
          ],
          [
            -8.8405788,
            39.2190435
          ],
          [
            -8.8404751,
            39.2190321
          ],
          [
            -8.8403705,
            39.21903
          ]
        ]
      },
      "id": "osm-location-castro-de-vila-nova-de-sapso-pedro",
      "type": "Feature",
      "properties": {
        "description": "Representative location based on OpenStreetMap",
        "location_precision": "precise",
        "title": "OSM location: Castro de Vila Nova de São Pedro",
        "link": "http://pleiades.stoa.org/places/792786062/osm-location-castro-de-vila-nova-de-sapso-pedro"
      }
    }
  ]
}