{
  "type": "FeatureCollection",
  "title": "Braughing",
  "id": "79349",
  "bbox": [
    0.027061,
    51.90642,
    0.027061,
    51.90642
  ],
  "description": "A small Roman settlement near Ermine Street and Stane Street was established in the second half of the first century CE at Braughing, United Kingdom.",
  "features": [
    {
      "type": "Feature",
      "geometry": {
        "type": "Point",
        "coordinates": [
          0.027061,
          51.90642
        ]
      },
      "properties": {
        "description": "representative point"
      }
    },
    {
      "geometry": {
        "type": "Point",
        "coordinates": [
          0.027061,
          51.90642
        ]
      },
      "id": "darmc-location-20070",
      "type": "Feature",
      "properties": {
        "description": "1:1 million scale representative point location digitized from the Barrington Atlas of the Greek and Roman World by the Digital Atlas of Roman and Medieval Civilizations project at Harvard University.",
        "location_precision": "precise",
        "title": "DARMC location 20070",
        "link": "http://pleiades.stoa.org/places/79349/darmc-location-20070"
      }
    }
  ]
}