{
  "type": "FeatureCollection",
  "title": "Box",
  "id": "79341",
  "bbox": [
    -2.250673,
    51.416608,
    -2.250673,
    51.416608
  ],
  "description": "An ancient place, cited: BAtlas 8 E3 Box",
  "features": [
    {
      "type": "Feature",
      "geometry": {
        "type": "Point",
        "coordinates": [
          -2.250673,
          51.416608
        ]
      },
      "properties": {
        "description": "representative point"
      }
    },
    {
      "geometry": {
        "type": "Point",
        "coordinates": [
          -2.250673,
          51.416608
        ]
      },
      "id": "darmc-location-20790",
      "type": "Feature",
      "properties": {
        "description": "1:1 million scale representative point location digitized from the Barrington Atlas of the Greek and Roman World by the Digital Atlas of Roman and Medieval Civilizations project at Harvard University.",
        "location_precision": "precise",
        "title": "DARMC location 20790",
        "link": "http://pleiades.stoa.org/places/79341/darmc-location-20790"
      }
    }
  ]
}