{
  "type": "FeatureCollection",
  "title": "Burrium",
  "id": "79360",
  "bbox": [
    -2.902543,
    51.703886,
    -2.902543,
    51.703886
  ],
  "description": "Roman fort in present day Usk",
  "names": [
    "Burrio"
  ],
  "features": [
    {
      "type": "Feature",
      "geometry": {
        "type": "Point",
        "coordinates": [
          -2.902543,
          51.703886
        ]
      },
      "properties": {
        "description": "representative point"
      }
    },
    {
      "geometry": {
        "type": "Point",
        "coordinates": [
          -2.902543,
          51.703886
        ]
      },
      "id": "darmc-location-19072",
      "type": "Feature",
      "properties": {
        "description": "1:1 million scale representative point location digitized from the Barrington Atlas of the Greek and Roman World by the Digital Atlas of Roman and Medieval Civilizations project at Harvard University.",
        "location_precision": "precise",
        "title": "DARMC location 19072",
        "link": "http://pleiades.stoa.org/places/79360/darmc-location-19072"
      }
    }
  ]
}