{
  "type": "FeatureCollection",
  "title": "Gelligaer",
  "id": "79479",
  "bbox": [
    -3.253729,
    51.6656533,
    -3.253729,
    51.6656533
  ],
  "description": "The earliest Roman fort in present-day Gelligaer, Wales.",
  "names": [
    "Gelligaer Roman Fort I"
  ],
  "features": [
    {
      "type": "Feature",
      "geometry": {
        "type": "Point",
        "coordinates": [
          -3.253729,
          51.6656533
        ]
      },
      "properties": {
        "description": "representative point"
      }
    },
    {
      "geometry": {
        "type": "Point",
        "coordinates": [
          -3.253729,
          51.6656533
        ]
      },
      "id": "osm-location-of-gellygaer-older-auxilliary-fort",
      "type": "Feature",
      "properties": {
        "description": "Representative location based on OpenStreetMap.",
        "location_precision": "precise",
        "title": "OSM location of Gellygaer Older Auxilliary Fort",
        "link": "http://pleiades.stoa.org/places/79479/osm-location-of-gellygaer-older-auxilliary-fort"
      }
    }
  ]
}