{
  "type": "FeatureCollection",
  "title": "Keston",
  "id": "79544",
  "bbox": [
    0.027363,
    51.362152,
    0.027363,
    51.362152
  ],
  "description": "A Roman villa which emerged from a late Iron Age settlement located in the London Borough of Bromley, England.",
  "names": [
    "Keston"
  ],
  "features": [
    {
      "type": "Feature",
      "geometry": {
        "type": "Point",
        "coordinates": [
          0.027363,
          51.362152
        ]
      },
      "properties": {
        "description": "representative point"
      }
    },
    {
      "geometry": {
        "type": "Point",
        "coordinates": [
          0.027363,
          51.362152
        ]
      },
      "id": "darmc-location-20936",
      "type": "Feature",
      "properties": {
        "description": "1:1 million scale representative point location digitized from the Barrington Atlas of the Greek and Roman World by the Digital Atlas of Roman and Medieval Civilizations project at Harvard University.",
        "location_precision": "precise",
        "title": "DARMC location 20936",
        "link": "http://pleiades.stoa.org/places/79544/darmc-location-20936"
      }
    }
  ]
}