{
  "type": "FeatureCollection",
  "title": "Magor",
  "id": "79588",
  "bbox": [
    -5.3152425,
    50.2338417,
    -5.3152425,
    50.2338417
  ],
  "description": "An ancient place, cited: BAtlas 8 B4 Magor",
  "features": [
    {
      "type": "Feature",
      "geometry": {
        "type": "Point",
        "coordinates": [
          -5.3152425,
          50.2338417
        ]
      },
      "properties": {
        "description": "representative point"
      }
    },
    {
      "geometry": {
        "type": "Point",
        "coordinates": [
          -5.3152425,
          50.2338417
        ]
      },
      "id": "osm-location-of-site-of-roman-villa",
      "type": "Feature",
      "properties": {
        "description": "Represnetative location based on OpenStreetMap",
        "location_precision": "precise",
        "title": "OSM location of Site of Roman Villa",
        "link": "http://pleiades.stoa.org/places/79588/osm-location-of-site-of-roman-villa"
      }
    }
  ]
}