{
  "type": "FeatureCollection",
  "title": "New Weir",
  "id": "79610",
  "bbox": [
    -2.825572,
    52.072603,
    -2.825572,
    52.072603
  ],
  "description": "Roman archaeological site near Herford with various interpretations, such as a villa, public baths, a water shrine",
  "features": [
    {
      "type": "Feature",
      "geometry": {
        "type": "Point",
        "coordinates": [
          -2.825572,
          52.072603
        ]
      },
      "properties": {
        "description": "representative point"
      }
    },
    {
      "geometry": {
        "type": "Point",
        "coordinates": [
          -2.825572,
          52.072603
        ]
      },
      "id": "darmc-location-21009",
      "type": "Feature",
      "properties": {
        "description": "1:1 million scale representative point location digitized from the Barrington Atlas of the Greek and Roman World by the Digital Atlas of Roman and Medieval Civilizations project at Harvard University.",
        "location_precision": "precise",
        "title": "DARMC location 21009",
        "link": "http://pleiades.stoa.org/places/79610/darmc-location-21009"
      }
    }
  ]
}