{
  "type": "FeatureCollection",
  "title": "Scole",
  "id": "79675",
  "bbox": [
    1.156407,
    52.366276,
    1.156407,
    52.366276
  ],
  "description": "An ancient place, cited: BAtlas 8 I2 Scole",
  "features": [
    {
      "type": "Feature",
      "geometry": {
        "type": "Point",
        "coordinates": [
          1.156407,
          52.366276
        ]
      },
      "properties": {
        "description": "representative point"
      }
    },
    {
      "geometry": {
        "type": "Point",
        "coordinates": [
          1.156407,
          52.366276
        ]
      },
      "id": "darmc-location-3509",
      "type": "Feature",
      "properties": {
        "description": "1:1 million scale representative point location digitized from the Barrington Atlas of the Greek and Roman World by the Digital Atlas of Roman and Medieval Civilizations project at Harvard University.",
        "location_precision": "precise",
        "title": "DARMC location 3509",
        "link": "http://pleiades.stoa.org/places/79675/darmc-location-3509"
      }
    }
  ]
}