{
  "type": "FeatureCollection",
  "title": "Woodchester",
  "id": "79768",
  "bbox": [
    -2.2336715,
    51.7266,
    -2.2336,
    51.7266519
  ],
  "description": "An ancient place, cited: BAtlas 8 E3 Woodchester",
  "names": [
    "Woodchester Roman Villa"
  ],
  "features": [
    {
      "type": "Feature",
      "geometry": {
        "type": "Point",
        "coordinates": [
          -2.23363575,
          51.72662595
        ]
      },
      "properties": {
        "description": "representative point"
      }
    },
    {
      "geometry": {
        "type": "Point",
        "coordinates": [
          -2.2336,
          51.7266
        ]
      },
      "id": "dare-location",
      "type": "Feature",
      "properties": {
        "description": "Representative point location, site precision",
        "location_precision": "precise",
        "title": "DARE Location",
        "link": "http://pleiades.stoa.org/places/79768/dare-location"
      }
    },
    {
      "geometry": {
        "type": "Point",
        "coordinates": [
          -2.2336715,
          51.7266519
        ]
      },
      "id": "osm-location-of-woodchester-roman-villa-and",
      "type": "Feature",
      "properties": {
        "description": "Representative location based on OpenStreetMap",
        "location_precision": "precise",
        "title": "OSM location of Woodchester Roman Villa and Orpheus Mosaic",
        "link": "http://pleiades.stoa.org/places/79768/osm-location-of-woodchester-roman-villa-and"
      }
    }
  ]
}