{
  "type": "FeatureCollection",
  "title": "Nuraghe Goni",
  "id": "800924137",
  "bbox": [
    9.2772817,
    39.5860091,
    9.2773666,
    39.586075
  ],
  "description": "Nuraghe Goni is located atop a plateau overlooking Lake Mulargia.",
  "connectsWith": [
    "472014"
  ],
  "features": [
    {
      "type": "Feature",
      "geometry": {
        "type": "Point",
        "coordinates": [
          9.27732393809,
          39.5860420307
        ]
      },
      "properties": {
        "description": "representative point"
      }
    },
    {
      "geometry": {
        "type": "LineString",
        "coordinates": [
          [
            9.2773649,
            39.5860327
          ],
          [
            9.2773666,
            39.5860429
          ],
          [
            9.2773642,
            39.5860531
          ],
          [
            9.2773577,
            39.5860622
          ],
          [
            9.277348,
            39.5860693
          ],
          [
            9.2773358,
            39.5860737
          ],
          [
            9.2773225,
            39.586075
          ],
          [
            9.2773082,
            39.5860727
          ],
          [
            9.2772956,
            39.5860668
          ],
          [
            9.2772865,
            39.5860579
          ],
          [
            9.2772817,
            39.5860473
          ],
          [
            9.2772819,
            39.5860359
          ],
          [
            9.277287,
            39.5860253
          ],
          [
            9.2772965,
            39.5860167
          ],
          [
            9.2773092,
            39.5860111
          ],
          [
            9.2773236,
            39.5860091
          ],
          [
            9.2773381,
            39.5860109
          ],
          [
            9.2773499,
            39.5860158
          ],
          [
            9.2773592,
            39.5860233
          ],
          [
            9.2773649,
            39.5860327
          ]
        ]
      },
      "id": "osm-location",
      "type": "Feature",
      "properties": {
        "description": "Representative location based on OpenStreetMap.",
        "location_precision": "precise",
        "title": "OSM location of Nuraghe Goni",
        "link": "http://pleiades.stoa.org/places/800924137/osm-location"
      }
    }
  ]
}