{
  "type": "FeatureCollection",
  "title": "Bath F3",
  "id": "801400483",
  "bbox": [
    40.7250559,
    34.7433989,
    40.7350123,
    34.7523766
  ],
  "description": "Bath building originally occupying all of Block F3, located in the intramuros military sector of Dura-Europos. Excavations reveal that the bath likely had two phases of renovation (one perhaps after 165 CE, and another around c. 200 CE), before it was destroyed by fire. Dura-Europos' amphitheater was built over the remains of Bath F3, and thus the amphitheater's dedicatory inscription, dated to 216 CE, serves as a terminus ante quem for the bath building.",
  "connectsWith": [
    "893990",
    "181763748"
  ],
  "features": [
    {
      "type": "Feature",
      "geometry": {
        "type": "Point",
        "coordinates": [
          40.729179866,
          34.7491659692
        ]
      },
      "properties": {
        "description": "representative point"
      }
    }
  ]
}