{
  "type": "FeatureCollection",
  "title": "Astaboras (river)",
  "id": "805593",
  "bbox": [
    35.8480702,
    14.3453938,
    35.9314727,
    14.9254854
  ],
  "description": "Astaboras fl. (Atbarah River) flows over 800 km from near Lake Tana to the Nile in northern Sudan. The Tekezé river is a tributary of the Atbarah.",
  "connectsWith": [
    "727172"
  ],
  "names": [
    "Astaboras"
  ],
  "features": [
    {
      "type": "Feature",
      "geometry": {
        "type": "Point",
        "coordinates": [
          35.8938241366,
          14.6303533636
        ]
      },
      "properties": {
        "description": "representative point"
      }
    },
    {
      "geometry": {
        "type": "LineString",
        "coordinates": [
          [
            35.8499232,
            14.3453938
          ],
          [
            35.8488871,
            14.3491764
          ],
          [
            35.8481917,
            14.3524646
          ],
          [
            35.8480702,
            14.3558543
          ],
          [
            35.849242,
            14.358643
          ],
          [
            35.851713,
            14.361481
          ],
          [
            35.8560182,
            14.3649113
          ],
          [
            35.8620302,
            14.3686376
          ],
          [
            35.8662335,
            14.3715249
          ],
          [
            35.8681695,
            14.3738939
          ],
          [
            35.8710735,
            14.3815438
          ],
          [
            35.8755492,
            14.3909438
          ],
          [
            35.8782978,
            14.3951742
          ],
          [
            35.8812834,
            14.3993154
          ],
          [
            35.8840967,
            14.4030902
          ],
          [
            35.8851595,
            14.4050617
          ],
          [
            35.8852136,
            14.4071029
          ],
          [
            35.8850514,
            14.4090221
          ],
          [
            35.8844823,
            14.4109967
          ],
          [
            35.8831918,
            14.4179488
          ],
          [
            35.88139,
            14.420901
          ],
          [
            35.8832273,
            14.4267801
          ],
          [
            35.8865356,
            14.4347922
          ],
          [
            35.8885735,
            14.4415517
          ],
          [
            35.889083,
            14.4452521
          ],
          [
            35.888597,
            14.4514869
          ],
          [
            35.8892359,
            14.4547249
          ],
          [
            35.8902039,
            14.456649
          ],
          [
            35.8954516,
            14.4602011
          ],
          [
            35.8988652,
            14.4627418
          ],
          [
            35.8999126,
            14.4646693
          ],
          [
            35.9002154,
            14.4667872
          ],
          [
            35.8993976,
            14.4693234
          ],
          [
            35.8951745,
            14.4748751
          ],
          [
            35.8917864,
            14.4817568
          ],
          [
            35.8889842,
            14.4867144
          ],
          [
            35.886637,
            14.4899697
          ],
          [
            35.8855748,
            14.4911643
          ],
          [
            35.8848238,
            14.4920369
          ],
          [
            35.8837938,
            14.4928886
          ],
          [
            35.8794433,
            14.4959425
          ],
          [
            35.8771956,
            14.497833
          ],
          [
            35.8758974,
            14.498986
          ],
          [
            35.8752108,
            14.4997338
          ],
          [
            35.8747065,
            14.5004506
          ],
          [
            35.8743203,
            14.5014477
          ],
          [
            35.8735371,
            14.5037536
          ],
          [
            35.8727109,
            14.5064334
          ],
          [
            35.8723569,
            14.5086977
          ],
          [
            35.8721208,
            14.510827
          ],
          [
            35.8721423,
            14.5125512
          ],
          [
            35.8732366,
            14.5197697
          ],
          [
            35.8735478,
            14.5211199
          ],
          [
            35.8738375,
            14.5221792
          ],
          [
            35.8739018,
            14.5226985
          ],
          [
            35.873934,
            14.523249
          ],
          [
            35.8739662,
            14.5241007
          ],
          [
            35.8744705,
            14.5273826
          ],
          [
            35.8751356,
            14.5300933
          ],
          [
            35.8755112,
            14.5312772
          ],
          [
            35.8771849,
            14.5351822
          ],
          [
            35.8777535,
            14.5360546
          ],
          [
            35.8783972,
            14.5367816
          ],
          [
            35.8807576,
            14.5388586
          ],
          [
            35.8861756,
            14.5435008
          ],
          [
            35.8878922,
            14.5452455
          ],
          [
            35.8905315,
            14.5485271
          ],
          [
            35.8925915,
            14.5511233
          ],
          [
            35.898419,
            14.5589893
          ],
          [
            35.9000373,
            14.5616947
          ],
          [
            35.9012174,
            14.5641038
          ],
          [
            35.9024834,
            14.5667829
          ],
          [
            35.902977,
            14.5685066
          ],
          [
            35.9031486,
            14.5693581
          ],
          [
            35.9032988,
            14.5713933
          ],
          [
            35.9032988,
            14.5740931
          ],
          [
            35.902977,
            14.5766682
          ],
          [
            35.9023547,
            14.5788695
          ],
          [
            35.9013033,
            14.5816314
          ],
          [
            35.8998012,
            14.5835419
          ],
          [
            35.8983636,
            14.584954
          ],
          [
            35.8895445,
            14.5904986
          ],
          [
            35.8881068,
            14.5919106
          ],
          [
            35.8872056,
            14.5931358
          ],
          [
            35.8859825,
            14.5950877
          ],
          [
            35.8852958,
            14.5967905
          ],
          [
            35.8843088,
            14.6002167
          ],
          [
            35.8840728,
            14.6018779
          ],
          [
            35.8840942,
            14.6040374
          ],
          [
            35.8845234,
            14.6063837
          ],
          [
            35.8851027,
            14.6078787
          ],
          [
            35.8880424,
            14.6147931
          ],
          [
            35.8892441,
            14.6181775
          ],
          [
            35.8900165,
            14.621022
          ],
          [
            35.8906388,
            14.6238042
          ],
          [
            35.8909607,
            14.6262334
          ],
          [
            35.8908748,
            14.6284134
          ],
          [
            35.8905744,
            14.6314031
          ],
          [
            35.8899736,
            14.6341229
          ],
          [
            35.8828926,
            14.6509807
          ],
          [
            35.8811116,
            14.6555894
          ],
          [
            35.8793735,
            14.6613396
          ],
          [
            35.8782792,
            14.666384
          ],
          [
            35.8778929,
            14.670162
          ],
          [
            35.8783435,
            14.6731512
          ],
          [
            35.8791589,
            14.6758912
          ],
          [
            35.8802318,
            14.6784652
          ],
          [
            35.88221,
            14.6812932
          ],
          [
            35.8851456,
            14.6852319
          ],
          [
            35.8894157,
            14.6888436
          ],
          [
            35.8963077,
            14.694266
          ],
          [
            35.9018009,
            14.697919
          ],
          [
            35.9045005,
            14.6999272
          ],
          [
            35.9070754,
            14.7018782
          ],
          [
            35.9090495,
            14.7042027
          ],
          [
            35.9100191,
            14.7068229
          ],
          [
            35.9104872,
            14.7091216
          ],
          [
            35.9105301,
            14.7112178
          ],
          [
            35.9105301,
            14.7155139
          ],
          [
            35.9096114,
            14.7234468
          ],
          [
            35.9095001,
            14.7264302
          ],
          [
            35.9101867,
            14.7317221
          ],
          [
            35.9127187,
            14.7379477
          ],
          [
            35.9173965,
            14.7454182
          ],
          [
            35.9205722,
            14.7513944
          ],
          [
            35.9225893,
            14.7557519
          ],
          [
            35.9240054,
            14.7591134
          ],
          [
            35.9270095,
            14.7654212
          ],
          [
            35.9298419,
            14.7738037
          ],
          [
            35.9312152,
            14.7863353
          ],
          [
            35.9314727,
            14.7920614
          ],
          [
            35.9313869,
            14.7985342
          ],
          [
            35.9304427,
            14.8036792
          ],
          [
            35.9293269,
            14.8072473
          ],
          [
            35.9264087,
            14.8118527
          ],
          [
            35.9194135,
            14.8209801
          ],
          [
            35.9136629,
            14.8274521
          ],
          [
            35.9013891,
            14.8435482
          ],
          [
            35.8984279,
            14.8488579
          ],
          [
            35.8967113,
            14.8526743
          ],
          [
            35.8961749,
            14.8542713
          ],
          [
            35.8948445,
            14.8592075
          ],
          [
            35.8926772,
            14.8731237
          ],
          [
            35.8925056,
            14.8808384
          ],
          [
            35.8942222,
            14.8918707
          ],
          [
            35.8973979,
            14.9032343
          ],
          [
            35.9027194,
            14.9150949
          ],
          [
            35.9078113,
            14.9254854
          ]
        ]
      },
      "id": "location-of-Astaboras-fl",
      "type": "Feature",
      "properties": {
        "description": "Location based on OpenStreetMap",
        "location_precision": "precise",
        "title": "OSM location of Atbarah River",
        "link": "http://pleiades.stoa.org/places/805593/location-of-Astaboras-fl"
      }
    }
  ]
}