{
  "type": "FeatureCollection",
  "title": "Roman amphitheater",
  "id": "808098069",
  "bbox": [
    10.7911544,
    35.2119855,
    10.7911544,
    35.2119855
  ],
  "description": "The Roman amphitheater is located on the opposite bank of the wadi from Bararus.",
  "connectsWith": [
    "324673"
  ],
  "features": [
    {
      "type": "Feature",
      "geometry": {
        "type": "Point",
        "coordinates": [
          10.7911544,
          35.2119855
        ]
      },
      "properties": {
        "description": "representative point"
      }
    },
    {
      "geometry": {
        "type": "Point",
        "coordinates": [
          10.7911544,
          35.2119855
        ]
      },
      "id": "osm-location-of-roman-amphitheater",
      "type": "Feature",
      "properties": {
        "description": "Representative location based on a node derived from OpenStreetMap.",
        "location_precision": "precise",
        "title": "OSM location of Bararus Amphitheatre",
        "link": "http://pleiades.stoa.org/places/808098069/osm-location-of-roman-amphitheater"
      }
    }
  ]
}