{
  "type": "FeatureCollection",
  "title": "Peyrestortes",
  "id": "812093845",
  "bbox": [
    2.8512531,
    42.7543539,
    2.8512531,
    42.7543539
  ],
  "description": "A findspot of significant quantities of Samian ware pottery in the hinterland of Perpignan, France.",
  "connectsWith": [
    "246348"
  ],
  "names": [
    "Peyrestortes"
  ],
  "features": [
    {
      "type": "Feature",
      "geometry": {
        "type": "Point",
        "coordinates": [
          2.8512531,
          42.7543539
        ]
      },
      "properties": {
        "description": "representative point"
      }
    },
    {
      "geometry": {
        "type": "Point",
        "coordinates": [
          2.8512531,
          42.7543539
        ]
      },
      "id": "osm-location-of-peyrestortes",
      "type": "Feature",
      "properties": {
        "description": "Location based on OpenStreetMap",
        "location_precision": "precise",
        "title": "OSM location of Peyrestortes",
        "link": "http://pleiades.stoa.org/places/812093845/osm-location-of-peyrestortes"
      }
    }
  ]
}