{
  "type": "FeatureCollection",
  "title": "Audleystown Court Cairn",
  "id": "815733687",
  "bbox": [
    -5.5968913,
    54.3779515,
    -5.5968913,
    54.3779515
  ],
  "description": "A dual court grave near the south shore of Strangford Lough in County Down, Northern Ireland.",
  "connectsWith": [
    "20487"
  ],
  "names": [
    "Audleystown Court Cairn"
  ],
  "features": [
    {
      "type": "Feature",
      "geometry": {
        "type": "Point",
        "coordinates": [
          -5.5968913,
          54.3779515
        ]
      },
      "properties": {
        "description": "representative point"
      }
    },
    {
      "geometry": {
        "type": "LineString",
        "coordinates": [
          [
            -5.5968913,
            54.3779515
          ],
          [
            -5.5972011,
            54.3777702
          ],
          [
            -5.5970227,
            54.3776499
          ],
          [
            -5.5967518,
            54.3778788
          ],
          [
            -5.5968209,
            54.3779148
          ],
          [
            -5.5968913,
            54.3779515
          ]
        ]
      },
      "id": "osm-location",
      "type": "Feature",
      "properties": {
        "description": "Location based on OpenStreetMap",
        "location_precision": "precise",
        "title": "OSM location of Audleystown Court Cairn",
        "link": "http://pleiades.stoa.org/places/815733687/osm-location"
      }
    }
  ]
}