{
  "type": "FeatureCollection",
  "title": "Poggio La Croce",
  "id": "817583144",
  "bbox": [
    11.3590458,
    43.4806302,
    11.3614184,
    43.4817214
  ],
  "description": "A fortified Etruscan settlement.",
  "features": [
    {
      "type": "Feature",
      "geometry": {
        "type": "Point",
        "coordinates": [
          11.3602368575,
          43.4811575902
        ]
      },
      "properties": {
        "description": "representative point"
      }
    },
    {
      "geometry": {
        "type": "LineString",
        "coordinates": [
          [
            11.3605488,
            43.4816635
          ],
          [
            11.3607747,
            43.4817214
          ],
          [
            11.3609249,
            43.4817137
          ],
          [
            11.3610644,
            43.4816514
          ],
          [
            11.3613004,
            43.4815813
          ],
          [
            11.3613648,
            43.4815112
          ],
          [
            11.3614077,
            43.4814023
          ],
          [
            11.3614184,
            43.4813166
          ],
          [
            11.3613541,
            43.4811921
          ],
          [
            11.3612423,
            43.4810163
          ],
          [
            11.3611288,
            43.480943
          ],
          [
            11.3609249,
            43.480834
          ],
          [
            11.3605816,
            43.4807717
          ],
          [
            11.3602919,
            43.4807717
          ],
          [
            11.360013,
            43.4808184
          ],
          [
            11.3595383,
            43.4806302
          ],
          [
            11.359159,
            43.4807304
          ],
          [
            11.3590458,
            43.4811412
          ],
          [
            11.3595128,
            43.4813802
          ],
          [
            11.3602235,
            43.481543
          ],
          [
            11.3603792,
            43.4816167
          ],
          [
            11.3605488,
            43.4816635
          ]
        ]
      },
      "id": "osm-location-of-area-archeologica-etrusca-di",
      "type": "Feature",
      "properties": {
        "description": "Location based on OpenStreetMap",
        "location_precision": "precise",
        "title": "OSM location of Area archeologica etrusca di Poggio La Croce",
        "link": "http://pleiades.stoa.org/places/817583144/osm-location-of-area-archeologica-etrusca-di"
      }
    }
  ]
}