{
  "type": "FeatureCollection",
  "title": "Ballicaoluk",
  "id": "818747000",
  "bbox": [
    27.3754484,
    38.3366714,
    27.3754484,
    38.3366714
  ],
  "description": "Fortified site constructed on hill on the eastern slope of Nif Mountain in Turkey's İzmir province. The primary structures at the site were likely constructed during the Hellenistic period, though it contained remains indicating earlier use in the Geometric-Archaic periods and through the Byzantine period.",
  "connectsWith": [
    "550786"
  ],
  "features": [
    {
      "type": "Feature",
      "geometry": {
        "type": "Point",
        "coordinates": [
          27.3754484,
          38.3366714
        ]
      },
      "properties": {
        "description": "representative point"
      }
    },
    {
      "geometry": {
        "type": "Point",
        "coordinates": [
          27.3754484,
          38.3366714
        ]
      },
      "id": "ballicaoluk",
      "type": "Feature",
      "properties": {
        "description": "Point representing the visible remains of Ballicaoluk, derived from an OpenStreetMap Node after Peker 2015.",
        "location_precision": "precise",
        "title": "OSM location of Ballicaoluk",
        "link": "http://pleiades.stoa.org/places/818747000/ballicaoluk"
      }
    }
  ]
}