{
  "type": "FeatureCollection",
  "title": "Roman amphitheater at Casinum",
  "id": "821182910",
  "bbox": [
    13.8231835,
    41.4825436,
    13.8240081,
    41.4832327
  ],
  "description": "The Roman amphitheater at Casinum was built thanks to the patronage of Ummidia Quadratilla in the first century.",
  "connectsWith": [
    "432764"
  ],
  "features": [
    {
      "type": "Feature",
      "geometry": {
        "type": "Point",
        "coordinates": [
          13.823593042,
          41.4828837145
        ]
      },
      "properties": {
        "description": "representative point"
      }
    },
    {
      "geometry": {
        "type": "LineString",
        "coordinates": [
          [
            13.823597,
            41.4825511
          ],
          [
            13.8238101,
            41.4826431
          ],
          [
            13.8239128,
            41.4827126
          ],
          [
            13.8239755,
            41.4828271
          ],
          [
            13.8240081,
            41.4829604
          ],
          [
            13.8239805,
            41.4830712
          ],
          [
            13.8239003,
            41.4831876
          ],
          [
            13.8237925,
            41.4832252
          ],
          [
            13.8236747,
            41.4832327
          ],
          [
            13.823577,
            41.4832045
          ],
          [
            13.8234266,
            41.4831538
          ],
          [
            13.8232737,
            41.4830431
          ],
          [
            13.823196,
            41.4829154
          ],
          [
            13.8231835,
            41.482737
          ],
          [
            13.8232286,
            41.4826356
          ],
          [
            13.8233063,
            41.4825736
          ],
          [
            13.8234266,
            41.4825436
          ],
          [
            13.823597,
            41.4825511
          ]
        ]
      },
      "id": "loation-of-roman-amphitheater",
      "type": "Feature",
      "properties": {
        "description": "Representative location based on OpenStreetMap.",
        "location_precision": "precise",
        "title": "OSM location of Roman amphitheater",
        "link": "http://pleiades.stoa.org/places/821182910/loation-of-roman-amphitheater"
      }
    }
  ]
}