{
  "type": "FeatureCollection",
  "title": "Achaia (region)",
  "id": "825220",
  "bbox": [
    39.5774152097,
    43.8112327043,
    39.9289805733,
    43.8165864916
  ],
  "description": "A region and eponymous people of the northwest Caucasus, inland from the modern Russian Black Sea port city of Tuapse.",
  "names": [
    "Achaia",
    "Achaioi"
  ],
  "features": [
    {
      "type": "Feature",
      "geometry": {
        "type": "Point",
        "coordinates": [
          39.7531978915,
          43.813909598
        ]
      },
      "properties": {
        "description": "representative point"
      }
    },
    {
      "geometry": {
        "type": "MultiLineString",
        "coordinates": [
          [
            [
              39.57741520966287,
              43.8165864916022
            ],
            [
              39.928980573274295,
              43.81123270433908
            ]
          ]
        ]
      },
      "id": "batlas-map-label-location",
      "type": "Feature",
      "properties": {
        "description": "Centerline/arc of label location used on the Barrington Atlas map for this feature",
        "location_precision": "precise",
        "title": "BAtlas Map Label Location",
        "link": "http://pleiades.stoa.org/places/825220/batlas-map-label-location"
      }
    }
  ]
}