{
  "type": "FeatureCollection",
  "title": "Ta' Ħaġrat Temple Complex",
  "id": "826976465",
  "bbox": [
    14.3683875,
    35.9183554,
    14.3687659,
    35.9187146
  ],
  "description": "Ta' Ħaġrat is a megalithic temple complex on the island of Malta (ca. 3600-3000 B.C.), included in the UNESCO World Heritage List.",
  "connectsWith": [
    "462311"
  ],
  "names": [
    "Ta’ Ħaġrat Temples"
  ],
  "features": [
    {
      "type": "Feature",
      "geometry": {
        "type": "Point",
        "coordinates": [
          14.3685763749,
          35.9185374146
        ]
      },
      "properties": {
        "description": "representative point"
      }
    },
    {
      "geometry": {
        "type": "LineString",
        "coordinates": [
          [
            14.3683875,
            35.9187013
          ],
          [
            14.3684449,
            35.9183554
          ],
          [
            14.3685659,
            35.9183709
          ],
          [
            14.3687659,
            35.9183786
          ],
          [
            14.3687468,
            35.9185367
          ],
          [
            14.3687322,
            35.918658
          ],
          [
            14.3687053,
            35.9186966
          ],
          [
            14.3686927,
            35.9187146
          ],
          [
            14.3683875,
            35.9187013
          ]
        ]
      },
      "id": "osm-location-of-ta-a-aa-rat-temple",
      "type": "Feature",
      "properties": {
        "description": "Representative location based on OpenStreetMap.",
        "location_precision": "precise",
        "title": "OSM location of Ta' Ħaġrat temple",
        "link": "http://pleiades.stoa.org/places/826976465/osm-location-of-ta-a-aa-rat-temple"
      }
    }
  ]
}