{
  "type": "FeatureCollection",
  "title": "Roman amphitheater at Telesia",
  "id": "828428388",
  "bbox": [
    14.5000518,
    41.2234907,
    14.5009467,
    41.2243522
  ],
  "description": "A Late Republican Roman amphitheater at Telesia.",
  "connectsWith": [
    "433147"
  ],
  "features": [
    {
      "type": "Feature",
      "geometry": {
        "type": "Point",
        "coordinates": [
          14.5005051361,
          41.2239219988
        ]
      },
      "properties": {
        "description": "representative point"
      }
    },
    {
      "geometry": {
        "type": "LineString",
        "coordinates": [
          [
            14.5008776,
            41.2242289
          ],
          [
            14.5009249,
            41.2241444
          ],
          [
            14.5009425,
            41.2240663
          ],
          [
            14.5009467,
            41.2239657
          ],
          [
            14.5009356,
            41.2238695
          ],
          [
            14.5009087,
            41.2237846
          ],
          [
            14.5008641,
            41.2237054
          ],
          [
            14.500781,
            41.2236043
          ],
          [
            14.5006515,
            41.2235238
          ],
          [
            14.5005168,
            41.2234907
          ],
          [
            14.5004078,
            41.2234965
          ],
          [
            14.5002954,
            41.2235186
          ],
          [
            14.5001847,
            41.2235774
          ],
          [
            14.5000991,
            41.2236719
          ],
          [
            14.5000701,
            41.2237502
          ],
          [
            14.5000518,
            41.2238399
          ],
          [
            14.5000618,
            41.2239497
          ],
          [
            14.5000984,
            41.2240539
          ],
          [
            14.500156,
            41.2241446
          ],
          [
            14.5002272,
            41.2242306
          ],
          [
            14.5003229,
            41.2243006
          ],
          [
            14.500433,
            41.224339
          ],
          [
            14.5005233,
            41.2243522
          ],
          [
            14.5006174,
            41.2243427
          ],
          [
            14.5007162,
            41.224326
          ],
          [
            14.500808,
            41.2242862
          ],
          [
            14.5008776,
            41.2242289
          ]
        ]
      },
      "id": "osm-location-of-anfiteatro-di-telesia",
      "type": "Feature",
      "properties": {
        "description": "Representative location based on OpenStreetMap.",
        "location_precision": "precise",
        "title": "OSM location of Anfiteatro di Telesia",
        "link": "http://pleiades.stoa.org/places/828428388/osm-location-of-anfiteatro-di-telesia"
      }
    }
  ]
}