{
  "type": "FeatureCollection",
  "title": "Moridunum",
  "id": "83868",
  "bbox": [
    -2.9979605,
    50.7707794,
    -2.9951475,
    50.7725929
  ],
  "description": "Axminster Roman Fort probably dating to the second century AD",
  "connectsWith": [
    "83058"
  ],
  "names": [
    "Moridunum",
    "Axminster"
  ],
  "features": [
    {
      "type": "Feature",
      "geometry": {
        "type": "Point",
        "coordinates": [
          -2.9965670382,
          50.7717084827
        ]
      },
      "properties": {
        "description": "representative point"
      }
    },
    {
      "geometry": {
        "type": "LineString",
        "coordinates": [
          [
            -2.9971807,
            50.7725929
          ],
          [
            -2.9979605,
            50.7712023
          ],
          [
            -2.9960747,
            50.7707794
          ],
          [
            -2.9951475,
            50.7722202
          ],
          [
            -2.9971807,
            50.7725929
          ]
        ]
      },
      "id": "osm-location-of-moridunum",
      "type": "Feature",
      "properties": {
        "description": "Representative location based on OpenStreetMap.",
        "location_precision": "precise",
        "title": "OSM location of Moridunum",
        "link": "http://pleiades.stoa.org/places/83868/osm-location-of-moridunum"
      }
    }
  ]
}