{
  "type": "FeatureCollection",
  "title": "Pen Llystyn",
  "id": "842094503",
  "bbox": [
    -4.2642154,
    52.9804844,
    -4.2642154,
    52.9804844
  ],
  "description": "An earth and timber fort originally covering 1.8 ha located at the base of the Lleyn peninsula, between Segontium and Tomen-y-Mur, Pen Llystyn was subsequently destroyed by quarrying.",
  "features": [
    {
      "type": "Feature",
      "geometry": {
        "type": "Point",
        "coordinates": [
          -4.2642154,
          52.9804844
        ]
      },
      "properties": {
        "description": "representative point"
      }
    },
    {
      "geometry": {
        "type": "Point",
        "coordinates": [
          -4.2642154,
          52.9804844
        ]
      },
      "id": "osm-location",
      "type": "Feature",
      "properties": {
        "description": "Location based on OpenStreetMap",
        "location_precision": "precise",
        "title": "OSM location of Pen Llystyn Roman Fort",
        "link": "http://pleiades.stoa.org/places/842094503/osm-location"
      }
    }
  ]
}