{
  "type": "FeatureCollection",
  "title": "Krateia/Flaviopolis/*Agrippeia?",
  "id": "844991",
  "bbox": [
    32.13452,
    40.798795,
    32.195317,
    40.825409
  ],
  "description": "An ancient place, cited: BAtlas 86 C3 Krateia/Flaviopolis/*Agrippeia?",
  "connectsWith": [
    "981512",
    "847116"
  ],
  "names": [
    "Krateia",
    "Flaviopolis",
    "Agrippeia",
    "Kreteia",
    "Gerede",
    "Gerede"
  ],
  "features": [
    {
      "type": "Feature",
      "geometry": {
        "type": "Point",
        "coordinates": [
          32.1649185,
          40.812102
        ]
      },
      "properties": {
        "description": "representative point"
      }
    },
    {
      "geometry": {
        "type": "Point",
        "coordinates": [
          32.13452,
          40.825409
        ]
      },
      "id": "darmc-location-13307",
      "type": "Feature",
      "properties": {
        "description": "1:1 million scale representative point location digitized from the Barrington Atlas of the Greek and Roman World by the Digital Atlas of Roman and Medieval Civilizations project at Harvard University.",
        "location_precision": "precise",
        "title": "DARMC location 13307",
        "link": "http://pleiades.stoa.org/places/844991/darmc-location-13307"
      }
    },
    {
      "geometry": {
        "type": "Point",
        "coordinates": [
          32.195317,
          40.798795
        ]
      },
      "id": "darmc-location-12589",
      "type": "Feature",
      "properties": {
        "description": "TIB representative point location digitized from the Barrington Atlas of the Greek and Roman World by the Digital Atlas of Roman and Medieval Civilizations project at Harvard University.",
        "location_precision": "precise",
        "title": "DARMC location 12589",
        "link": "http://pleiades.stoa.org/places/844991/darmc-location-12589"
      }
    }
  ]
}