{
  "type": "FeatureCollection",
  "title": "Roman Theater of Cluviae",
  "id": "851457946",
  "bbox": [
    14.2614024,
    42.1327264,
    14.2614024,
    42.1327264
  ],
  "description": "Remains of a Roman theater were identified in the 20th century in the vicinity of modern Piano La Roma in the municipal territory of Casoli, Italy. Its construction is estimated to date to the end of the first century BCE.",
  "connectsWith": [
    "413097"
  ],
  "features": [
    {
      "type": "Feature",
      "geometry": {
        "type": "Point",
        "coordinates": [
          14.2614024,
          42.1327264
        ]
      },
      "properties": {
        "description": "representative point"
      }
    },
    {
      "geometry": {
        "type": "Point",
        "coordinates": [
          14.2614024,
          42.1327264
        ]
      },
      "id": "osm-location-modern-piano-la-roma",
      "type": "Feature",
      "properties": {
        "description": "Location based on OpenStreetMap",
        "location_precision": "precise",
        "title": "OSM Location: modern Piano La Roma ",
        "link": "http://pleiades.stoa.org/places/851457946/osm-location-modern-piano-la-roma"
      }
    }
  ]
}