{
  "type": "FeatureCollection",
  "title": "Hermonassa",
  "id": "854687",
  "bbox": [
    36.7133266,
    45.2186901,
    36.7149038,
    45.2193287
  ],
  "description": "An Ionian colony on the Gulf of Taman.",
  "names": [
    "Hermonassa",
    "Hermoneia",
    "Hermonassa"
  ],
  "features": [
    {
      "type": "Feature",
      "geometry": {
        "type": "Point",
        "coordinates": [
          36.714100722,
          45.2190564375
        ]
      },
      "properties": {
        "description": "representative point"
      }
    },
    {
      "geometry": {
        "type": "LineString",
        "coordinates": [
          [
            36.7133266,
            45.2191776
          ],
          [
            36.7133266,
            45.219
          ],
          [
            36.7136431,
            45.2189811
          ],
          [
            36.7136378,
            45.2186939
          ],
          [
            36.7141527,
            45.2186901
          ],
          [
            36.7141849,
            45.2190415
          ],
          [
            36.7148769,
            45.2190189
          ],
          [
            36.7149038,
            45.2193023
          ],
          [
            36.7147589,
            45.2193287
          ],
          [
            36.7133266,
            45.2191776
          ]
        ]
      },
      "id": "osm-location-of-hermonassa",
      "type": "Feature",
      "properties": {
        "description": "Representative location based on OpenStreetMap",
        "location_precision": "precise",
        "title": "OSM location of Hermonassa",
        "link": "http://pleiades.stoa.org/places/854687/osm-location-of-hermonassa"
      }
    }
  ]
}