{
  "type": "FeatureCollection",
  "title": "Starotitarovskaya 4",
  "id": "856336",
  "bbox": [
    37.12571,
    45.1939314,
    37.1954525,
    45.242251
  ],
  "description": "An archaeological site at Starotitarovskaya 4, Russia, is included as numbered feature 165 on the Barrington Atlas map 87 M2.",
  "features": [
    {
      "type": "Feature",
      "geometry": {
        "type": "Point",
        "coordinates": [
          37.1627298518,
          45.2194672417
        ]
      },
      "properties": {
        "description": "representative point"
      }
    },
    {
      "geometry": {
        "type": "LineString",
        "coordinates": [
          [
            37.12571,
            45.2227928
          ],
          [
            37.1479504,
            45.2309812
          ],
          [
            37.1695025,
            45.2382705
          ],
          [
            37.1881489,
            45.242251
          ],
          [
            37.1946387,
            45.242251
          ],
          [
            37.1954525,
            45.230773
          ],
          [
            37.1866724,
            45.2299221
          ],
          [
            37.1786979,
            45.2293548
          ],
          [
            37.1720121,
            45.2285889
          ],
          [
            37.1691525,
            45.2262062
          ],
          [
            37.164682,
            45.2232276
          ],
          [
            37.1619579,
            45.2215085
          ],
          [
            37.1659219,
            45.2168792
          ],
          [
            37.1689131,
            45.2164497
          ],
          [
            37.1705147,
            45.2157023
          ],
          [
            37.1729648,
            45.2157023
          ],
          [
            37.1749053,
            45.2163513
          ],
          [
            37.1757677,
            45.2163099
          ],
          [
            37.1771986,
            45.2159094
          ],
          [
            37.1793857,
            45.216318
          ],
          [
            37.1807186,
            45.2161661
          ],
          [
            37.1814697,
            45.216212
          ],
          [
            37.1813812,
            45.2142663
          ],
          [
            37.1810991,
            45.2141006
          ],
          [
            37.1816675,
            45.2106624
          ],
          [
            37.1816283,
            45.2048209
          ],
          [
            37.1711354,
            45.2047584
          ],
          [
            37.1688652,
            45.2011325
          ],
          [
            37.1689153,
            45.2001721
          ],
          [
            37.168014,
            45.1994539
          ],
          [
            37.1676975,
            45.1987433
          ],
          [
            37.1663938,
            45.1965103
          ],
          [
            37.1599147,
            45.196378
          ],
          [
            37.1598247,
            45.1939314
          ],
          [
            37.157569,
            45.1941557
          ],
          [
            37.1576724,
            45.1956007
          ],
          [
            37.1566651,
            45.1959181
          ],
          [
            37.1545971,
            45.1962056
          ],
          [
            37.1503964,
            45.1967
          ],
          [
            37.1446076,
            45.197778
          ],
          [
            37.1428944,
            45.1981185
          ],
          [
            37.1422081,
            45.1982429
          ],
          [
            37.1377873,
            45.199088
          ],
          [
            37.1371041,
            45.1992143
          ],
          [
            37.1361095,
            45.2019403
          ],
          [
            37.1383448,
            45.2022603
          ],
          [
            37.1373819,
            45.2046778
          ],
          [
            37.1330482,
            45.20454
          ],
          [
            37.1319821,
            45.2105128
          ],
          [
            37.1300908,
            45.2159093
          ],
          [
            37.1270217,
            45.2201203
          ],
          [
            37.12571,
            45.2227928
          ]
        ]
      },
      "id": "osm-location-of-starotitarovskaya",
      "type": "Feature",
      "properties": {
        "description": "Location based on OpenStreetMap",
        "location_precision": "precise",
        "title": "OSM location of Starotitarovskaya",
        "link": "http://pleiades.stoa.org/places/856336/osm-location-of-starotitarovskaya"
      }
    }
  ]
}