{
  "type": "FeatureCollection",
  "title": "Ameria (Pontos)",
  "id": "857022",
  "bbox": [
    36.976865,
    40.633506,
    36.976865,
    40.633506
  ],
  "description": "An ancient settlement, associated with the sanctuary of Men Pharnakou in Pontos. It was located near modern near Ardıçlı (formerly Agustu) in Turkey's Tokat province.",
  "connectsWith": [
    "857177"
  ],
  "names": [
    "Ameria",
    "Ardıçlı",
    "Agustu",
    "to hieron Menos Pharnakou"
  ],
  "features": [
    {
      "type": "Feature",
      "geometry": {
        "type": "Point",
        "coordinates": [
          36.976865,
          40.633506
        ]
      },
      "properties": {
        "description": "representative point"
      }
    },
    {
      "geometry": {
        "type": "Point",
        "coordinates": [
          36.976865,
          40.633506
        ]
      },
      "id": "darmc-location-16546",
      "type": "Feature",
      "properties": {
        "description": "1:1 million scale representative point location digitized from the Barrington Atlas of the Greek and Roman World by the Digital Atlas of Roman and Medieval Civilizations project at Harvard University.",
        "location_precision": "precise",
        "title": "DARMC location 16546",
        "link": "http://pleiades.stoa.org/places/857022/darmc-location-16546"
      }
    }
  ]
}