{
  "type": "FeatureCollection",
  "title": "Uffington White Horse",
  "id": "858265770",
  "bbox": [
    -1.5669733,
    51.5772696,
    -1.5664046,
    51.5781946
  ],
  "description": "The Uffington White Horse is stylized prehistoric hill figure dating to the later prehistoric period in England.",
  "features": [
    {
      "type": "Feature",
      "geometry": {
        "type": "Point",
        "coordinates": [
          -1.56661550737,
          51.57769666
        ]
      },
      "properties": {
        "description": "representative point"
      }
    },
    {
      "geometry": {
        "type": "LineString",
        "coordinates": [
          [
            -1.566563,
            51.5781943
          ],
          [
            -1.5665219,
            51.5781477
          ],
          [
            -1.5664783,
            51.578089
          ],
          [
            -1.5664436,
            51.5780397
          ],
          [
            -1.5664154,
            51.5779738
          ],
          [
            -1.5664233,
            51.5779406
          ],
          [
            -1.5664361,
            51.5779156
          ],
          [
            -1.5664864,
            51.5779186
          ],
          [
            -1.5665306,
            51.5779298
          ],
          [
            -1.5665549,
            51.5779388
          ],
          [
            -1.5665575,
            51.5779511
          ],
          [
            -1.5665501,
            51.5779798
          ],
          [
            -1.5665388,
            51.5779888
          ],
          [
            -1.5665281,
            51.5779955
          ],
          [
            -1.5665321,
            51.5780147
          ],
          [
            -1.5665844,
            51.5780843
          ],
          [
            -1.5665978,
            51.5780809
          ],
          [
            -1.5665925,
            51.5780557
          ],
          [
            -1.5665797,
            51.578022
          ],
          [
            -1.5665704,
            51.5779874
          ],
          [
            -1.5665724,
            51.5779732
          ],
          [
            -1.5665767,
            51.577958
          ],
          [
            -1.5665777,
            51.5779322
          ],
          [
            -1.566571,
            51.5779188
          ],
          [
            -1.5665603,
            51.5779105
          ],
          [
            -1.5665308,
            51.577903
          ],
          [
            -1.5665123,
            51.5779032
          ],
          [
            -1.5664972,
            51.5779055
          ],
          [
            -1.566477,
            51.5779081
          ],
          [
            -1.566449,
            51.5779063
          ],
          [
            -1.5664986,
            51.5778463
          ],
          [
            -1.5665348,
            51.577808
          ],
          [
            -1.566575,
            51.5777613
          ],
          [
            -1.5666275,
            51.5776983
          ],
          [
            -1.5666557,
            51.5776562
          ],
          [
            -1.5666604,
            51.577625
          ],
          [
            -1.566657,
            51.5776012
          ],
          [
            -1.5666711,
            51.5776025
          ],
          [
            -1.5666944,
            51.5775938
          ],
          [
            -1.5667172,
            51.5775779
          ],
          [
            -1.5667306,
            51.5775688
          ],
          [
            -1.5667748,
            51.5775563
          ],
          [
            -1.5667953,
            51.577548
          ],
          [
            -1.5668164,
            51.5775321
          ],
          [
            -1.5668593,
            51.5775104
          ],
          [
            -1.5669277,
            51.5774904
          ],
          [
            -1.5669478,
            51.5774904
          ],
          [
            -1.5669706,
            51.5774954
          ],
          [
            -1.5669733,
            51.5774863
          ],
          [
            -1.5669599,
            51.5774813
          ],
          [
            -1.5669452,
            51.5774829
          ],
          [
            -1.5669344,
            51.5774821
          ],
          [
            -1.5669251,
            51.5774779
          ],
          [
            -1.5668888,
            51.5774879
          ],
          [
            -1.5668365,
            51.5775079
          ],
          [
            -1.5667923,
            51.5775377
          ],
          [
            -1.5667675,
            51.5775475
          ],
          [
            -1.566736,
            51.5775563
          ],
          [
            -1.5667199,
            51.5775554
          ],
          [
            -1.5667132,
            51.5775513
          ],
          [
            -1.5667065,
            51.5775563
          ],
          [
            -1.5667145,
            51.5775654
          ],
          [
            -1.5666998,
            51.5775748
          ],
          [
            -1.566682,
            51.5775854
          ],
          [
            -1.5666732,
            51.5775879
          ],
          [
            -1.5666649,
            51.5775888
          ],
          [
            -1.5666582,
            51.5775874
          ],
          [
            -1.5666541,
            51.5775846
          ],
          [
            -1.5666434,
            51.5775704
          ],
          [
            -1.5666018,
            51.5774988
          ],
          [
            -1.5665965,
            51.5774438
          ],
          [
            -1.5666035,
            51.577411
          ],
          [
            -1.5666179,
            51.5773846
          ],
          [
            -1.5666354,
            51.5773612
          ],
          [
            -1.5666716,
            51.5773487
          ],
          [
            -1.566691,
            51.5773452
          ],
          [
            -1.5666984,
            51.5773379
          ],
          [
            -1.5667383,
            51.5773386
          ],
          [
            -1.5667628,
            51.5773359
          ],
          [
            -1.5667775,
            51.5773312
          ],
          [
            -1.566789,
            51.577324
          ],
          [
            -1.5668057,
            51.5773405
          ],
          [
            -1.5668155,
            51.5773407
          ],
          [
            -1.5668175,
            51.5773369
          ],
          [
            -1.5668054,
            51.5773259
          ],
          [
            -1.5668205,
            51.5773309
          ],
          [
            -1.5668292,
            51.5773309
          ],
          [
            -1.5668289,
            51.5773255
          ],
          [
            -1.5668165,
            51.5773207
          ],
          [
            -1.566798,
            51.5773161
          ],
          [
            -1.5667947,
            51.5773002
          ],
          [
            -1.5667876,
            51.5772907
          ],
          [
            -1.5667799,
            51.5772859
          ],
          [
            -1.5667709,
            51.5772817
          ],
          [
            -1.5667434,
            51.5772825
          ],
          [
            -1.5667189,
            51.5772873
          ],
          [
            -1.5667041,
            51.577288
          ],
          [
            -1.5666967,
            51.5772706
          ],
          [
            -1.5666888,
            51.5772696
          ],
          [
            -1.5666921,
            51.5773032
          ],
          [
            -1.5666927,
            51.5773255
          ],
          [
            -1.5666894,
            51.577333
          ],
          [
            -1.5666709,
            51.577338
          ],
          [
            -1.5666579,
            51.5773369
          ],
          [
            -1.5666502,
            51.5773309
          ],
          [
            -1.5666273,
            51.5773112
          ],
          [
            -1.5666243,
            51.577315
          ],
          [
            -1.566626,
            51.5773262
          ],
          [
            -1.5666238,
            51.5773468
          ],
          [
            -1.5666131,
            51.5773647
          ],
          [
            -1.5665877,
            51.5774081
          ],
          [
            -1.566579,
            51.5774538
          ],
          [
            -1.5665831,
            51.5774888
          ],
          [
            -1.5666075,
            51.5775602
          ],
          [
            -1.56663,
            51.5776021
          ],
          [
            -1.5665791,
            51.5776563
          ],
          [
            -1.5665328,
            51.5777201
          ],
          [
            -1.5665033,
            51.5777701
          ],
          [
            -1.5664436,
            51.5778646
          ],
          [
            -1.56642,
            51.5779011
          ],
          [
            -1.5664046,
            51.5779352
          ],
          [
            -1.5664047,
            51.5779638
          ],
          [
            -1.5664221,
            51.5780313
          ],
          [
            -1.5664716,
            51.5780977
          ],
          [
            -1.5665139,
            51.5781507
          ],
          [
            -1.5665531,
            51.5781946
          ],
          [
            -1.566563,
            51.5781943
          ]
        ]
      },
      "id": "location-of-uffington-white-horse",
      "type": "Feature",
      "properties": {
        "description": "Representative location based on OpenStreetMap.",
        "location_precision": "precise",
        "title": "OSM location of Uffington White Horse",
        "link": "http://pleiades.stoa.org/places/858265770/location-of-uffington-white-horse"
      }
    }
  ]
}