{
  "type": "FeatureCollection",
  "title": "Unnamed fortification near Djaafra, Algeria",
  "id": "86063778",
  "bbox": [
    4.68045604897,
    36.2998769236,
    4.68045604897,
    36.2998769236
  ],
  "description": "Remains of an ancient fortification of Roman date, recorded by Gsell (AAA, whence BAtlas). The location should lie within 2 km of the BAtlas coordinates: a point along the modern CW 43 road to the east of Djaafra and just past the intersection with the road linking Ouchanene Kebira and Tiâroussine (Bordj Bou Arreridj willaya, Algeria).",
  "features": [
    {
      "type": "Feature",
      "geometry": {
        "type": "Point",
        "coordinates": [
          4.68045604897,
          36.2998769236
        ]
      },
      "properties": {
        "description": "representative point"
      }
    },
    {
      "geometry": {
        "type": "Point",
        "coordinates": [
          4.680456048966874,
          36.29987692362404
        ]
      },
      "id": "batlas-point-location",
      "type": "Feature",
      "properties": {
        "description": "Coordinates extracted using QGIS from a raster image of Barrington Atlas Map 31 that was georegistered to OpenStreetMap using prominent, stable landscape features. Dates after BAltDir.",
        "location_precision": "precise",
        "title": "BAtlas Point Location",
        "link": "http://pleiades.stoa.org/places/86063778/batlas-point-location"
      }
    }
  ]
}