{
  "type": "FeatureCollection",
  "title": "Batrache",
  "id": "860790",
  "description": "Ancient settlement on the Thessyris river attested by Ptolemy; unlocated.",
  "names": [
    "Batrache"
  ],
  "features": [
    {
      "type": "Feature",
      "geometry": null,
      "properties": {
        "description": "representative point"
      }
    },
    {
      "geometry": null,
      "id": "batlas-location",
      "type": "Feature",
      "properties": {
        "description": "Location is attested by BAtlas, but otherwise undetermined",
        "location_precision": "unlocated",
        "title": "Barrington Atlas location",
        "link": "http://pleiades.stoa.org/places/860790/batlas-location"
      }
    }
  ]
}