{
  "type": "FeatureCollection",
  "title": "Armaouira",
  "id": "863745",
  "bbox": [
    44.0286219,
    40.0791859,
    44.0380847,
    40.0852958
  ],
  "description": "Armaouira (Urartian Argishtikhinili) was a fortified center of ancient Urartu. The site is located close to Armavir, Armenia.",
  "connectsWith": [
    "214160492"
  ],
  "names": [
    "Armaouira",
    "Argishtikhinili"
  ],
  "features": [
    {
      "type": "Feature",
      "geometry": {
        "type": "Point",
        "coordinates": [
          44.0336149985,
          40.0816175538
        ]
      },
      "properties": {
        "description": "representative point"
      }
    },
    {
      "geometry": {
        "type": "Point",
        "coordinates": [
          44.034029,
          40.080649
        ]
      },
      "id": "dare-location",
      "type": "Feature",
      "properties": {
        "description": "Representative point location, site precision",
        "location_precision": "precise",
        "title": "DARE Location",
        "link": "http://pleiades.stoa.org/places/863745/dare-location"
      }
    },
    {
      "geometry": {
        "type": "LineString",
        "coordinates": [
          [
            44.036221,
            40.0848941
          ],
          [
            44.0380847,
            40.0818762
          ],
          [
            44.0375305,
            40.0807021
          ],
          [
            44.0372383,
            40.080011
          ],
          [
            44.0344905,
            40.0791859
          ],
          [
            44.0319487,
            40.0794829
          ],
          [
            44.0302741,
            40.0800006
          ],
          [
            44.0300072,
            40.0810475
          ],
          [
            44.0286219,
            40.0837196
          ],
          [
            44.0294852,
            40.0848739
          ],
          [
            44.0313829,
            40.0852958
          ],
          [
            44.0332936,
            40.084057
          ],
          [
            44.03463,
            40.0844088
          ],
          [
            44.0353255,
            40.0841078
          ],
          [
            44.0359926,
            40.0847823
          ],
          [
            44.036221,
            40.0848941
          ]
        ]
      },
      "id": "location-of-argishtikhinili",
      "type": "Feature",
      "properties": {
        "description": "Representative location based on OpenStreetMap",
        "location_precision": "precise",
        "title": "OSM location of Argishtikhinili",
        "link": "http://pleiades.stoa.org/places/863745/location-of-argishtikhinili"
      }
    },
    {
      "geometry": {
        "type": "Point",
        "coordinates": [
          44.03344856,
          40.08189879
        ]
      },
      "id": "gigs-location-of-armavir",
      "type": "Feature",
      "properties": {
        "description": null,
        "location_precision": "precise",
        "title": "GIGS location of Armavir",
        "link": "http://pleiades.stoa.org/places/863745/gigs-location-of-armavir"
      }
    }
  ]
}