{
  "type": "FeatureCollection",
  "title": "Caucasus (mountain range)",
  "id": "863766",
  "bbox": [
    40.35732,
    40.2273558,
    50.3708068,
    44.388239
  ],
  "description": "The Caucasus Mountains, located between the Black Sea and the Caspian Sea.",
  "connectsWith": [
    "562111623"
  ],
  "names": [
    "Kaukásion óros",
    "Caucasus M.",
    "Caucasi"
  ],
  "features": [
    {
      "type": "Feature",
      "geometry": {
        "type": "Point",
        "coordinates": [
          44.7941380396,
          42.389803561
        ]
      },
      "properties": {
        "description": "representative point"
      }
    },
    {
      "geometry": {
        "type": "Polygon",
        "coordinates": [
          [
            [
              43.0,
              42.0
            ],
            [
              43.0,
              43.0
            ],
            [
              44.0,
              43.0
            ],
            [
              44.0,
              42.0
            ],
            [
              43.0,
              42.0
            ]
          ]
        ]
      },
      "id": "batlas-location",
      "type": "Feature",
      "properties": {
        "description": null,
        "location_precision": "rough",
        "title": "Barrington Atlas location",
        "link": "http://pleiades.stoa.org/places/863766/batlas-location"
      }
    }
  ]
}