{
  "type": "FeatureCollection",
  "title": "Vani",
  "id": "863918",
  "bbox": [
    42.499599,
    42.082897,
    42.503378,
    42.084655
  ],
  "description": "Vani (7th -1st centuries BCE) is an ancient city located in the Colchis Lowlands on the western bank of the Sulori River.",
  "names": [
    "Vani"
  ],
  "features": [
    {
      "type": "Feature",
      "geometry": {
        "type": "Point",
        "coordinates": [
          42.5014885,
          42.083776
        ]
      },
      "properties": {
        "description": "representative point"
      }
    },
    {
      "geometry": {
        "type": "Point",
        "coordinates": [
          42.503378,
          42.084655
        ]
      },
      "id": "vani-area",
      "type": "Feature",
      "properties": {
        "description": null,
        "location_precision": "precise",
        "title": "Vani area",
        "link": "http://pleiades.stoa.org/places/863918/vani-area"
      }
    },
    {
      "geometry": {
        "type": "Point",
        "coordinates": [
          42.499599,
          42.082897
        ]
      },
      "id": "darmc-location-22134",
      "type": "Feature",
      "properties": {
        "description": "Representative point location digitized from the Barrington Atlas of the Greek and Roman World by the Digital Atlas of Roman and Medieval Civilizations project at Harvard University.",
        "location_precision": "precise",
        "title": "DARMC location 22134",
        "link": "http://pleiades.stoa.org/places/863918/darmc-location-22134"
      }
    }
  ]
}