{
  "type": "FeatureCollection",
  "title": "Mamison Pass",
  "id": "864483",
  "bbox": [
    43.7940163,
    42.7055848,
    43.7940163,
    42.7055848
  ],
  "description": "A high mountain pass in the central Greater Caucasus mountains.",
  "features": [
    {
      "type": "Feature",
      "geometry": {
        "type": "Point",
        "coordinates": [
          43.7940163,
          42.7055848
        ]
      },
      "properties": {
        "description": "representative point"
      }
    },
    {
      "geometry": {
        "type": "Point",
        "coordinates": [
          43.7940163,
          42.7055848
        ]
      },
      "id": "osm-location-of-mamison-pass",
      "type": "Feature",
      "properties": {
        "description": "Location based on OpenStreetMap",
        "location_precision": "precise",
        "title": "OSM location of Mamison Pass",
        "link": "http://pleiades.stoa.org/places/864483/osm-location-of-mamison-pass"
      }
    }
  ]
}