{
  "type": "FeatureCollection",
  "title": "Surami Pass",
  "id": "864481",
  "bbox": [
    43.4997266,
    42.0268613,
    43.4997266,
    42.0268613
  ],
  "description": "A mountain pass of the Likhi Range of Georgia (altitude of 949 metres (3,114 ft)).",
  "names": [
    "Surami Pass"
  ],
  "features": [
    {
      "type": "Feature",
      "geometry": {
        "type": "Point",
        "coordinates": [
          43.4997266,
          42.0268613
        ]
      },
      "properties": {
        "description": "representative point"
      }
    },
    {
      "geometry": {
        "type": "Point",
        "coordinates": [
          43.4997266,
          42.0268613
        ]
      },
      "id": "osm-location",
      "type": "Feature",
      "properties": {
        "description": "Location based on a node derived from OpenStreetMap",
        "location_precision": "precise",
        "title": "OSM location of Surami Pass",
        "link": "http://pleiades.stoa.org/places/864481/osm-location"
      }
    }
  ]
}