{
  "type": "FeatureCollection",
  "title": "Arch of Constantine",
  "id": "874299107",
  "bbox": [
    12.4905081,
    41.8897062,
    12.4908255,
    41.8898183
  ],
  "description": "The Arch of Constantine at Rome, a triumphal arch dedicated in A.D. 315.",
  "connectsWith": [
    "423025"
  ],
  "names": [
    "Arcus Constantini",
    "Arch of Constantine"
  ],
  "features": [
    {
      "type": "Feature",
      "geometry": {
        "type": "Point",
        "coordinates": [
          12.4906667631,
          41.8897622321
        ]
      },
      "properties": {
        "description": "representative point"
      }
    },
    {
      "geometry": {
        "type": "LineString",
        "coordinates": [
          [
            12.4905269,
            41.8898183
          ],
          [
            12.4908255,
            41.889767
          ],
          [
            12.4908066,
            41.8897062
          ],
          [
            12.4905081,
            41.8897574
          ],
          [
            12.4905269,
            41.8898183
          ]
        ]
      },
      "id": "osm-location-of-arch-of-constantine",
      "type": "Feature",
      "properties": {
        "description": "Representative location based on OpenStreetMap",
        "location_precision": "precise",
        "title": "OSM location of Arch of Constantine",
        "link": "http://pleiades.stoa.org/places/874299107/osm-location-of-arch-of-constantine"
      }
    }
  ]
}