{
  "type": "FeatureCollection",
  "title": "(Ris)Kepha(s)",
  "id": "874664",
  "bbox": [
    41.4136,
    37.712987,
    41.4149449,
    37.7137
  ],
  "description": "An ancient place, cited: BAtlas 89 D3 (Ris)Kepha(s)",
  "names": [
    "Riskepha",
    "Kephas",
    "Riskephas",
    "Kepha",
    "Hasankeyf",
    "Ḥıṣnıkeyf"
  ],
  "features": [
    {
      "type": "Feature",
      "geometry": {
        "type": "Point",
        "coordinates": [
          41.41427245,
          37.7133435
        ]
      },
      "properties": {
        "description": "representative point"
      }
    },
    {
      "geometry": {
        "type": "Point",
        "coordinates": [
          41.4149449,
          37.712987
        ]
      },
      "id": "eski-hasankeyf",
      "type": "Feature",
      "properties": {
        "description": "Location based on OpenStreetMap",
        "location_precision": "precise",
        "title": "OSM location of Eski Hasankeyf",
        "link": "http://pleiades.stoa.org/places/874664/eski-hasankeyf"
      }
    },
    {
      "geometry": {
        "type": "Point",
        "coordinates": [
          41.4136,
          37.7137
        ]
      },
      "id": "cigs-location-of-hasankeyf",
      "type": "Feature",
      "properties": {
        "description": null,
        "location_precision": "precise",
        "title": "CIGS location of Hasankeyf",
        "link": "http://pleiades.stoa.org/places/874664/cigs-location-of-hasankeyf"
      }
    }
  ]
}