{
  "type": "FeatureCollection",
  "title": "Tel Afar/Ad Pontem?",
  "id": "874720",
  "bbox": [
    42.4434793,
    36.3740434,
    42.4434793,
    36.3740434
  ],
  "description": "An ancient place, cited: BAtlas 89 E4 Tel Afar/Ad Pontem?",
  "names": [
    "Ad Pontem",
    "Tel Afar/Ad Pontem?",
    "Tal Afar",
    "Talʿafar",
    "Tell Aʿfer"
  ],
  "features": [
    {
      "type": "Feature",
      "geometry": {
        "type": "Point",
        "coordinates": [
          42.4434793,
          36.3740434
        ]
      },
      "properties": {
        "description": "representative point"
      }
    },
    {
      "geometry": {
        "type": "Point",
        "coordinates": [
          42.4434793,
          36.3740434
        ]
      },
      "id": "osm-location-of-tal-afar",
      "type": "Feature",
      "properties": {
        "description": "Location based on OpenStreetMap",
        "location_precision": "precise",
        "title": "OSM location of Tal Afar",
        "link": "http://pleiades.stoa.org/places/874720/osm-location-of-tal-afar"
      }
    }
  ]
}