{
  "type": "FeatureCollection",
  "title": "Tell Arbid",
  "id": "874730",
  "bbox": [
    41.0165984,
    36.8691845,
    41.0237653,
    36.8764627
  ],
  "description": "Tell Arbid is an archaeological site located in Syria's Al-Hasakah Governorate in the basin of the Khabur River. The site is active from the third millennium BCE onward.",
  "names": [
    "Tell ‘Arbīd"
  ],
  "features": [
    {
      "type": "Feature",
      "geometry": {
        "type": "Point",
        "coordinates": [
          41.021176445,
          36.873081565
        ]
      },
      "properties": {
        "description": "representative point"
      }
    },
    {
      "geometry": {
        "type": "LineString",
        "coordinates": [
          [
            41.0209972,
            36.8691845
          ],
          [
            41.022349,
            36.8695965
          ],
          [
            41.0235507,
            36.8700085
          ],
          [
            41.0237223,
            36.8715706
          ],
          [
            41.0237653,
            36.8732872
          ],
          [
            41.0225422,
            36.8742484
          ],
          [
            41.0204608,
            36.8759134
          ],
          [
            41.0195595,
            36.8764627
          ],
          [
            41.0181433,
            36.8764627
          ],
          [
            41.0171134,
            36.8755873
          ],
          [
            41.0165984,
            36.8746432
          ],
          [
            41.0179502,
            36.873785
          ],
          [
            41.0193353,
            36.8737232
          ],
          [
            41.0192591,
            36.8717079
          ],
          [
            41.0198288,
            36.8703072
          ],
          [
            41.0202677,
            36.8697338
          ],
          [
            41.0209972,
            36.8691845
          ]
        ]
      },
      "id": "osm-way-200057513",
      "type": "Feature",
      "properties": {
        "description": "Polygon representing the location of the Tell 'Arbid site, derived from an OpenStreetMap Way.",
        "location_precision": "precise",
        "title": "OSM location of `Arbid Tahtani",
        "link": "http://pleiades.stoa.org/places/874730/osm-way-200057513"
      }
    },
    {
      "geometry": {
        "type": "Point",
        "coordinates": [
          41.0218702,
          36.8730868
        ]
      },
      "id": "osm-location-tell-arbid",
      "type": "Feature",
      "properties": {
        "description": "Representative location based on OpenStreetMap",
        "location_precision": "precise",
        "title": "OSM location: Tell Arbid",
        "link": "http://pleiades.stoa.org/places/874730/osm-location-tell-arbid"
      }
    }
  ]
}