{
  "type": "FeatureCollection",
  "title": "Tell Zanatri",
  "id": "874757",
  "bbox": [
    41.313543,
    36.591335,
    41.313543,
    36.591335
  ],
  "description": "An ancient place, cited: BAtlas 89 D4 Tell Zanatri",
  "features": [
    {
      "type": "Feature",
      "geometry": {
        "type": "Point",
        "coordinates": [
          41.313543,
          36.591335
        ]
      },
      "properties": {
        "description": "representative point"
      }
    },
    {
      "geometry": {
        "type": "Point",
        "coordinates": [
          41.313543,
          36.591335
        ]
      },
      "id": "darmc-location-22566",
      "type": "Feature",
      "properties": {
        "description": "Representative point location digitized from the Barrington Atlas of the Greek and Roman World by the Digital Atlas of Roman and Medieval Civilizations project at Harvard University.",
        "location_precision": "precise",
        "title": "DARMC location 22566",
        "link": "http://pleiades.stoa.org/places/874757/darmc-location-22566"
      }
    }
  ]
}