{
  "type": "FeatureCollection",
  "title": "Thannuris",
  "id": "874762",
  "bbox": [
    40.8648961,
    36.4186571,
    40.8677285,
    36.4235608
  ],
  "description": "An ancient place, cited: BAtlas 89 C4 Thannuris",
  "names": [
    "Thannuris",
    "Thannourios",
    "Thannourios",
    "Tunainīr as-Suflā",
    "Tall Tunainir",
    "Tunainīr",
    "Tunainīr al-ʿUlyā",
    "Tunainīr aş-Ṣulfā"
  ],
  "features": [
    {
      "type": "Feature",
      "geometry": {
        "type": "Point",
        "coordinates": [
          40.8664150543,
          36.4210255156
        ]
      },
      "properties": {
        "description": "representative point"
      }
    },
    {
      "geometry": {
        "type": "LineString",
        "coordinates": [
          [
            40.8656257,
            36.4206083
          ],
          [
            40.8653038,
            36.4208845
          ],
          [
            40.8652394,
            36.4215234
          ],
          [
            40.8655399,
            36.4223522
          ],
          [
            40.8663767,
            36.4231292
          ],
          [
            40.866999,
            36.4235608
          ],
          [
            40.8674925,
            36.4233709
          ],
          [
            40.8675998,
            36.4231637
          ],
          [
            40.8677071,
            36.4230428
          ],
          [
            40.8677285,
            36.4224903
          ],
          [
            40.8674496,
            36.4222659
          ],
          [
            40.8674496,
            36.4218342
          ],
          [
            40.8676212,
            36.4217479
          ],
          [
            40.8673638,
            36.4214025
          ],
          [
            40.867471,
            36.4212126
          ],
          [
            40.8674067,
            36.4210227
          ],
          [
            40.8672994,
            36.42085
          ],
          [
            40.8673208,
            36.4206083
          ],
          [
            40.8673208,
            36.4204356
          ],
          [
            40.8673208,
            36.4202284
          ],
          [
            40.8672136,
            36.4197622
          ],
          [
            40.8671063,
            36.4193823
          ],
          [
            40.8669346,
            36.4190025
          ],
          [
            40.8666342,
            36.4186571
          ],
          [
            40.8661621,
            36.4186571
          ],
          [
            40.8658188,
            36.4189507
          ],
          [
            40.8655399,
            36.4191061
          ],
          [
            40.8651751,
            36.4190715
          ],
          [
            40.8648961,
            36.4192097
          ],
          [
            40.8650678,
            36.4197104
          ],
          [
            40.8654969,
            36.4201594
          ],
          [
            40.8656257,
            36.4206083
          ]
        ]
      },
      "id": "osm-location",
      "type": "Feature",
      "properties": {
        "description": "Representative location based on OpenStreetMap",
        "location_precision": "precise",
        "title": "OSM location of Tell Tnenir (Thannuris)",
        "link": "http://pleiades.stoa.org/places/874762/osm-location"
      }
    }
  ]
}