{
  "type": "FeatureCollection",
  "title": "Road from Barbare east to Ad fl. Tigrim",
  "id": "875812",
  "bbox": [
    39.29477,
    37.066666,
    42.1913218,
    37.3259189
  ],
  "description": "A reconstructed road stretch from a station named Barbare (possibly modern Mohammed Khan in Turkey's Şanlıurfa Province) through Nisibis (modern Nusaybin at the Turkish/Syrian border) to a road station named Ad fl(umen) Tigrim (modern Cizre in Turkey's Şırnak Province).",
  "features": [
    {
      "type": "Feature",
      "geometry": {
        "type": "Point",
        "coordinates": [
          41.1125185708,
          37.1827520771
        ]
      },
      "properties": {
        "description": "representative point"
      }
    }
  ]
}