{
  "type": "FeatureCollection",
  "title": "Bimisdeon",
  "id": "876596",
  "description": "One of several forts in the vicinity of Theodosiopolis whose construction Procopius attributes to the emperor Justinian. Its precise location has not been determined.",
  "names": [
    "Bimisdeon"
  ],
  "features": [
    {
      "type": "Feature",
      "geometry": null,
      "properties": {
        "description": "representative point"
      }
    },
    {
      "geometry": null,
      "id": "batlas-location",
      "type": "Feature",
      "properties": {
        "description": null,
        "location_precision": "unlocated",
        "title": "Barrington Atlas location",
        "link": "http://pleiades.stoa.org/places/876596/batlas-location"
      }
    }
  ]
}