{
  "type": "FeatureCollection",
  "title": "Karaftu",
  "id": "884168",
  "bbox": [
    46.849999,
    36.266666,
    46.849999,
    36.266666
  ],
  "description": "At Karaftu is a series of rock-cut chambers with a Greek inscription, dating to the fourth or third century BCE. The site is located in Kordestān Province, Iran.",
  "names": [
    "Karaftu",
    "Karafto Caves"
  ],
  "features": [
    {
      "type": "Feature",
      "geometry": {
        "type": "Point",
        "coordinates": [
          46.849999,
          36.266666
        ]
      },
      "properties": {
        "description": "representative point"
      }
    },
    {
      "geometry": {
        "type": "Point",
        "coordinates": [
          46.849999,
          36.266666
        ]
      },
      "id": "darmc-location-22073",
      "type": "Feature",
      "properties": {
        "description": "Representative point location digitized from the Barrington Atlas of the Greek and Roman World by the Digital Atlas of Roman and Medieval Civilizations project at Harvard University.",
        "location_precision": "precise",
        "title": "DARMC location 22073",
        "link": "http://pleiades.stoa.org/places/884168/darmc-location-22073"
      }
    }
  ]
}