{
  "type": "FeatureCollection",
  "title": "Masseria Muro",
  "id": "887641829",
  "bbox": [
    17.7415858,
    40.5376243,
    17.7420782,
    40.5382195
  ],
  "description": "Masseria Muro (comune di Mesagne, province of Brindisi, south Italy) is the findspot of a hoard of ancient coins. In 1976, a deposit of coins originating from a number of Greek cities of south Italy was discovered. The coins range in date from the Archaic to the Hellenistic periods.",
  "names": [
    "Masseria Muro",
    "Mesagne"
  ],
  "features": [
    {
      "type": "Feature",
      "geometry": {
        "type": "Point",
        "coordinates": [
          17.7418048862,
          40.5379137076
        ]
      },
      "properties": {
        "description": "representative point"
      }
    },
    {
      "geometry": {
        "type": "LineString",
        "coordinates": [
          [
            17.741589,
            40.5381649
          ],
          [
            17.7415858,
            40.5376243
          ],
          [
            17.7418191,
            40.5376467
          ],
          [
            17.7418159,
            40.5377223
          ],
          [
            17.7420782,
            40.5377336
          ],
          [
            17.7420361,
            40.5379299
          ],
          [
            17.7419827,
            40.5382195
          ],
          [
            17.741589,
            40.5381649
          ]
        ]
      },
      "id": "osm-location-of-masseria-muro",
      "type": "Feature",
      "properties": {
        "description": "Location based on OpenStreetMap",
        "location_precision": "precise",
        "title": "OSM location of Masseria Muro",
        "link": "http://pleiades.stoa.org/places/887641829/osm-location-of-masseria-muro"
      }
    }
  ]
}