{
  "type": "FeatureCollection",
  "title": "Bahçecik",
  "id": "88845163",
  "bbox": [
    40.4475827,
    37.8919521,
    40.4475827,
    37.8919521
  ],
  "description": "Bahçecik is a village located in Sur, Diyarbakır Province, Turkey. Sarduri built a tower temple and the fortress “Sarduriḫinili” here in the eighth century BCE.",
  "connectsWith": [
    "214160492"
  ],
  "names": [
    "Bahçecık"
  ],
  "features": [
    {
      "type": "Feature",
      "geometry": {
        "type": "Point",
        "coordinates": [
          40.4475827,
          37.8919521
        ]
      },
      "properties": {
        "description": "representative point"
      }
    },
    {
      "geometry": {
        "type": "Point",
        "coordinates": [
          40.4475827,
          37.8919521
        ]
      },
      "id": "bahcecik",
      "type": "Feature",
      "properties": {
        "description": "Location based on OpenStreetMap",
        "location_precision": "precise",
        "title": "OSM location of Bahçecik",
        "link": "http://pleiades.stoa.org/places/88845163/bahcecik"
      }
    }
  ]
}