{
  "type": "FeatureCollection",
  "title": "Tarentum",
  "id": "890225769",
  "description": "Located at the northwestern margin of the Campus Martius, the Tarentum was a sacred precinct that enclosed an altar of Dis and Proserpina that was subterranean.",
  "connectsWith": [
    "423025",
    "422863"
  ],
  "names": [
    "Tarentum"
  ],
  "features": [
    {
      "type": "Feature",
      "geometry": null,
      "properties": {
        "description": "representative point"
      }
    }
  ]
}