{
  "type": "FeatureCollection",
  "title": "Alauna",
  "id": "89096",
  "bbox": [
    -3.8772804,
    56.2662985,
    -3.8734449,
    56.2690876
  ],
  "description": "Remains of a Roman fort and several marching camps which included a signal tower near Ardoch, Scotland",
  "names": [
    "Ardoch",
    "Alauna",
    "Litana"
  ],
  "features": [
    {
      "type": "Feature",
      "geometry": {
        "type": "Point",
        "coordinates": [
          -3.87551637675,
          56.267777921
        ]
      },
      "properties": {
        "description": "representative point"
      }
    },
    {
      "geometry": {
        "type": "LineString",
        "coordinates": [
          [
            -3.8764677,
            56.2662985
          ],
          [
            -3.8744426,
            56.266475
          ],
          [
            -3.8734449,
            56.2683578
          ],
          [
            -3.8742656,
            56.2689744
          ],
          [
            -3.8769693,
            56.2690876
          ],
          [
            -3.8772503,
            56.2673762
          ],
          [
            -3.8772804,
            56.267193
          ],
          [
            -3.8769908,
            56.2665793
          ],
          [
            -3.8764677,
            56.2662985
          ]
        ]
      },
      "id": "location-of-ardoch",
      "type": "Feature",
      "properties": {
        "description": "Representative location based on OpenStreetMap.",
        "location_precision": "precise",
        "title": "OSM location of Ardoch Roman fort",
        "link": "http://pleiades.stoa.org/places/89096/location-of-ardoch"
      }
    }
  ]
}