{
  "type": "FeatureCollection",
  "title": "Cadder",
  "id": "89130",
  "bbox": [
    -4.213507,
    55.921359,
    -4.213507,
    55.921359
  ],
  "description": "A fort on the Antonine Wall at Cadder.",
  "connectsWith": [
    "91357"
  ],
  "features": [
    {
      "type": "Feature",
      "geometry": {
        "type": "Point",
        "coordinates": [
          -4.213507,
          55.921359
        ]
      },
      "properties": {
        "description": "representative point"
      }
    },
    {
      "geometry": {
        "type": "Point",
        "coordinates": [
          -4.213507,
          55.921359
        ]
      },
      "id": "darmc-location-19074",
      "type": "Feature",
      "properties": {
        "description": "1:1 million scale representative point location digitized from the Barrington Atlas of the Greek and Roman World by the Digital Atlas of Roman and Medieval Civilizations project at Harvard University.",
        "location_precision": "precise",
        "title": "DARMC location 19074",
        "link": "http://pleiades.stoa.org/places/89130/darmc-location-19074"
      }
    }
  ]
}