{
  "type": "FeatureCollection",
  "title": "Carpow",
  "id": "89136",
  "bbox": [
    -3.284413,
    56.344876,
    -3.280435,
    56.346758
  ],
  "description": "Multi-period site consisting of two Roman temporary camps and a later legionary fortress. The first camp is thought to be from the Flavian period, while the fortress is of Severan date. Cited: BAtlas 9 D4 Carpow",
  "features": [
    {
      "type": "Feature",
      "geometry": {
        "type": "Point",
        "coordinates": [
          -3.282424,
          56.345817
        ]
      },
      "properties": {
        "description": "representative point"
      }
    },
    {
      "geometry": {
        "type": "Point",
        "coordinates": [
          -3.280435,
          56.344876
        ]
      },
      "id": "imagery-location-centerpoint-of-camp-i-approx",
      "type": "Feature",
      "properties": {
        "description": "Centerpoint of Camp I as recorded by aerial observation and excavation.",
        "location_precision": "precise",
        "title": "Imagery Location: Centerpoint of Camp I (approx)",
        "link": "http://pleiades.stoa.org/places/89136/imagery-location-centerpoint-of-camp-i-approx"
      }
    },
    {
      "geometry": {
        "type": "Point",
        "coordinates": [
          -3.284413,
          56.346758
        ]
      },
      "id": "imagery-location-centerpoint-of-fortress-approx",
      "type": "Feature",
      "properties": {
        "description": "Centerpoint of legionary fortress as recorded by aerial observation and excavation.",
        "location_precision": "precise",
        "title": "Imagery Location: Centerpoint of fortress (approx)",
        "link": "http://pleiades.stoa.org/places/89136/imagery-location-centerpoint-of-fortress-approx"
      }
    }
  ]
}