{
  "type": "FeatureCollection",
  "title": "Colani(c)a?",
  "id": "89148",
  "bbox": [
    -3.826826,
    56.00724,
    -3.823092,
    56.009117
  ],
  "description": "Probably to be associated with a complex of Roman forts at modern day Camelon, just to the north of the Antonine Wall.",
  "connectsWith": [
    "91357"
  ],
  "names": [
    "Colanica",
    "Colania"
  ],
  "features": [
    {
      "type": "Feature",
      "geometry": {
        "type": "Point",
        "coordinates": [
          -3.82496148103,
          56.0081688924
        ]
      },
      "properties": {
        "description": "representative point"
      }
    },
    {
      "geometry": {
        "type": "Polygon",
        "coordinates": [
          [
            [
              -3.825796,
              56.00724
            ],
            [
              -3.823092,
              56.007824
            ],
            [
              -3.824165,
              56.009117
            ],
            [
              -3.826826,
              56.008488
            ],
            [
              -3.825796,
              56.00724
            ]
          ]
        ]
      },
      "id": "imagery-location-boundary-of-north-fort-walls-approx",
      "type": "Feature",
      "properties": {
        "description": null,
        "location_precision": "precise",
        "title": "Imagery Location: Boundary of north fort walls (approx)",
        "link": "http://pleiades.stoa.org/places/89148/imagery-location-boundary-of-north-fort-walls-approx"
      }
    }
  ]
}