{
  "type": "FeatureCollection",
  "title": "Cefn-Brynich",
  "id": "891506482",
  "bbox": [
    -3.3496751,
    51.936909,
    -3.3496751,
    51.936909
  ],
  "description": "Pre-Flavian Roman fort in Wales",
  "features": [
    {
      "type": "Feature",
      "geometry": {
        "type": "Point",
        "coordinates": [
          -3.3496751,
          51.936909
        ]
      },
      "properties": {
        "description": "representative point"
      }
    },
    {
      "geometry": {
        "type": "Point",
        "coordinates": [
          -3.3496751,
          51.936909
        ]
      },
      "id": "coflein-location-cefn-brynich",
      "type": "Feature",
      "properties": {
        "description": null,
        "location_precision": "precise",
        "title": "Coflein Location: Cefn-Brynich",
        "link": "http://pleiades.stoa.org/places/891506482/coflein-location-cefn-brynich"
      }
    }
  ]
}