{
  "type": "FeatureCollection",
  "title": "Dumna (island)",
  "id": "89170",
  "bbox": [
    -6.719144,
    58.089904,
    -6.719144,
    58.089904
  ],
  "description": "The ancient Dumna Insula is the modern Lewis and Harris, an island in the Outer Hebrides, approximately 24 miles (39 km) from the Scottish mainland.",
  "connectsWith": [
    "89198"
  ],
  "names": [
    "Dumna"
  ],
  "features": [
    {
      "type": "Feature",
      "geometry": {
        "type": "Point",
        "coordinates": [
          -6.719144,
          58.089904
        ]
      },
      "properties": {
        "description": "representative point"
      }
    },
    {
      "geometry": {
        "type": "Point",
        "coordinates": [
          -6.719144,
          58.089904
        ]
      },
      "id": "imagery-location-modern-lewis-and-harris-island",
      "type": "Feature",
      "properties": {
        "description": null,
        "location_precision": "precise",
        "title": "Imagery Location: modern Lewis and Harris Island",
        "link": "http://pleiades.stoa.org/places/89170/imagery-location-modern-lewis-and-harris-island"
      }
    }
  ]
}