{
  "type": "FeatureCollection",
  "title": "(H)Ebudes (islands)",
  "id": "89198",
  "bbox": [
    -6.7072434,
    57.8781165,
    -6.7046012,
    57.8791931
  ],
  "description": "(H)Ebudes Inss. (modern Inner Hebrides), an archipelago off the west coast of Scotland.",
  "names": [
    "Hebudes",
    "Ebudes"
  ],
  "features": [
    {
      "type": "Feature",
      "geometry": {
        "type": "Point",
        "coordinates": [
          -6.70600719847,
          57.8787661451
        ]
      },
      "properties": {
        "description": "representative point"
      }
    },
    {
      "geometry": {
        "type": "LineString",
        "coordinates": [
          [
            -6.7046012,
            57.8791931
          ],
          [
            -6.7049275,
            57.8791576
          ],
          [
            -6.7049969,
            57.8791848
          ],
          [
            -6.7051903,
            57.8791398
          ],
          [
            -6.7053011,
            57.8791869
          ],
          [
            -6.7056703,
            57.8790922
          ],
          [
            -6.7058061,
            57.8791493
          ],
          [
            -6.7060883,
            57.8789958
          ],
          [
            -6.706129,
            57.8789322
          ],
          [
            -6.7060343,
            57.8788548
          ],
          [
            -6.7060534,
            57.8787677
          ],
          [
            -6.7063029,
            57.878726
          ],
          [
            -6.7062097,
            57.878672
          ],
          [
            -6.7064122,
            57.8785808
          ],
          [
            -6.7066379,
            57.8782926
          ],
          [
            -6.7065776,
            57.8782445
          ],
          [
            -6.7069491,
            57.8781165
          ],
          [
            -6.7072434,
            57.8781713
          ]
        ]
      },
      "id": "location-of-scalpay-inner-hebrides",
      "type": "Feature",
      "properties": {
        "description": "Location based on OpenStreetMap",
        "location_precision": "precise",
        "title": "location of Scalpay, Inner Hebrides",
        "link": "http://pleiades.stoa.org/places/89198/location-of-scalpay-inner-hebrides"
      }
    }
  ]
}