{
  "type": "FeatureCollection",
  "title": "Lancaster",
  "id": "89222",
  "bbox": [
    -2.805657,
    54.049839,
    -2.805657,
    54.049839
  ],
  "description": "Roman fort at present day Lancaster.",
  "names": [
    "Lancaster"
  ],
  "features": [
    {
      "type": "Feature",
      "geometry": {
        "type": "Point",
        "coordinates": [
          -2.805657,
          54.049839
        ]
      },
      "properties": {
        "description": "representative point"
      }
    },
    {
      "geometry": {
        "type": "Point",
        "coordinates": [
          -2.805657,
          54.049839
        ]
      },
      "id": "darmc-location-19145",
      "type": "Feature",
      "properties": {
        "description": "1:1 million scale representative point location digitized from the Barrington Atlas of the Greek and Roman World by the Digital Atlas of Roman and Medieval Civilizations project at Harvard University.",
        "location_precision": "precise",
        "title": "DARMC location 19145",
        "link": "http://pleiades.stoa.org/places/89222/darmc-location-19145"
      }
    }
  ]
}