{
  "type": "FeatureCollection",
  "title": "*Nassa (river)",
  "id": "89249",
  "bbox": [
    -4.3123165,
    57.4255959,
    -4.2269293,
    57.4927355
  ],
  "description": "An ancient place, cited: BAtlas 9 C3 *Nassa fl.",
  "names": [
    "Nassa",
    "Certinassa"
  ],
  "features": [
    {
      "type": "Feature",
      "geometry": {
        "type": "Point",
        "coordinates": [
          -4.25975755587,
          57.4539547822
        ]
      },
      "properties": {
        "description": "representative point"
      }
    },
    {
      "geometry": {
        "type": "LineString",
        "coordinates": [
          [
            -4.3123165,
            57.4256987
          ],
          [
            -4.3117683,
            57.4256086
          ],
          [
            -4.3112,
            57.4255959
          ],
          [
            -4.3100953,
            57.4258225
          ],
          [
            -4.309514,
            57.4261509
          ],
          [
            -4.3086608,
            57.4268894
          ],
          [
            -4.3080688,
            57.4275373
          ],
          [
            -4.3071379,
            57.4285882
          ],
          [
            -4.3065335,
            57.4291709
          ],
          [
            -4.3055345,
            57.4299458
          ],
          [
            -4.3033748,
            57.4310596
          ],
          [
            -4.3014419,
            57.4319195
          ],
          [
            -4.3003641,
            57.4324097
          ],
          [
            -4.2985874,
            57.4329269
          ],
          [
            -4.2967381,
            57.4333719
          ],
          [
            -4.2942075,
            57.4347802
          ],
          [
            -4.2925737,
            57.435292
          ],
          [
            -4.2885094,
            57.4359756
          ],
          [
            -4.286528,
            57.4362764
          ],
          [
            -4.2822605,
            57.4361123
          ],
          [
            -4.2801775,
            57.4358936
          ],
          [
            -4.278755,
            57.4355928
          ],
          [
            -4.275849,
            57.4355256
          ],
          [
            -4.27427,
            57.4360218
          ],
          [
            -4.2710362,
            57.4383119
          ],
          [
            -4.2687975,
            57.4396943
          ],
          [
            -4.2666566,
            57.4407117
          ],
          [
            -4.2648218,
            57.4415427
          ],
          [
            -4.2637065,
            57.4425365
          ],
          [
            -4.2623454,
            57.4440688
          ],
          [
            -4.2608213,
            57.4467752
          ],
          [
            -4.2605164,
            57.4481693
          ],
          [
            -4.2606689,
            57.4487707
          ],
          [
            -4.2613256,
            57.4495316
          ],
          [
            -4.2617662,
            57.450042
          ],
          [
            -4.2622864,
            57.4506447
          ],
          [
            -4.262159,
            57.4516469
          ],
          [
            -4.2615889,
            57.4524398
          ],
          [
            -4.2606556,
            57.4539459
          ],
          [
            -4.2597706,
            57.4547137
          ],
          [
            -4.2578354,
            57.4557799
          ],
          [
            -4.2562939,
            57.4566557
          ],
          [
            -4.2555606,
            57.4569318
          ],
          [
            -4.2548034,
            57.4572168
          ],
          [
            -4.2533754,
            57.4578971
          ],
          [
            -4.2522936,
            57.4582679
          ],
          [
            -4.2512957,
            57.4584443
          ],
          [
            -4.2498642,
            57.4587012
          ],
          [
            -4.2483039,
            57.4590306
          ],
          [
            -4.2464702,
            57.4591627
          ],
          [
            -4.2453123,
            57.4592445
          ],
          [
            -4.245235,
            57.4592504
          ],
          [
            -4.2445429,
            57.4592996
          ],
          [
            -4.2430188,
            57.4592996
          ],
          [
            -4.2414438,
            57.4592723
          ],
          [
            -4.2394724,
            57.4593309
          ],
          [
            -4.2372936,
            57.459783
          ],
          [
            -4.2360176,
            57.4602076
          ],
          [
            -4.234885,
            57.4609918
          ],
          [
            -4.2349773,
            57.4612318
          ],
          [
            -4.2340222,
            57.4624481
          ],
          [
            -4.2337859,
            57.4627491
          ],
          [
            -4.2322529,
            57.4638312
          ],
          [
            -4.2318086,
            57.4639322
          ],
          [
            -4.2310733,
            57.4642325
          ],
          [
            -4.2290572,
            57.4659341
          ],
          [
            -4.2284385,
            57.4669442
          ],
          [
            -4.2284494,
            57.4670421
          ],
          [
            -4.2287258,
            57.4695228
          ],
          [
            -4.2290067,
            57.4712693
          ],
          [
            -4.2284693,
            57.4731399
          ],
          [
            -4.2270674,
            57.4749594
          ],
          [
            -4.2269293,
            57.475791
          ],
          [
            -4.2280066,
            57.477677
          ],
          [
            -4.2293931,
            57.4788679
          ],
          [
            -4.2324646,
            57.4806261
          ],
          [
            -4.233238,
            57.4812081
          ],
          [
            -4.2337462,
            57.4824435
          ],
          [
            -4.2334424,
            57.4832453
          ],
          [
            -4.2318625,
            57.4843404
          ],
          [
            -4.2310139,
            57.4853001
          ],
          [
            -4.2312791,
            57.4870009
          ],
          [
            -4.2344434,
            57.4894142
          ],
          [
            -4.2372253,
            57.4912698
          ],
          [
            -4.2377817,
            57.4927355
          ]
        ]
      },
      "id": "osm-location",
      "type": "Feature",
      "properties": {
        "description": "Representative location based on OpenStreetMap",
        "location_precision": "precise",
        "title": "OSM location of River Ness",
        "link": "http://pleiades.stoa.org/places/89249/osm-location"
      }
    }
  ]
}