{
  "type": "FeatureCollection",
  "title": "Vindovala",
  "id": "89315",
  "bbox": [
    -1.826704,
    55.001543,
    -1.8244551,
    55.0032381
  ],
  "description": "The fourth fort on Hadrian's Wall, after Segedunum (Wallsend), Pons Aelius (Newcastle), and Condercum (Benwell).",
  "connectsWith": [
    "91358"
  ],
  "names": [
    "Vindovala",
    "Vindobala",
    "Rudchester"
  ],
  "features": [
    {
      "type": "Feature",
      "geometry": {
        "type": "Point",
        "coordinates": [
          -1.82548516757,
          55.0024010456
        ]
      },
      "properties": {
        "description": "representative point"
      }
    },
    {
      "geometry": {
        "type": "LineString",
        "coordinates": [
          [
            -1.8265843,
            55.0018659
          ],
          [
            -1.8264073,
            55.0026143
          ],
          [
            -1.8262115,
            55.0032381
          ],
          [
            -1.8245459,
            55.0030396
          ],
          [
            -1.8244551,
            55.0030253
          ],
          [
            -1.8246438,
            55.0023682
          ],
          [
            -1.8248676,
            55.0016438
          ],
          [
            -1.8265843,
            55.0018659
          ]
        ]
      },
      "id": "osm-location-of-vindobala",
      "type": "Feature",
      "properties": {
        "description": "Representative location based on OpenStreetMap",
        "location_precision": "precise",
        "title": "OSM location of Vindobala",
        "link": "http://pleiades.stoa.org/places/89315/osm-location-of-vindobala"
      }
    },
    {
      "geometry": {
        "type": "Point",
        "coordinates": [
          -1.82535,
          55.00241
        ]
      },
      "id": "pastscape-location-centerpoint-of-the-ancient-site",
      "type": "Feature",
      "properties": {
        "description": null,
        "location_precision": "precise",
        "title": "PastScape Location: Centerpoint of the ancient site",
        "link": "http://pleiades.stoa.org/places/89315/pastscape-location-centerpoint-of-the-ancient-site"
      }
    },
    {
      "geometry": {
        "type": "Polygon",
        "coordinates": [
          [
            [
              -1.824908,
              55.001543,
              0.0
            ],
            [
              -1.826704,
              55.001749,
              0.0
            ],
            [
              -1.826197,
              55.003153,
              0.0
            ],
            [
              -1.824495,
              55.002961,
              0.0
            ],
            [
              -1.824908,
              55.001543,
              0.0
            ]
          ]
        ]
      },
      "id": "imagery-location-boundary-of-fort-walls",
      "type": "Feature",
      "properties": {
        "description": null,
        "location_precision": "precise",
        "title": "Imagery Location: Boundary of fort walls",
        "link": "http://pleiades.stoa.org/places/89315/imagery-location-boundary-of-fort-walls"
      }
    }
  ]
}