{
  "type": "FeatureCollection",
  "title": "Vindolanda",
  "id": "89313",
  "bbox": [
    -2.361269,
    54.990429,
    -2.359105,
    54.992024
  ],
  "description": "A fort south of Hadrian's Wall and findspot of the Vindolanda Tablets. The earliest phases of Roman occupation date ca. 80 CE. Much of the fort was rebuilt ca. 300 CE.",
  "connectsWith": [
    "506349985"
  ],
  "names": [
    "Vindolanda",
    "Vindolanda"
  ],
  "features": [
    {
      "type": "Feature",
      "geometry": {
        "type": "Point",
        "coordinates": [
          -2.36022223305,
          54.9913026187
        ]
      },
      "properties": {
        "description": "representative point"
      }
    },
    {
      "geometry": {
        "type": "Point",
        "coordinates": [
          -2.3602588,
          54.9913789
        ]
      },
      "id": "osm-location-of-castra-vindolanda",
      "type": "Feature",
      "properties": {
        "description": "Representative location based on OpenStreetMap",
        "location_precision": "precise",
        "title": "OSM location of Castra Vindolanda",
        "link": "http://pleiades.stoa.org/places/89313/osm-location-of-castra-vindolanda"
      }
    },
    {
      "geometry": {
        "type": "Polygon",
        "coordinates": [
          [
            [
              -2.360502,
              54.990429
            ],
            [
              -2.359105,
              54.990677
            ],
            [
              -2.359866,
              54.992024
            ],
            [
              -2.361269,
              54.991773
            ],
            [
              -2.360502,
              54.990429
            ]
          ]
        ]
      },
      "id": "imagery-location-boundary-of-fort-walls",
      "type": "Feature",
      "properties": {
        "description": null,
        "location_precision": "precise",
        "title": "Imagery Location: Boundary of fort walls",
        "link": "http://pleiades.stoa.org/places/89313/imagery-location-boundary-of-fort-walls"
      }
    }
  ]
}