{
  "type": "FeatureCollection",
  "title": "Gallo-Roman theater at Alba Helviorum",
  "id": "89384567",
  "bbox": [
    4.6014459,
    44.5595398,
    4.6022884,
    44.5601771
  ],
  "description": "A third and fourth century theater at Alba Helviorum.",
  "connectsWith": [
    "167629"
  ],
  "features": [
    {
      "type": "Feature",
      "geometry": {
        "type": "Point",
        "coordinates": [
          4.60189211702,
          44.5598576695
        ]
      },
      "properties": {
        "description": "representative point"
      }
    },
    {
      "geometry": {
        "type": "LineString",
        "coordinates": [
          [
            4.6018304,
            44.5595436
          ],
          [
            4.6017036,
            44.5595682
          ],
          [
            4.6015945,
            44.559618
          ],
          [
            4.6015009,
            44.559691
          ],
          [
            4.6014459,
            44.5597681
          ],
          [
            4.6014639,
            44.559808
          ],
          [
            4.6014558,
            44.5598571
          ],
          [
            4.6014642,
            44.5599226
          ],
          [
            4.6014854,
            44.5599759
          ],
          [
            4.6015302,
            44.5600402
          ],
          [
            4.6015897,
            44.5600903
          ],
          [
            4.6016677,
            44.5601327
          ],
          [
            4.6017321,
            44.5601566
          ],
          [
            4.6018272,
            44.5601754
          ],
          [
            4.6019388,
            44.5601771
          ],
          [
            4.601992,
            44.560167
          ],
          [
            4.6020214,
            44.5601614
          ],
          [
            4.6020948,
            44.5601474
          ],
          [
            4.6021401,
            44.5601388
          ],
          [
            4.6021529,
            44.5601265
          ],
          [
            4.6022884,
            44.5601132
          ],
          [
            4.602191,
            44.5595398
          ],
          [
            4.6020039,
            44.5595508
          ],
          [
            4.6019146,
            44.5595603
          ],
          [
            4.601876,
            44.5595651
          ],
          [
            4.6018338,
            44.5595637
          ],
          [
            4.6018304,
            44.5595436
          ]
        ]
      },
      "id": "osm-location-of-theater",
      "type": "Feature",
      "properties": {
        "description": "Representative location based on OpenStreetMap.",
        "location_precision": "precise",
        "title": "OSM location of Théatre Antique",
        "link": "http://pleiades.stoa.org/places/89384567/osm-location-of-theater"
      }
    }
  ]
}