{
  "type": "FeatureCollection",
  "title": "Dur-(Kuri)galzu",
  "id": "893988",
  "bbox": [
    44.1888,
    33.3532881,
    44.2028298,
    33.3599
  ],
  "description": "Dur-(Kuri)galzu was founded by the Kassite ruler Kurigalzu ca. 1400 B.C. At its peak the site covered some 225 ha.",
  "names": [
    "Dur-kurigalzu",
    "Dur-galzu",
    "'Aqar-Qūf",
    "Tall ‘Aqarqūf"
  ],
  "features": [
    {
      "type": "Feature",
      "geometry": {
        "type": "Point",
        "coordinates": [
          44.197416521,
          33.3560730405
        ]
      },
      "properties": {
        "description": "representative point"
      }
    },
    {
      "geometry": {
        "type": "Point",
        "coordinates": [
          44.201209,
          33.354562
        ]
      },
      "id": "darmc-location-32453",
      "type": "Feature",
      "properties": {
        "description": "representative point location digitized from the Barrington Atlas of the Greek and Roman World by the Digital Atlas of Roman and Medieval Civilizations project at Harvard University.",
        "location_precision": "precise",
        "title": "DARMC location 32453",
        "link": "http://pleiades.stoa.org/places/893988/darmc-location-32453"
      }
    },
    {
      "geometry": {
        "type": "LineString",
        "coordinates": [
          [
            44.2022979,
            33.3542301
          ],
          [
            44.2020444,
            33.3540539
          ],
          [
            44.2020406,
            33.3540577
          ],
          [
            44.2020078,
            33.3540349
          ],
          [
            44.2020104,
            33.3540323
          ],
          [
            44.2019506,
            33.3539907
          ],
          [
            44.2019322,
            33.3540091
          ],
          [
            44.2019189,
            33.3539999
          ],
          [
            44.2019349,
            33.3539839
          ],
          [
            44.2019274,
            33.3539787
          ],
          [
            44.2019318,
            33.3539743
          ],
          [
            44.2018829,
            33.3539402
          ],
          [
            44.2018782,
            33.353945
          ],
          [
            44.2018449,
            33.3539218
          ],
          [
            44.2018486,
            33.3539181
          ],
          [
            44.2018044,
            33.3538873
          ],
          [
            44.2017981,
            33.3538904
          ],
          [
            44.2017637,
            33.3538665
          ],
          [
            44.2017669,
            33.3538633
          ],
          [
            44.2017243,
            33.3538337
          ],
          [
            44.2017208,
            33.3538372
          ],
          [
            44.2016788,
            33.3538081
          ],
          [
            44.2018889,
            33.3535971
          ],
          [
            44.2018684,
            33.3535829
          ],
          [
            44.2018835,
            33.3535678
          ],
          [
            44.201903,
            33.3535814
          ],
          [
            44.2021884,
            33.3532922
          ],
          [
            44.2021924,
            33.3532881
          ],
          [
            44.2023091,
            33.3533701
          ],
          [
            44.2023096,
            33.3533696
          ],
          [
            44.2023278,
            33.353351
          ],
          [
            44.2023282,
            33.3533505
          ],
          [
            44.2024974,
            33.3534678
          ],
          [
            44.2025182,
            33.3534824
          ],
          [
            44.2025195,
            33.3534832
          ],
          [
            44.2028298,
            33.3536993
          ],
          [
            44.2028191,
            33.3537102
          ],
          [
            44.2025211,
            33.3540086
          ],
          [
            44.202528,
            33.3540134
          ],
          [
            44.202524,
            33.3540174
          ],
          [
            44.2025156,
            33.3540116
          ],
          [
            44.2022979,
            33.3542301
          ]
        ]
      },
      "id": "osm-location",
      "type": "Feature",
      "properties": {
        "description": "Representative location based on OpenStreetMap.",
        "location_precision": "precise",
        "title": "OSM location of Dur-Kurigalzu ziggurat",
        "link": "http://pleiades.stoa.org/places/893988/osm-location"
      }
    },
    {
      "geometry": {
        "type": "Point",
        "coordinates": [
          44.1888,
          33.3599
        ]
      },
      "id": "gigs-location-of-tall-2018aqarquf",
      "type": "Feature",
      "properties": {
        "description": null,
        "location_precision": "precise",
        "title": "CIGS location of Tall ‘Aqarqūf",
        "link": "http://pleiades.stoa.org/places/893988/gigs-location-of-tall-2018aqarquf"
      }
    }
  ]
}