{
  "type": "FeatureCollection",
  "title": "Adiabene",
  "id": "893935",
  "bbox": [
    44.0068677,
    36.1897645,
    44.0116582,
    36.1930506
  ],
  "description": "Adiabene was an ancient kingdom in Assyria situated between the Upper Zab (Lycus) and the Lower Zab (Caprus) rivers. Its capital was at Arbela.",
  "connectsWith": [
    "562111623"
  ],
  "names": [
    "Adiabene",
    "Akabene",
    "Artakene"
  ],
  "features": [
    {
      "type": "Feature",
      "geometry": {
        "type": "Point",
        "coordinates": [
          44.0093823647,
          36.1913213311
        ]
      },
      "properties": {
        "description": "representative point"
      }
    },
    {
      "geometry": {
        "type": "Polygon",
        "coordinates": [
          [
            [
              43.0,
              35.0
            ],
            [
              43.0,
              36.0
            ],
            [
              44.0,
              36.0
            ],
            [
              44.0,
              35.0
            ],
            [
              43.0,
              35.0
            ]
          ]
        ]
      },
      "id": "batlas-location",
      "type": "Feature",
      "properties": {
        "description": null,
        "location_precision": "rough",
        "title": "Barrington Atlas location",
        "link": "http://pleiades.stoa.org/places/893935/batlas-location"
      }
    }
  ]
}