{
  "type": "FeatureCollection",
  "title": "Tell Abu Ja'ari",
  "id": "894107",
  "bbox": [
    44.854452,
    33.40064,
    44.854452,
    33.40064
  ],
  "description": "An ancient place, cited: BAtlas 91 F4 Tell Abu Ja'ari",
  "features": [
    {
      "type": "Feature",
      "geometry": {
        "type": "Point",
        "coordinates": [
          44.854452,
          33.40064
        ]
      },
      "properties": {
        "description": "representative point"
      }
    },
    {
      "geometry": {
        "type": "Point",
        "coordinates": [
          44.854452,
          33.40064
        ]
      },
      "id": "darmc-location-22484",
      "type": "Feature",
      "properties": {
        "description": "Representative point location digitized from the Barrington Atlas of the Greek and Roman World by the Digital Atlas of Roman and Medieval Civilizations project at Harvard University.",
        "location_precision": "precise",
        "title": "DARMC location 22484",
        "link": "http://pleiades.stoa.org/places/894107/darmc-location-22484"
      }
    }
  ]
}