{
  "type": "FeatureCollection",
  "title": "Tell Fidain/Appadana?/Neapolis?",
  "id": "894133",
  "bbox": [
    40.5612702,
    35.3610429,
    40.5643354,
    35.3654327
  ],
  "description": "An ancient place, cited: BAtlas 91 B2 Tell Fidain/Appadana?/Neapolis?",
  "names": [
    "Appadana",
    "Neapolis",
    "Apadna",
    "Apatna",
    "Sūru"
  ],
  "features": [
    {
      "type": "Feature",
      "geometry": {
        "type": "Point",
        "coordinates": [
          40.5629075241,
          35.3632499688
        ]
      },
      "properties": {
        "description": "representative point"
      }
    },
    {
      "geometry": {
        "type": "LineString",
        "coordinates": [
          [
            40.5642285,
            35.3649445
          ],
          [
            40.564128,
            35.3650692
          ],
          [
            40.5638817,
            35.3651983
          ],
          [
            40.5636845,
            35.3652383
          ],
          [
            40.5635498,
            35.3652892
          ],
          [
            40.5634313,
            35.3653534
          ],
          [
            40.5630065,
            35.3654327
          ],
          [
            40.5629622,
            35.3653286
          ],
          [
            40.5627267,
            35.3650515
          ],
          [
            40.5623892,
            35.3647031
          ],
          [
            40.5620285,
            35.36429
          ],
          [
            40.5618366,
            35.3640268
          ],
          [
            40.5616854,
            35.3636993
          ],
          [
            40.5615424,
            35.3634873
          ],
          [
            40.5613192,
            35.3632852
          ],
          [
            40.5612702,
            35.3630642
          ],
          [
            40.5613412,
            35.3628249
          ],
          [
            40.5614095,
            35.362753
          ],
          [
            40.5615007,
            35.3627255
          ],
          [
            40.5614858,
            35.3625236
          ],
          [
            40.5614201,
            35.3622927
          ],
          [
            40.5614822,
            35.3619496
          ],
          [
            40.5614749,
            35.3615285
          ],
          [
            40.5616122,
            35.3613929
          ],
          [
            40.5617191,
            35.3613445
          ],
          [
            40.5618455,
            35.361337
          ],
          [
            40.5619785,
            35.3613377
          ],
          [
            40.562089,
            35.3613147
          ],
          [
            40.5622526,
            35.3612431
          ],
          [
            40.5623929,
            35.361128
          ],
          [
            40.5624813,
            35.3610429
          ],
          [
            40.5626076,
            35.3610765
          ],
          [
            40.5627815,
            35.3611512
          ],
          [
            40.5629485,
            35.3612123
          ],
          [
            40.5630707,
            35.3613134
          ],
          [
            40.5631962,
            35.3615237
          ],
          [
            40.5632752,
            35.3616451
          ],
          [
            40.5634582,
            35.3617775
          ],
          [
            40.5636202,
            35.3616404
          ],
          [
            40.5637337,
            35.3618616
          ],
          [
            40.563956,
            35.3624625
          ],
          [
            40.5641097,
            35.3626957
          ],
          [
            40.5641913,
            35.3631083
          ],
          [
            40.5640229,
            35.3633446
          ],
          [
            40.5638514,
            35.3635001
          ],
          [
            40.5638498,
            35.3636478
          ],
          [
            40.5637794,
            35.363834
          ],
          [
            40.5637794,
            35.3639254
          ],
          [
            40.5637056,
            35.3640266
          ],
          [
            40.5637824,
            35.3640983
          ],
          [
            40.5640017,
            35.3640854
          ],
          [
            40.5641723,
            35.3641868
          ],
          [
            40.5643331,
            35.3642953
          ],
          [
            40.5643354,
            35.3643682
          ],
          [
            40.5642798,
            35.3644184
          ],
          [
            40.5643171,
            35.3644823
          ],
          [
            40.5642214,
            35.3645624
          ],
          [
            40.5642469,
            35.3646101
          ],
          [
            40.5641319,
            35.3646627
          ],
          [
            40.5641094,
            35.3647303
          ],
          [
            40.5641656,
            35.3648019
          ],
          [
            40.5641246,
            35.3648314
          ],
          [
            40.5642285,
            35.3649445
          ]
        ]
      },
      "id": "osm-location-of-tell-fudayn",
      "type": "Feature",
      "properties": {
        "description": "Representative location based on OpenStreetMap, chronology following the Barrington Atlas.",
        "location_precision": "precise",
        "title": "OSM location of Tell Fudayn",
        "link": "http://pleiades.stoa.org/places/894133/osm-location-of-tell-fudayn"
      }
    }
  ]
}