{
  "type": "FeatureCollection",
  "title": "Uvecik Tepe",
  "id": "897256486",
  "bbox": [
    26.1985755,
    39.8998617,
    26.1997716,
    39.900779
  ],
  "description": "Uvecik Tepe or Üvecik Tepe is a tumulus in the Troad built for one Festus, a freedman of the emperor Caracalla.",
  "connectsWith": [
    "550944"
  ],
  "features": [
    {
      "type": "Feature",
      "geometry": {
        "type": "Point",
        "coordinates": [
          26.1991743094,
          39.9003210655
        ]
      },
      "properties": {
        "description": "representative point"
      }
    },
    {
      "geometry": {
        "type": "LineString",
        "coordinates": [
          [
            26.1994125,
            39.9007427
          ],
          [
            26.199575,
            39.9006625
          ],
          [
            26.1996892,
            39.9005556
          ],
          [
            26.1997568,
            39.9004274
          ],
          [
            26.1997716,
            39.9002895
          ],
          [
            26.1997322,
            39.9001546
          ],
          [
            26.1996423,
            39.9000347
          ],
          [
            26.19951,
            39.8999408
          ],
          [
            26.1993473,
            39.8998813
          ],
          [
            26.1991689,
            39.8998617
          ],
          [
            26.1989909,
            39.8998837
          ],
          [
            26.1988189,
            39.8999512
          ],
          [
            26.1986838,
            39.9000572
          ],
          [
            26.1985998,
            39.9001907
          ],
          [
            26.1985755,
            39.9003378
          ],
          [
            26.1986135,
            39.9004831
          ],
          [
            26.1987099,
            39.9006116
          ],
          [
            26.1988545,
            39.9007098
          ],
          [
            26.1990325,
            39.9007677
          ],
          [
            26.1992251,
            39.900779
          ],
          [
            26.1994125,
            39.9007427
          ]
        ]
      },
      "id": "osm-location-of-tumulus",
      "type": "Feature",
      "properties": {
        "description": "Representative location based on OpenStreetMap.",
        "location_precision": "precise",
        "title": "OSM location of tumulus",
        "link": "http://pleiades.stoa.org/places/897256486/osm-location-of-tumulus"
      }
    }
  ]
}