{
  "type": "FeatureCollection",
  "title": "Cogulló",
  "id": "897982314",
  "bbox": [
    1.8882308,
    41.8085086,
    1.8894821,
    41.8094285
  ],
  "description": "A Pre-Roman Iberian oppidum located in the region of Bages.",
  "features": [
    {
      "type": "Feature",
      "geometry": {
        "type": "Point",
        "coordinates": [
          1.88890460277,
          41.8089228192
        ]
      },
      "properties": {
        "description": "representative point"
      }
    },
    {
      "geometry": {
        "type": "LineString",
        "coordinates": [
          [
            1.8882308,
            41.8087966
          ],
          [
            1.8882561,
            41.8087322
          ],
          [
            1.8882723,
            41.8086911
          ],
          [
            1.8882834,
            41.8086362
          ],
          [
            1.8883332,
            41.8086419
          ],
          [
            1.8885055,
            41.8085929
          ],
          [
            1.888567,
            41.8085367
          ],
          [
            1.8886535,
            41.8085091
          ],
          [
            1.8888688,
            41.8085086
          ],
          [
            1.8889885,
            41.8085207
          ],
          [
            1.8890753,
            41.8085509
          ],
          [
            1.889093,
            41.8086828
          ],
          [
            1.8892152,
            41.8087335
          ],
          [
            1.8893349,
            41.8088114
          ],
          [
            1.8894821,
            41.8089135
          ],
          [
            1.8894457,
            41.8092323
          ],
          [
            1.8893717,
            41.809402
          ],
          [
            1.8892979,
            41.8094285
          ],
          [
            1.8889938,
            41.8093136
          ],
          [
            1.8887222,
            41.8092225
          ],
          [
            1.8885569,
            41.8090332
          ],
          [
            1.8884227,
            41.8088799
          ],
          [
            1.8882308,
            41.8087966
          ]
        ]
      },
      "id": "location-of-oppidum",
      "type": "Feature",
      "properties": {
        "description": "Representative location based on OpenStreetMap",
        "location_precision": "precise",
        "title": "OSM location of oppidum",
        "link": "http://pleiades.stoa.org/places/897982314/location-of-oppidum"
      }
    }
  ]
}