{
  "type": "FeatureCollection",
  "title": "Villa of Agrippa Postumus",
  "id": "901742290",
  "bbox": [
    14.462036,
    40.77431,
    14.462036,
    40.77431
  ],
  "description": "The Villa of Agrippa Postumus was discovered at Boscotrecase in 1903 on land owned by Cavaliere Ernesto Santini. Works for the Circumvesuviana railroad line brought the site to light. Excavations supervised by Matteo Della Corte were carried out from 1903 to 1905. In 1906, however, a new eruption of Mount Vesuvius reburied the site. Della Corte published a plan of the excavated portion of the villa in the Notizie degli scavi di antichità.",
  "connectsWith": [
    "432724"
  ],
  "names": [
    "Villa of Agrippa Postumus",
    "Villa rustica di Tiberius Claudius Eutychius"
  ],
  "features": [
    {
      "type": "Feature",
      "geometry": {
        "type": "Point",
        "coordinates": [
          14.462036,
          40.77431
        ]
      },
      "properties": {
        "description": "representative point"
      }
    }
  ]
}