{
  "type": "FeatureCollection",
  "title": "Praetorium",
  "id": "903012852",
  "bbox": [
    8.07644,
    34.864959,
    8.07644,
    34.864959
  ],
  "description": "Praetorium is located along the route between Cerva and Presididiolele.",
  "connectsWith": [
    "276774947",
    "324692"
  ],
  "names": [
    "Ad Preto+ivm"
  ],
  "features": [
    {
      "type": "Feature",
      "geometry": {
        "type": "Point",
        "coordinates": [
          8.07644,
          34.864959
        ]
      },
      "properties": {
        "description": "representative point"
      }
    }
  ]
}