{
  "type": "FeatureCollection",
  "title": "Khurramdasht",
  "id": "903065",
  "bbox": [
    51.592609,
    33.867479,
    51.592609,
    33.867479
  ],
  "description": "An ancient place, cited: BAtlas 92 G3 Khurramdasht",
  "features": [
    {
      "type": "Feature",
      "geometry": {
        "type": "Point",
        "coordinates": [
          51.592609,
          33.867479
        ]
      },
      "properties": {
        "description": "representative point"
      }
    },
    {
      "geometry": {
        "type": "Point",
        "coordinates": [
          51.592609,
          33.867479
        ]
      },
      "id": "darmc-location-21931",
      "type": "Feature",
      "properties": {
        "description": "Representative point location digitized from the Barrington Atlas of the Greek and Roman World by the Digital Atlas of Roman and Medieval Civilizations project at Harvard University.",
        "location_precision": "precise",
        "title": "DARMC location 21931",
        "link": "http://pleiades.stoa.org/places/903065/darmc-location-21931"
      }
    }
  ]
}