{
  "type": "FeatureCollection",
  "title": "Khurmal/Syarazur?/Siasouron?",
  "id": "903063",
  "bbox": [
    46.03589,
    35.299481,
    46.03589,
    35.299481
  ],
  "description": "An ancient place, cited: BAtlas 92 B1 Khurmal/Syarazur?/Siasouron?",
  "names": [
    "Syarazur",
    "Siasouron"
  ],
  "features": [
    {
      "type": "Feature",
      "geometry": {
        "type": "Point",
        "coordinates": [
          46.03589,
          35.299481
        ]
      },
      "properties": {
        "description": "representative point"
      }
    },
    {
      "geometry": {
        "type": "Point",
        "coordinates": [
          46.03589,
          35.299481
        ]
      },
      "id": "darmc-location-21540",
      "type": "Feature",
      "properties": {
        "description": "Representative point location digitized from the Barrington Atlas of the Greek and Roman World by the Digital Atlas of Roman and Medieval Civilizations project at Harvard University.",
        "location_precision": "precise",
        "title": "DARMC location 21540",
        "link": "http://pleiades.stoa.org/places/903063/darmc-location-21540"
      }
    }
  ]
}