{
  "type": "FeatureCollection",
  "title": "[Kangavar]/Concobar",
  "id": "903054",
  "bbox": [
    47.955711,
    34.502892,
    47.955711,
    34.502892
  ],
  "description": "An ancient place, cited: BAtlas 92 C2 [Kangavar]/Concobar",
  "connectsWith": [
    "903080"
  ],
  "names": [
    "Kangavar",
    "Concobar"
  ],
  "features": [
    {
      "type": "Feature",
      "geometry": {
        "type": "Point",
        "coordinates": [
          47.955711,
          34.502892
        ]
      },
      "properties": {
        "description": "representative point"
      }
    },
    {
      "geometry": {
        "type": "Point",
        "coordinates": [
          47.955711,
          34.502892
        ]
      },
      "id": "darmc-location-21527",
      "type": "Feature",
      "properties": {
        "description": "Representative point location digitized from the Barrington Atlas of the Greek and Roman World by the Digital Atlas of Roman and Medieval Civilizations project at Harvard University.",
        "location_precision": "precise",
        "title": "DARMC location 21527",
        "link": "http://pleiades.stoa.org/places/903054/darmc-location-21527"
      }
    }
  ]
}