{
  "type": "FeatureCollection",
  "title": "Deh Bozan",
  "id": "903010",
  "bbox": [
    48.130107,
    34.709168,
    48.130107,
    34.709168
  ],
  "description": "An ancient place, cited: BAtlas 92 D2 Deh Bozan",
  "features": [
    {
      "type": "Feature",
      "geometry": {
        "type": "Point",
        "coordinates": [
          48.130107,
          34.709168
        ]
      },
      "properties": {
        "description": "representative point"
      }
    },
    {
      "geometry": {
        "type": "Point",
        "coordinates": [
          48.130107,
          34.709168
        ]
      },
      "id": "darmc-location-21940",
      "type": "Feature",
      "properties": {
        "description": "Representative point location digitized from the Barrington Atlas of the Greek and Roman World by the Digital Atlas of Roman and Medieval Civilizations project at Harvard University.",
        "location_precision": "precise",
        "title": "DARMC location 21940",
        "link": "http://pleiades.stoa.org/places/903010/darmc-location-21940"
      }
    }
  ]
}