{
  "type": "FeatureCollection",
  "title": "Malaver",
  "id": "903077",
  "bbox": [
    48.828866,
    34.306514,
    48.828866,
    34.306514
  ],
  "description": "An ancient place, cited: BAtlas 92 D2 Malaver",
  "names": [
    "Malaver"
  ],
  "features": [
    {
      "type": "Feature",
      "geometry": {
        "type": "Point",
        "coordinates": [
          48.828866,
          34.306514
        ]
      },
      "properties": {
        "description": "representative point"
      }
    },
    {
      "geometry": {
        "type": "Point",
        "coordinates": [
          48.828866,
          34.306514
        ]
      },
      "id": "darmc-location-21943",
      "type": "Feature",
      "properties": {
        "description": "Representative point location digitized from the Barrington Atlas of the Greek and Roman World by the Digital Atlas of Roman and Medieval Civilizations project at Harvard University.",
        "location_precision": "precise",
        "title": "DARMC location 21943",
        "link": "http://pleiades.stoa.org/places/903077/darmc-location-21943"
      }
    }
  ]
}