{
  "type": "FeatureCollection",
  "title": "Vindirni",
  "id": "903141",
  "bbox": [
    47.024233,
    34.797036,
    47.024233,
    34.797036
  ],
  "description": "An ancient place, cited: BAtlas 92 B2 Vindirni",
  "features": [
    {
      "type": "Feature",
      "geometry": {
        "type": "Point",
        "coordinates": [
          47.024233,
          34.797036
        ]
      },
      "properties": {
        "description": "representative point"
      }
    },
    {
      "geometry": {
        "type": "Point",
        "coordinates": [
          47.024233,
          34.797036
        ]
      },
      "id": "darmc-location-21939",
      "type": "Feature",
      "properties": {
        "description": "Representative point location digitized from the Barrington Atlas of the Greek and Roman World by the Digital Atlas of Roman and Medieval Civilizations project at Harvard University.",
        "location_precision": "precise",
        "title": "DARMC location 21939",
        "link": "http://pleiades.stoa.org/places/903141/darmc-location-21939"
      }
    }
  ]
}