{
  "type": "FeatureCollection",
  "title": "Muel dam",
  "id": "903961839",
  "bbox": [
    -1.0819978,
    41.4656027,
    -1.0810081,
    41.4657393
  ],
  "description": "A first century AD Roman gravity dam.",
  "features": [
    {
      "type": "Feature",
      "geometry": {
        "type": "Point",
        "coordinates": [
          -1.08150294786,
          41.4656709845
        ]
      },
      "properties": {
        "description": "representative point"
      }
    },
    {
      "geometry": {
        "type": "LineString",
        "coordinates": [
          [
            -1.0819978,
            41.4656027
          ],
          [
            -1.0817866,
            41.4656318
          ],
          [
            -1.0814044,
            41.4656846
          ],
          [
            -1.0810081,
            41.4657393
          ]
        ]
      },
      "id": "location-of-roman-dam",
      "type": "Feature",
      "properties": {
        "description": "Location based on OpenStreetMap",
        "location_precision": "precise",
        "title": "OSM location of Muel Dam",
        "link": "http://pleiades.stoa.org/places/903961839/location-of-roman-dam"
      }
    }
  ]
}