{
  "type": "FeatureCollection",
  "title": "Roman walls, Novaria",
  "id": "905076845",
  "bbox": [
    8.6209641,
    45.4445336,
    8.6209641,
    45.4445336
  ],
  "description": "A segment of the Roman defensive wall.",
  "connectsWith": [
    "383717"
  ],
  "features": [
    {
      "type": "Feature",
      "geometry": {
        "type": "Point",
        "coordinates": [
          8.6209641,
          45.4445336
        ]
      },
      "properties": {
        "description": "representative point"
      }
    },
    {
      "geometry": {
        "type": "LineString",
        "coordinates": [
          [
            8.620319,
            45.4445278
          ],
          [
            8.620964,
            45.4445336
          ],
          [
            8.6209638,
            45.44456
          ],
          [
            8.6203767,
            45.4445423
          ],
          [
            8.6203839,
            45.4445767
          ],
          [
            8.6203229,
            45.4445746
          ],
          [
            8.620319,
            45.4445278
          ]
        ]
      },
      "id": "osm-location-of-roman-walls",
      "type": "Feature",
      "properties": {
        "description": "Representative location based on OpenStreetMap.",
        "location_precision": "precise",
        "title": "OSM location of Mura Romane",
        "link": "http://pleiades.stoa.org/places/905076845/osm-location-of-roman-walls"
      }
    }
  ]
}