{
  "type": "FeatureCollection",
  "title": "tribus Sabatina",
  "id": "910605204",
  "bbox": [
    11.8740046,
    42.5734232,
    11.8740046,
    42.5734232
  ],
  "description": "The tribus Sabatina (or Sabatia) was a later rural tribe of ancient Rome, which was established in 387 B.C.",
  "connectsWith": [
    "432900",
    "423025"
  ],
  "names": [
    "Sabatina"
  ],
  "features": [
    {
      "type": "Feature",
      "geometry": {
        "type": "Point",
        "coordinates": [
          11.8740046,
          42.5734232
        ]
      },
      "properties": {
        "description": "representative point"
      }
    }
  ]
}