{
  "type": "FeatureCollection",
  "title": "House of the Tragic Poet",
  "id": "912505596",
  "bbox": [
    14.4836544,
    40.7505761,
    14.4839084,
    40.7509243
  ],
  "description": "The so-called \"House of the Tragic Poet\" (VI, 8, 3, 5) was built in the first century BC and has the plan of a classic \"Samnite\" house. The house was excavated in 1824. It lies at the corner of the Via delle Terme and the Via della Fullonica, across from the Forum Baths.",
  "connectsWith": [
    "433032",
    "984330151"
  ],
  "names": [
    "Casa omerica",
    "Casa di Omero",
    "Casa del poeta",
    "Casa del poeta drammatico",
    "Haus der Iphigenia",
    "Casa col Cave canem",
    "Casa del concerto drammatico",
    "Domus of M. P. Cepius",
    "Domus of Aninius",
    "VI.8.3",
    "House of the Tragic Poet",
    "Casa del Poeta Tragico",
    "Casa di Glauco"
  ],
  "features": [
    {
      "type": "Feature",
      "geometry": {
        "type": "Point",
        "coordinates": [
          14.4838058691,
          40.7507504885
        ]
      },
      "properties": {
        "description": "representative point"
      }
    },
    {
      "geometry": {
        "type": "LineString",
        "coordinates": [
          [
            14.4836544,
            40.7507974
          ],
          [
            14.4836712,
            40.7508033
          ],
          [
            14.4837182,
            40.7508201
          ],
          [
            14.4837469,
            40.7508304
          ],
          [
            14.4837852,
            40.750844
          ],
          [
            14.4837649,
            40.750877
          ],
          [
            14.4837578,
            40.7508886
          ],
          [
            14.4837536,
            40.7508955
          ],
          [
            14.483837,
            40.7509243
          ],
          [
            14.4838683,
            40.7508735
          ],
          [
            14.4838625,
            40.7508716
          ],
          [
            14.4838878,
            40.7508306
          ],
          [
            14.4838962,
            40.7508171
          ],
          [
            14.4838305,
            40.7507944
          ],
          [
            14.4839084,
            40.7506682
          ],
          [
            14.4838515,
            40.7506437
          ],
          [
            14.4838949,
            40.7505869
          ],
          [
            14.4838806,
            40.750581
          ],
          [
            14.483869,
            40.7505761
          ],
          [
            14.4838233,
            40.7506329
          ],
          [
            14.4837716,
            40.7506141
          ],
          [
            14.4836654,
            40.7507801
          ],
          [
            14.4836544,
            40.7507974
          ]
        ]
      },
      "id": "osm-location",
      "type": "Feature",
      "properties": {
        "description": "Representative location based on OpenStreetMap.",
        "location_precision": "precise",
        "title": "OSM location of so-called \"Casa del Poeta Tragico\"",
        "link": "http://pleiades.stoa.org/places/912505596/osm-location"
      }
    }
  ]
}