{
  "type": "FeatureCollection",
  "title": "KS992",
  "id": "912894",
  "bbox": [
    48.647482,
    32.088602,
    48.647482,
    32.088602
  ],
  "description": "An ancient place, cited: BAtlas 93 E1 KS992",
  "features": [
    {
      "type": "Feature",
      "geometry": {
        "type": "Point",
        "coordinates": [
          48.647482,
          32.088602
        ]
      },
      "properties": {
        "description": "representative point"
      }
    },
    {
      "geometry": {
        "type": "Point",
        "coordinates": [
          48.647482,
          32.088602
        ]
      },
      "id": "darmc-location-21883",
      "type": "Feature",
      "properties": {
        "description": "Representative point location digitized from the Barrington Atlas of the Greek and Roman World by the Digital Atlas of Roman and Medieval Civilizations project at Harvard University.",
        "location_precision": "precise",
        "title": "DARMC location 21883",
        "link": "http://pleiades.stoa.org/places/912894/darmc-location-21883"
      }
    }
  ]
}