{
  "type": "FeatureCollection",
  "title": "Aqola/[al-Kufa]",
  "id": "912808",
  "bbox": [
    44.340693,
    32.001972,
    44.340693,
    32.001972
  ],
  "description": "An ancient place, cited: BAtlas 93 A1 Aqola/[al-Kufa]",
  "names": [
    "Aqola",
    "al-Kufa",
    "Kūfe"
  ],
  "features": [
    {
      "type": "Feature",
      "geometry": {
        "type": "Point",
        "coordinates": [
          44.340693,
          32.001972
        ]
      },
      "properties": {
        "description": "representative point"
      }
    },
    {
      "geometry": {
        "type": "Point",
        "coordinates": [
          44.340693,
          32.001972
        ]
      },
      "id": "darmc-location-21502",
      "type": "Feature",
      "properties": {
        "description": "Representative point location digitized from the Barrington Atlas of the Greek and Roman World by the Digital Atlas of Roman and Medieval Civilizations project at Harvard University.",
        "location_precision": "precise",
        "title": "DARMC location 21502",
        "link": "http://pleiades.stoa.org/places/912808/darmc-location-21502"
      }
    }
  ]
}