{
  "type": "FeatureCollection",
  "title": "KS920",
  "id": "912887",
  "bbox": [
    48.623275,
    32.099519,
    48.623275,
    32.099519
  ],
  "description": "An ancient place, cited: BAtlas 93 E1 KS920",
  "features": [
    {
      "type": "Feature",
      "geometry": {
        "type": "Point",
        "coordinates": [
          48.623275,
          32.099519
        ]
      },
      "properties": {
        "description": "representative point"
      }
    },
    {
      "geometry": {
        "type": "Point",
        "coordinates": [
          48.623275,
          32.099519
        ]
      },
      "id": "darmc-location-21886",
      "type": "Feature",
      "properties": {
        "description": "Representative point location digitized from the Barrington Atlas of the Greek and Roman World by the Digital Atlas of Roman and Medieval Civilizations project at Harvard University.",
        "location_precision": "precise",
        "title": "DARMC location 21886",
        "link": "http://pleiades.stoa.org/places/912887/darmc-location-21886"
      }
    }
  ]
}