{
  "type": "FeatureCollection",
  "title": "Tell Dhahiya",
  "id": "912954",
  "bbox": [
    45.631272,
    32.073473,
    45.631272,
    32.073473
  ],
  "description": "An ancient place, cited: BAtlas 93 B1 Tell Dhahiya",
  "features": [
    {
      "type": "Feature",
      "geometry": {
        "type": "Point",
        "coordinates": [
          45.631272,
          32.073473
        ]
      },
      "properties": {
        "description": "representative point"
      }
    },
    {
      "geometry": {
        "type": "Point",
        "coordinates": [
          45.631272,
          32.073473
        ]
      },
      "id": "darmc-location-21907",
      "type": "Feature",
      "properties": {
        "description": "Representative point location digitized from the Barrington Atlas of the Greek and Roman World by the Digital Atlas of Roman and Medieval Civilizations project at Harvard University.",
        "location_precision": "precise",
        "title": "DARMC location 21907",
        "link": "http://pleiades.stoa.org/places/912954/darmc-location-21907"
      }
    }
  ]
}