{
  "type": "FeatureCollection",
  "title": "Sostrate/Shushtar",
  "id": "912941",
  "bbox": [
    48.849999,
    32.049999,
    48.849999,
    32.049999
  ],
  "description": "An ancient place, cited: BAtlas 93 E1 Sostrate/Shushtar",
  "names": [
    "Sostrate",
    "Shushtar",
    "Tustar",
    "Adamdun",
    "Tostar",
    "Sōstar",
    "Šōstar",
    "Sōstrate",
    "Šūštar",
    "Šuštar",
    "Šušter"
  ],
  "features": [
    {
      "type": "Feature",
      "geometry": {
        "type": "Point",
        "coordinates": [
          48.849999,
          32.049999
        ]
      },
      "properties": {
        "description": "representative point"
      }
    },
    {
      "geometry": {
        "type": "Point",
        "coordinates": [
          48.849999,
          32.049999
        ]
      },
      "id": "darmc-location-21515",
      "type": "Feature",
      "properties": {
        "description": "Representative point location digitized from the Barrington Atlas of the Greek and Roman World by the Digital Atlas of Roman and Medieval Civilizations project at Harvard University.",
        "location_precision": "precise",
        "title": "DARMC location 21515",
        "link": "http://pleiades.stoa.org/places/912941/darmc-location-21515"
      }
    }
  ]
}