{
  "type": "FeatureCollection",
  "title": "U253",
  "id": "912973",
  "bbox": [
    45.646154,
    31.458508,
    45.646154,
    31.458508
  ],
  "description": "An ancient place, cited: BAtlas 93 B2 U253",
  "features": [
    {
      "type": "Feature",
      "geometry": {
        "type": "Point",
        "coordinates": [
          45.646154,
          31.458508
        ]
      },
      "properties": {
        "description": "representative point"
      }
    },
    {
      "geometry": {
        "type": "Point",
        "coordinates": [
          45.646154,
          31.458508
        ]
      },
      "id": "darmc-location-21897",
      "type": "Feature",
      "properties": {
        "description": "Representative point location digitized from the Barrington Atlas of the Greek and Roman World by the Digital Atlas of Roman and Medieval Civilizations project at Harvard University.",
        "location_precision": "precise",
        "title": "DARMC location 21897",
        "link": "http://pleiades.stoa.org/places/912973/darmc-location-21897"
      }
    }
  ]
}