{
  "type": "FeatureCollection",
  "title": "Tell Farawa",
  "id": "912955",
  "bbox": [
    45.883515,
    31.643722,
    45.883515,
    31.643722
  ],
  "description": "An ancient place, cited: BAtlas 93 B2 Tell Farawa",
  "features": [
    {
      "type": "Feature",
      "geometry": {
        "type": "Point",
        "coordinates": [
          45.883515,
          31.643722
        ]
      },
      "properties": {
        "description": "representative point"
      }
    },
    {
      "geometry": {
        "type": "Point",
        "coordinates": [
          45.883515,
          31.643722
        ]
      },
      "id": "darmc-location-21921",
      "type": "Feature",
      "properties": {
        "description": "Representative point location digitized from the Barrington Atlas of the Greek and Roman World by the Digital Atlas of Roman and Medieval Civilizations project at Harvard University.",
        "location_precision": "precise",
        "title": "DARMC location 21921",
        "link": "http://pleiades.stoa.org/places/912955/darmc-location-21921"
      }
    }
  ]
}