{
  "type": "FeatureCollection",
  "title": "U092",
  "id": "912972",
  "bbox": [
    45.70778,
    31.632631,
    45.70778,
    31.632631
  ],
  "description": "An ancient place, cited: BAtlas 93 B2 U092",
  "features": [
    {
      "type": "Feature",
      "geometry": {
        "type": "Point",
        "coordinates": [
          45.70778,
          31.632631
        ]
      },
      "properties": {
        "description": "representative point"
      }
    },
    {
      "geometry": {
        "type": "Point",
        "coordinates": [
          45.70778,
          31.632631
        ]
      },
      "id": "darmc-location-21918",
      "type": "Feature",
      "properties": {
        "description": "Representative point location digitized from the Barrington Atlas of the Greek and Roman World by the Digital Atlas of Roman and Medieval Civilizations project at Harvard University.",
        "location_precision": "precise",
        "title": "DARMC location 21918",
        "link": "http://pleiades.stoa.org/places/912972/darmc-location-21918"
      }
    }
  ]
}