{
  "type": "FeatureCollection",
  "title": "Uruk/Orchoe/Erech/Orikut",
  "id": "912986",
  "bbox": [
    45.6245899,
    31.3096393,
    45.6520772,
    31.3370337
  ],
  "description": "Uruk was an ancient Sumerian (and later Babylonian) city located on the Euphrates river. At its height (ca. 2900 BC), Uruk's population may have topped 50,000 people and its walls enclosed an area of more than six square kilometers, making it the largest city in the world at that point in time.",
  "connectsWith": [
    "45635759",
    "912849",
    "202833934"
  ],
  "names": [
    "Uruk",
    "Orchoe",
    "Erech",
    "Orikut",
    "Orcheni",
    "Tall al-Warkāʾ",
    "Warqa",
    "Warka",
    "Warka",
    "al-Warkāʾ",
    "Uruk",
    "Uruk",
    "Tulūl al-Warkāʾ",
    "Unug",
    "Unu(g)",
    "Orchoē",
    "ʾrk",
    "Warkāʼ"
  ],
  "features": [
    {
      "type": "Feature",
      "geometry": {
        "type": "Point",
        "coordinates": [
          45.6390521574,
          31.3233750109
        ]
      },
      "properties": {
        "description": "representative point"
      }
    },
    {
      "geometry": {
        "type": "Point",
        "coordinates": [
          45.6394,
          31.3234
        ]
      },
      "id": "cigs-location-of-warka",
      "type": "Feature",
      "properties": {
        "description": null,
        "location_precision": "precise",
        "title": "CIGS location of Warkāʼ",
        "link": "http://pleiades.stoa.org/places/912986/cigs-location-of-warka"
      }
    },
    {
      "geometry": {
        "type": "LineString",
        "coordinates": [
          [
            45.6319713,
            31.3138512
          ],
          [
            45.634278,
            31.3139978
          ],
          [
            45.6356567,
            31.3138695
          ],
          [
            45.6365204,
            31.3132554
          ],
          [
            45.6375557,
            31.3127283
          ],
          [
            45.6383765,
            31.311885
          ],
          [
            45.6400502,
            31.3109959
          ],
          [
            45.6406402,
            31.3106522
          ],
          [
            45.6412786,
            31.3098455
          ],
          [
            45.6417882,
            31.3096393
          ],
          [
            45.6424534,
            31.3096393
          ],
          [
            45.6431615,
            31.3098685
          ],
          [
            45.6441271,
            31.3105193
          ],
          [
            45.6451678,
            31.3115734
          ],
          [
            45.6457686,
            31.3127742
          ],
          [
            45.6462407,
            31.3141766
          ],
          [
            45.646863,
            31.315249
          ],
          [
            45.6484723,
            31.3172654
          ],
          [
            45.6509828,
            31.3202809
          ],
          [
            45.6515515,
            31.32106
          ],
          [
            45.6520021,
            31.3220406
          ],
          [
            45.6520772,
            31.3228013
          ],
          [
            45.6518304,
            31.3236995
          ],
          [
            45.6517661,
            31.3247352
          ],
          [
            45.6516051,
            31.3254867
          ],
          [
            45.6506717,
            31.3272188
          ],
          [
            45.6501782,
            31.3283003
          ],
          [
            45.6496417,
            31.3297299
          ],
          [
            45.6493842,
            31.3306464
          ],
          [
            45.6491482,
            31.3313337
          ],
          [
            45.6487512,
            31.3317827
          ],
          [
            45.6478715,
            31.3322501
          ],
          [
            45.6465304,
            31.3328275
          ],
          [
            45.6457257,
            31.3335881
          ],
          [
            45.6451356,
            31.3344495
          ],
          [
            45.6445455,
            31.3353842
          ],
          [
            45.6435907,
            31.335989
          ],
          [
            45.6422174,
            31.336603
          ],
          [
            45.6405544,
            31.3369146
          ],
          [
            45.6395459,
            31.3370337
          ],
          [
            45.6387091,
            31.3368046
          ],
          [
            45.6364453,
            31.3356408
          ],
          [
            45.6333876,
            31.3335881
          ],
          [
            45.6310594,
            31.3319569
          ],
          [
            45.6288707,
            31.3300049
          ],
          [
            45.6280339,
            31.3293817
          ],
          [
            45.627079,
            31.328786
          ],
          [
            45.6266284,
            31.3281811
          ],
          [
            45.6265211,
            31.3273196
          ],
          [
            45.6261241,
            31.3265406
          ],
          [
            45.6255877,
            31.3259174
          ],
          [
            45.6248796,
            31.3253126
          ],
          [
            45.6245899,
            31.3245794
          ],
          [
            45.6248581,
            31.3235529
          ],
          [
            45.6252873,
            31.3222148
          ],
          [
            45.6255984,
            31.3207942
          ],
          [
            45.62621,
            31.3187503
          ],
          [
            45.626682,
            31.3171371
          ],
          [
            45.6272399,
            31.3162755
          ],
          [
            45.6286347,
            31.3149557
          ],
          [
            45.6296486,
            31.3143095
          ],
          [
            45.6305712,
            31.3139978
          ],
          [
            45.6319713,
            31.3138512
          ]
        ]
      },
      "id": "osm-location-uruk",
      "type": "Feature",
      "properties": {
        "description": "Representative location based on OpenStreetMap",
        "location_precision": "precise",
        "title": "OSM location: Uruk",
        "link": "http://pleiades.stoa.org/places/912986/osm-location-uruk"
      }
    }
  ]
}