{
  "type": "FeatureCollection",
  "title": "Xixia Imperial Tombs",
  "id": "915149950",
  "bbox": [
    105.9257652,
    38.3830915,
    106.0131672,
    38.4580684
  ],
  "description": "The Western Xia mausoleums are located in northwestern China in the Ningxia Hui Autonomous Region. This UNESCO World Heritage Site includes nine imperial mausoleums and 250 tombs of imperial relatives and officials of China's Western Xia dynasty.",
  "names": [
    "Western Xia Imperial Tombs",
    "Western Xia Imperial Tombs"
  ],
  "features": [
    {
      "type": "Feature",
      "geometry": {
        "type": "Point",
        "coordinates": [
          105.971948742,
          38.422054117
        ]
      },
      "properties": {
        "description": "representative point"
      }
    },
    {
      "geometry": {
        "type": "LineString",
        "coordinates": [
          [
            106.0042367,
            38.4398692
          ],
          [
            106.007645,
            38.4427523
          ],
          [
            106.0083241,
            38.4425949
          ],
          [
            106.008681,
            38.4433645
          ],
          [
            106.0084907,
            38.4434154
          ],
          [
            106.0097133,
            38.4456904
          ],
          [
            106.0105716,
            38.4479793
          ],
          [
            106.0121478,
            38.4510473
          ],
          [
            106.0121596,
            38.4514454
          ],
          [
            106.0131672,
            38.4535313
          ],
          [
            106.0097633,
            38.454856
          ],
          [
            106.0091661,
            38.454727
          ],
          [
            106.0034668,
            38.4544572
          ],
          [
            106.0033309,
            38.4539841
          ],
          [
            106.0024669,
            38.4541147
          ],
          [
            106.0025886,
            38.4545895
          ],
          [
            105.9932937,
            38.455848
          ],
          [
            105.992677,
            38.4577218
          ],
          [
            105.9876777,
            38.4580684
          ],
          [
            105.9833827,
            38.4575064
          ],
          [
            105.9807831,
            38.4566595
          ],
          [
            105.9795946,
            38.4546734
          ],
          [
            105.9786814,
            38.4533386
          ],
          [
            105.9783934,
            38.4520564
          ],
          [
            105.9777454,
            38.4510981
          ],
          [
            105.9777751,
            38.4503984
          ],
          [
            105.9770575,
            38.4502285
          ],
          [
            105.9770285,
            38.4492107
          ],
          [
            105.9767514,
            38.4472302
          ],
          [
            105.9763878,
            38.4469355
          ],
          [
            105.9762971,
            38.4458591
          ],
          [
            105.9758585,
            38.4454901
          ],
          [
            105.9737955,
            38.4451107
          ],
          [
            105.9678414,
            38.4429529
          ],
          [
            105.9629014,
            38.4412811
          ],
          [
            105.9596868,
            38.4402345
          ],
          [
            105.9599742,
            38.4385447
          ],
          [
            105.9564762,
            38.4345344
          ],
          [
            105.9540577,
            38.4316388
          ],
          [
            105.9524375,
            38.4300206
          ],
          [
            105.9513485,
            38.4271448
          ],
          [
            105.9537709,
            38.4256188
          ],
          [
            105.9550488,
            38.4162438
          ],
          [
            105.9503819,
            38.4149879
          ],
          [
            105.9396753,
            38.4137472
          ],
          [
            105.9312656,
            38.4153978
          ],
          [
            105.9257652,
            38.4100061
          ],
          [
            105.9346101,
            38.4039577
          ],
          [
            105.9494254,
            38.3959573
          ],
          [
            105.965173,
            38.3874607
          ],
          [
            105.9733328,
            38.3830915
          ],
          [
            105.9799231,
            38.384537
          ],
          [
            105.9801309,
            38.385005
          ],
          [
            105.982271,
            38.3857248
          ],
          [
            105.9870526,
            38.3957326
          ],
          [
            105.9864963,
            38.3980759
          ],
          [
            105.986914,
            38.4050271
          ],
          [
            105.9913795,
            38.4221737
          ],
          [
            105.9988725,
            38.4319742
          ],
          [
            106.0042367,
            38.4398692
          ]
        ]
      },
      "id": "osm-location-of-xixia-imperial-tombs",
      "type": "Feature",
      "properties": {
        "description": "Representative location based on OpenStreetMap",
        "location_precision": "precise",
        "title": "OSM location of Xixia Imperial Tombs",
        "link": "http://pleiades.stoa.org/places/915149950/osm-location-of-xixia-imperial-tombs"
      }
    }
  ]
}