{
  "type": "FeatureCollection",
  "title": "Teredon/Diridotis",
  "id": "915902",
  "description": "Unlocated ancient port city in southern Mesopotamia",
  "names": [
    "Teredon",
    "Diridotis",
    "Teredonos"
  ],
  "features": [
    {
      "type": "Feature",
      "geometry": null,
      "properties": {
        "description": "representative point"
      }
    },
    {
      "geometry": null,
      "id": "batlas-location",
      "type": "Feature",
      "properties": {
        "description": null,
        "location_precision": "unlocated",
        "title": "Barrington Atlas location",
        "link": "http://pleiades.stoa.org/places/915902/batlas-location"
      }
    }
  ]
}