{
  "type": "FeatureCollection",
  "title": "Ani city wall",
  "id": "916890383",
  "bbox": [
    43.5689503,
    40.5099352,
    43.5763479,
    40.5122602
  ],
  "description": "Defensive walls attributed to King Smbat in the tenth century.",
  "connectsWith": [
    "863739"
  ],
  "features": [
    {
      "type": "Feature",
      "geometry": {
        "type": "Point",
        "coordinates": [
          43.5726424554,
          40.5114669163
        ]
      },
      "properties": {
        "description": "representative point"
      }
    },
    {
      "geometry": {
        "type": "LineString",
        "coordinates": [
          [
            43.5763479,
            40.5099352
          ],
          [
            43.5759205,
            40.5101499
          ],
          [
            43.5754833,
            40.5104265
          ],
          [
            43.5755048,
            40.5108221
          ],
          [
            43.5751346,
            40.510871
          ],
          [
            43.5737624,
            40.5114135
          ],
          [
            43.5727306,
            40.5117834
          ],
          [
            43.572378,
            40.511793
          ],
          [
            43.5715623,
            40.5118168
          ],
          [
            43.571049,
            40.5119379
          ],
          [
            43.5705348,
            40.5122255
          ],
          [
            43.5703895,
            40.5122602
          ],
          [
            43.5693847,
            40.5121845
          ],
          [
            43.5694138,
            40.5116857
          ],
          [
            43.5689503,
            40.5117316
          ]
        ]
      },
      "id": "osm-location-of-city-wall",
      "type": "Feature",
      "properties": {
        "description": "Representative location based on OpenStreetMap.",
        "location_precision": "precise",
        "title": "OSM location of city wall",
        "link": "http://pleiades.stoa.org/places/916890383/osm-location-of-city-wall"
      }
    }
  ]
}