{
  "type": "FeatureCollection",
  "title": "Camulossesa Praesidium",
  "id": "92125",
  "description": "An ancient place mentioned by the Ravenna Cosmographer. Rivet and Smith (whence BAtlas) consider it unlocated in southern Scotland. RENames tentatively identifies it with the Roman fortlet now known as \"Gatehouse of Fleet\" and nearby hillfort now known as Trusty's Hill (q.v.).",
  "connectsWith": [
    "949375108"
  ],
  "names": [
    "Camulossesa Praesidium",
    "Camulosessa Presidium"
  ],
  "features": [
    {
      "type": "Feature",
      "geometry": null,
      "properties": {
        "description": "representative point"
      }
    },
    {
      "geometry": null,
      "id": "undetermined",
      "type": "Feature",
      "properties": {
        "description": null,
        "location_precision": "unlocated",
        "title": "Undetermined location",
        "link": "http://pleiades.stoa.org/places/92125/undetermined"
      }
    }
  ]
}