{
  "type": "FeatureCollection",
  "title": "Veh Shapur/Bishapur",
  "id": "922740",
  "bbox": [
    51.5623026,
    29.7694767,
    51.5794264,
    29.7838435
  ],
  "description": "Veh Shapur/Bishapur was an ancient city in Iran on the ancient road between Persis and Elam. This ancient and medieval town in Fārs was, in the Sasanian period, the administrative center of one of the five districts in the province of Fārs.",
  "connectsWith": [
    "410216617"
  ],
  "names": [
    "Veh Shapur",
    "Bishapur"
  ],
  "features": [
    {
      "type": "Feature",
      "geometry": {
        "type": "Point",
        "coordinates": [
          51.5709392664,
          29.7776349537
        ]
      },
      "properties": {
        "description": "representative point"
      }
    },
    {
      "geometry": {
        "type": "Point",
        "coordinates": [
          51.5711816,
          29.778045
        ]
      },
      "id": "osm-location-of-bishapur",
      "type": "Feature",
      "properties": {
        "description": "Representative location based on OpenStreetMap.",
        "location_precision": "precise",
        "title": "OSM location of Bishapur",
        "link": "http://pleiades.stoa.org/places/922740/osm-location-of-bishapur"
      }
    },
    {
      "geometry": {
        "type": "Point",
        "coordinates": [
          51.570833,
          29.777778
        ]
      },
      "id": "dare-location",
      "type": "Feature",
      "properties": {
        "description": "Representative point location, site precision",
        "location_precision": "precise",
        "title": "DARE Location",
        "link": "http://pleiades.stoa.org/places/922740/dare-location"
      }
    },
    {
      "geometry": {
        "type": "LineString",
        "coordinates": [
          [
            51.5758443,
            29.7814463
          ],
          [
            51.5763962,
            29.7816858
          ],
          [
            51.5769709,
            29.7819411
          ],
          [
            51.5771488,
            29.7814977
          ],
          [
            51.5768926,
            29.7813068
          ],
          [
            51.5768948,
            29.7812069
          ],
          [
            51.5768938,
            29.7811834
          ],
          [
            51.5768959,
            29.7811478
          ],
          [
            51.5768971,
            29.7811247
          ],
          [
            51.5776041,
            29.7808011
          ],
          [
            51.5777913,
            29.7804938
          ],
          [
            51.5784982,
            29.7791656
          ],
          [
            51.5789589,
            29.7782947
          ],
          [
            51.5791938,
            29.7778019
          ],
          [
            51.5794264,
            29.7772516
          ],
          [
            51.5791254,
            29.7771328
          ],
          [
            51.5788015,
            29.7769487
          ],
          [
            51.5777388,
            29.7761926
          ],
          [
            51.576537,
            29.7753553
          ],
          [
            51.5756476,
            29.7746942
          ],
          [
            51.5746426,
            29.7739804
          ],
          [
            51.5729616,
            29.7728333
          ],
          [
            51.5728036,
            29.7727325
          ],
          [
            51.5725875,
            29.7725729
          ],
          [
            51.5718909,
            29.7721558
          ],
          [
            51.5705847,
            29.7711984
          ],
          [
            51.5686626,
            29.7697875
          ],
          [
            51.5682498,
            29.7694767
          ],
          [
            51.5672855,
            29.7697623
          ],
          [
            51.5669629,
            29.7701598
          ],
          [
            51.5665372,
            29.7707477
          ],
          [
            51.5661857,
            29.7710892
          ],
          [
            51.5656213,
            29.7718115
          ],
          [
            51.5651698,
            29.7723322
          ],
          [
            51.5650988,
            29.7723742
          ],
          [
            51.564499,
            29.7730712
          ],
          [
            51.5641797,
            29.7734855
          ],
          [
            51.5639572,
            29.7738075
          ],
          [
            51.5637941,
            29.7740647
          ],
          [
            51.5634748,
            29.7744447
          ],
          [
            51.5626082,
            29.7754523
          ],
          [
            51.5623026,
            29.7758343
          ],
          [
            51.5644385,
            29.7783236
          ],
          [
            51.5653802,
            29.7784244
          ],
          [
            51.5677797,
            29.782276
          ],
          [
            51.5687214,
            29.783071
          ],
          [
            51.5700372,
            29.7834517
          ],
          [
            51.5708113,
            29.7838435
          ],
          [
            51.5717143,
            29.783586
          ],
          [
            51.5724238,
            29.7828583
          ],
          [
            51.5725681,
            29.7825288
          ],
          [
            51.5724951,
            29.781931
          ],
          [
            51.5727186,
            29.7816302
          ],
          [
            51.5733069,
            29.7813452
          ],
          [
            51.5739409,
            29.781266
          ],
          [
            51.5758443,
            29.7814463
          ]
        ]
      },
      "id": "osm-location-of-ancient-city-of-bishapur",
      "type": "Feature",
      "properties": {
        "description": "Representative location based on OpenStreetMap",
        "location_precision": "precise",
        "title": "OSM location of Ancient City of Bishapur",
        "link": "http://pleiades.stoa.org/places/922740/osm-location-of-ancient-city-of-bishapur"
      }
    }
  ]
}