{
  "type": "FeatureCollection",
  "title": "Via Gemina",
  "id": "926322241",
  "bbox": [
    13.370946,
    44.178662,
    15.665495,
    46.051425
  ],
  "description": "The Via Gemina was a Roman road linking Aquileia and Emona.",
  "features": [
    {
      "type": "Feature",
      "geometry": {
        "type": "Point",
        "coordinates": [
          14.2621211,
          45.4458737
        ]
      },
      "properties": {
        "description": "representative point"
      }
    }
  ]
}