{
  "type": "FeatureCollection",
  "title": "Haltwhistle Burn Roman Fortlet and Camp",
  "id": "9324677",
  "bbox": [
    -2.4565918,
    54.9838346,
    -2.447683,
    54.9891
  ],
  "description": "Site of Roman fortlet and temporary camp. The fortlet guarded the crossing of the Burn by the Stanegate. It pre-dates the construction of Hadrian's Wall, which passes 0.5 km to the north.",
  "connectsWith": [
    "506349985"
  ],
  "names": [
    "Gabaglanda",
    "Haltwhistle Burn Roman Fortlet and Camp"
  ],
  "features": [
    {
      "type": "Feature",
      "geometry": {
        "type": "Point",
        "coordinates": [
          -2.4519674185500002,
          54.9865353466
        ]
      },
      "properties": {
        "description": "representative point"
      }
    },
    {
      "geometry": {
        "type": "Point",
        "coordinates": [
          -2.447683,
          54.9891
        ]
      },
      "id": "center-point-of-fortlet",
      "type": "Feature",
      "properties": {
        "description": "After Historic England, verified with Google Maps imagery.",
        "location_precision": "precise",
        "title": "Imagery location of center point of fortlet",
        "link": "http://pleiades.stoa.org/places/9324677/center-point-of-fortlet"
      }
    },
    {
      "geometry": {
        "type": "LineString",
        "coordinates": [
          [
            -2.4564147,
            54.9840809
          ],
          [
            -2.4561572,
            54.9840716
          ],
          [
            -2.4560499,
            54.984087
          ],
          [
            -2.4558944,
            54.9840562
          ],
          [
            -2.4559158,
            54.9840039
          ],
          [
            -2.4559587,
            54.9839577
          ],
          [
            -2.4560178,
            54.9839023
          ],
          [
            -2.4561358,
            54.9838746
          ],
          [
            -2.4562592,
            54.9838469
          ],
          [
            -2.4564094,
            54.9838346
          ],
          [
            -2.4565542,
            54.9838562
          ],
          [
            -2.4565918,
            54.9839885
          ],
          [
            -2.4564147,
            54.9840809
          ]
        ]
      },
      "id": "osm-location-of-haltwhistle-burn-roman-fortlet",
      "type": "Feature",
      "properties": {
        "description": "Representative location based on OpenStreetMap",
        "location_precision": "precise",
        "title": "OSM location of Haltwhistle Burn Roman fortlet",
        "link": "http://pleiades.stoa.org/places/9324677/osm-location-of-haltwhistle-burn-roman-fortlet"
      }
    }
  ]
}