{
  "type": "FeatureCollection",
  "title": "ed-Dur",
  "id": "932474",
  "bbox": [
    55.626111,
    25.522222,
    55.626111,
    25.522222
  ],
  "description": "Remains of an ancient coastal settlement located between modern Al-Raafah and Al Ramlah in the United Arab Emirates. It is possibly to be identified with ancient Omana, mentioned in Roman sources.",
  "names": [
    "Omana",
    "ʿUmmān"
  ],
  "features": [
    {
      "type": "Feature",
      "geometry": {
        "type": "Point",
        "coordinates": [
          55.626111,
          25.522222
        ]
      },
      "properties": {
        "description": "representative point"
      }
    },
    {
      "geometry": {
        "type": "Point",
        "coordinates": [
          55.626111,
          25.522222
        ]
      },
      "id": "wikipedia-location-of-ed-dur",
      "type": "Feature",
      "properties": {
        "description": "Coordinates following GeoHack",
        "location_precision": "precise",
        "title": "Imagery location of Ed-Dur",
        "link": "http://pleiades.stoa.org/places/932474/wikipedia-location-of-ed-dur"
      }
    }
  ]
}