{
  "type": "FeatureCollection",
  "title": "Harappa",
  "id": "93441396",
  "bbox": [
    72.8604046,
    30.6251117,
    72.8725507,
    30.6347377
  ],
  "description": "A Bronze Age fortified city located on the Ravi River, inhabited from the fourth through the second millennia BCE, Harappa was one of the most important settlements of the Indus Valley Civilization.",
  "connectsWith": [
    "59838"
  ],
  "names": [
    "Harappa",
    "Harappa"
  ],
  "features": [
    {
      "type": "Feature",
      "geometry": {
        "type": "Point",
        "coordinates": [
          72.8652574983,
          30.6296176543
        ]
      },
      "properties": {
        "description": "representative point"
      }
    },
    {
      "geometry": {
        "type": "LineString",
        "coordinates": [
          [
            72.8604046,
            30.6342078
          ],
          [
            72.8610931,
            30.6342113
          ],
          [
            72.8610816,
            30.6347377
          ],
          [
            72.8631498,
            30.6347326
          ],
          [
            72.8631604,
            30.6340308
          ],
          [
            72.8635632,
            30.6336814
          ],
          [
            72.8652545,
            30.6336729
          ],
          [
            72.8652615,
            30.6335329
          ],
          [
            72.8668051,
            30.6335329
          ],
          [
            72.8669385,
            30.6329836
          ],
          [
            72.8662989,
            30.6328578
          ],
          [
            72.8662657,
            30.6326824
          ],
          [
            72.8656513,
            30.6326229
          ],
          [
            72.8656894,
            30.6320451
          ],
          [
            72.8659841,
            30.6320792
          ],
          [
            72.8659968,
            30.6314993
          ],
          [
            72.8661591,
            30.6314291
          ],
          [
            72.8661885,
            30.6309589
          ],
          [
            72.8666692,
            30.6309671
          ],
          [
            72.8667205,
            30.6310693
          ],
          [
            72.8672987,
            30.6310513
          ],
          [
            72.8672235,
            30.6303131
          ],
          [
            72.8673338,
            30.6303078
          ],
          [
            72.8673458,
            30.630417
          ],
          [
            72.8679054,
            30.6303545
          ],
          [
            72.8680462,
            30.6302189
          ],
          [
            72.8680509,
            30.6300982
          ],
          [
            72.868255,
            30.6299845
          ],
          [
            72.8682593,
            30.629515
          ],
          [
            72.8686866,
            30.6295548
          ],
          [
            72.8687207,
            30.6295122
          ],
          [
            72.8687235,
            30.6293901
          ],
          [
            72.8687597,
            30.6293535
          ],
          [
            72.8689853,
            30.6293775
          ],
          [
            72.8690142,
            30.6293459
          ],
          [
            72.8690098,
            30.6287787
          ],
          [
            72.8691438,
            30.6287213
          ],
          [
            72.8693905,
            30.6287382
          ],
          [
            72.8694065,
            30.6286642
          ],
          [
            72.8695675,
            30.628472
          ],
          [
            72.8701342,
            30.62847
          ],
          [
            72.8710272,
            30.6285306
          ],
          [
            72.8718426,
            30.6281798
          ],
          [
            72.8723576,
            30.6277921
          ],
          [
            72.8725507,
            30.6272935
          ],
          [
            72.8725507,
            30.627072
          ],
          [
            72.8721001,
            30.6268504
          ],
          [
            72.8705552,
            30.6262041
          ],
          [
            72.8673794,
            30.6253548
          ],
          [
            72.8669612,
            30.6251117
          ],
          [
            72.8667173,
            30.6257974
          ],
          [
            72.8639365,
            30.6253216
          ],
          [
            72.8639418,
            30.6260918
          ],
          [
            72.8611766,
            30.6260843
          ],
          [
            72.8611104,
            30.6265987
          ],
          [
            72.8610598,
            30.626624
          ],
          [
            72.8604486,
            30.6266166
          ],
          [
            72.8604546,
            30.6284085
          ],
          [
            72.8604925,
            30.6294361
          ],
          [
            72.8604927,
            30.629798
          ],
          [
            72.861583,
            30.6299568
          ],
          [
            72.8615171,
            30.6315919
          ],
          [
            72.8613231,
            30.6315238
          ],
          [
            72.8609723,
            30.6314993
          ],
          [
            72.8608171,
            30.6325914
          ],
          [
            72.8604088,
            30.6325856
          ],
          [
            72.8604046,
            30.6342078
          ]
        ]
      },
      "id": "harappa",
      "type": "Feature",
      "properties": {
        "description": "Polygon representing the boundaries of the archaeological site of Harappa, derived from an OpenStreetMap Way.",
        "location_precision": "precise",
        "title": "OSM location of Harappa",
        "link": "http://pleiades.stoa.org/places/93441396/harappa"
      }
    }
  ]
}