{
  "type": "FeatureCollection",
  "title": "Rocca Calascio",
  "id": "936115714",
  "bbox": [
    13.6887009,
    42.3287532,
    13.6890594,
    42.329035
  ],
  "description": "A tenth-century fortress located in the Province of L'Aquila in Abruzzo, Italy.",
  "names": [
    "Castle of Rocca Calascio"
  ],
  "features": [
    {
      "type": "Feature",
      "geometry": {
        "type": "Point",
        "coordinates": [
          13.6888790127,
          42.3288972549
        ]
      },
      "properties": {
        "description": "representative point"
      }
    },
    {
      "geometry": {
        "type": "LineString",
        "coordinates": [
          [
            13.6887877,
            42.3289834
          ],
          [
            13.6887468,
            42.3288499
          ],
          [
            13.688738,
            42.3288514
          ],
          [
            13.6887125,
            42.3288451
          ],
          [
            13.6887009,
            42.3288264
          ],
          [
            13.688712,
            42.3288075
          ],
          [
            13.6887371,
            42.3288009
          ],
          [
            13.6887601,
            42.3288089
          ],
          [
            13.6887691,
            42.3288233
          ],
          [
            13.6889312,
            42.3287962
          ],
          [
            13.6889221,
            42.3287795
          ],
          [
            13.6889318,
            42.3287611
          ],
          [
            13.6889563,
            42.3287532
          ],
          [
            13.6889812,
            42.3287605
          ],
          [
            13.6889917,
            42.3287788
          ],
          [
            13.6889817,
            42.3287971
          ],
          [
            13.6889568,
            42.3288047
          ],
          [
            13.6889743,
            42.3288647
          ],
          [
            13.6889784,
            42.3288775
          ],
          [
            13.6890016,
            42.328951
          ],
          [
            13.6890239,
            42.3289446
          ],
          [
            13.6890487,
            42.3289518
          ],
          [
            13.6890594,
            42.32897
          ],
          [
            13.6890494,
            42.3289884
          ],
          [
            13.6890248,
            42.3289961
          ],
          [
            13.6890001,
            42.3289887
          ],
          [
            13.6889898,
            42.3289716
          ],
          [
            13.6888441,
            42.328996
          ],
          [
            13.6888192,
            42.3290002
          ],
          [
            13.6888214,
            42.3290083
          ],
          [
            13.6888117,
            42.3290271
          ],
          [
            13.6887866,
            42.329035
          ],
          [
            13.6887617,
            42.3290272
          ],
          [
            13.6887518,
            42.329009
          ],
          [
            13.6887619,
            42.3289911
          ],
          [
            13.6887877,
            42.3289834
          ]
        ]
      },
      "id": "osm-location",
      "type": "Feature",
      "properties": {
        "description": "Representative location based on OpenStreetMap.",
        "location_precision": "precise",
        "title": "OSM location of Rocca Calascio",
        "link": "http://pleiades.stoa.org/places/936115714/osm-location"
      }
    }
  ]
}