{
  "type": "FeatureCollection",
  "title": "Regio IX (Circus Flaminius)",
  "id": "936873471",
  "bbox": [
    12.4736477,
    41.8912591,
    12.4803659,
    41.8999143
  ],
  "description": "The ninth administrative region of the city of Rome was created under the Augustan reforms of 7 BCE. According to the Notitia et Curiosum, this region contained 35 shrines (aediculae), 140 townhouses (domūs), 25 warehouses (horrea), 63 bathhouses, and 120 fountains). The region was subdivided into 35 vici (districts) and 2,777 insulae (blocks). It had two curators and 48 Roman magistrates.",
  "features": [
    {
      "type": "Feature",
      "geometry": {
        "type": "Point",
        "coordinates": [
          12.4780722538,
          41.8962033946
        ]
      },
      "properties": {
        "description": "representative point"
      }
    }
  ]
}