{
  "type": "FeatureCollection",
  "title": "Lechlade Roman villa",
  "id": "957554023",
  "bbox": [
    -1.688814,
    51.706158,
    -1.688814,
    51.706158
  ],
  "description": "A Roman villa partially excavated in 1957 and 1959 by Margaret Jones and in 1981-2 by Tim Allen near Roughground Farm.",
  "features": [
    {
      "type": "Feature",
      "geometry": {
        "type": "Point",
        "coordinates": [
          -1.688814,
          51.706158
        ]
      },
      "properties": {
        "description": "representative point"
      }
    },
    {
      "geometry": {
        "type": "Point",
        "coordinates": [
          -1.688814,
          51.706158
        ]
      },
      "id": "dare-location-lechlade",
      "type": "Feature",
      "properties": {
        "description": null,
        "location_precision": "precise",
        "title": "DARE Location: Lechlade",
        "link": "http://pleiades.stoa.org/places/957554023/dare-location-lechlade"
      }
    }
  ]
}