{
  "type": "FeatureCollection",
  "title": "Circus at Lepcis Magna",
  "id": "960592954",
  "bbox": [
    14.3080117,
    32.632084,
    14.3129118,
    32.6341274
  ],
  "description": "The Circus at Lepcis Magna is located to the southeast of the city and measures ca. 100 x 450 m.",
  "connectsWith": [
    "344448"
  ],
  "features": [
    {
      "type": "Feature",
      "geometry": {
        "type": "Point",
        "coordinates": [
          14.3104602129,
          32.6330905939
        ]
      },
      "properties": {
        "description": "representative point"
      }
    },
    {
      "geometry": {
        "type": "LineString",
        "coordinates": [
          [
            14.3083501,
            32.6341274
          ],
          [
            14.3080117,
            32.6333628
          ],
          [
            14.3091409,
            32.6330272
          ],
          [
            14.309183,
            32.6330144
          ],
          [
            14.3112904,
            32.6323772
          ],
          [
            14.3122537,
            32.6320876
          ],
          [
            14.3124409,
            32.632084
          ],
          [
            14.3126188,
            32.6321331
          ],
          [
            14.3127673,
            32.6322292
          ],
          [
            14.3128693,
            32.6323614
          ],
          [
            14.3129118,
            32.6324997
          ],
          [
            14.3129026,
            32.6326424
          ],
          [
            14.3128427,
            32.6327761
          ],
          [
            14.3127376,
            32.6328882
          ],
          [
            14.3125972,
            32.6329684
          ],
          [
            14.3084968,
            32.6340906
          ],
          [
            14.3083501,
            32.6341274
          ]
        ]
      },
      "id": "location-of-circus",
      "type": "Feature",
      "properties": {
        "description": "Representative location based on OpenStreetMap.",
        "location_precision": "precise",
        "title": "OSM location of Circus of Lepcis Magna",
        "link": "http://pleiades.stoa.org/places/960592954/location-of-circus"
      }
    }
  ]
}