{
  "type": "FeatureCollection",
  "title": "Alan tepe",
  "id": "961872",
  "bbox": [
    62.380867,
    37.274989,
    62.380867,
    37.274989
  ],
  "description": "An ancient place, cited: BAtlas 98 C1 Alan tepe",
  "features": [
    {
      "type": "Feature",
      "geometry": {
        "type": "Point",
        "coordinates": [
          62.380867,
          37.274989
        ]
      },
      "properties": {
        "description": "representative point"
      }
    },
    {
      "geometry": {
        "type": "Point",
        "coordinates": [
          62.380867,
          37.274989
        ]
      },
      "id": "darmc-location-22986",
      "type": "Feature",
      "properties": {
        "description": "Representative point location digitized from the Barrington Atlas of the Greek and Roman World by the Digital Atlas of Roman and Medieval Civilizations project at Harvard University.",
        "location_precision": "precise",
        "title": "DARMC location 22986",
        "link": "http://pleiades.stoa.org/places/961872/darmc-location-22986"
      }
    }
  ]
}