{
  "type": "FeatureCollection",
  "title": "Kumsar",
  "id": "961929",
  "bbox": [
    66.842148,
    37.064185,
    66.842148,
    37.064185
  ],
  "description": "An ancient place, cited: BAtlas 98 G1 Kumsar",
  "features": [
    {
      "type": "Feature",
      "geometry": {
        "type": "Point",
        "coordinates": [
          66.842148,
          37.064185
        ]
      },
      "properties": {
        "description": "representative point"
      }
    },
    {
      "geometry": {
        "type": "Point",
        "coordinates": [
          66.842148,
          37.064185
        ]
      },
      "id": "darmc-location-21752",
      "type": "Feature",
      "properties": {
        "description": "Representative point location digitized from the Barrington Atlas of the Greek and Roman World by the Digital Atlas of Roman and Medieval Civilizations project at Harvard University.",
        "location_precision": "precise",
        "title": "DARMC location 21752",
        "link": "http://pleiades.stoa.org/places/961929/darmc-location-21752"
      }
    }
  ]
}