{
  "type": "FeatureCollection",
  "title": "Shurob kurgan",
  "id": "961965",
  "bbox": [
    67.04904,
    37.401575,
    67.04904,
    37.401575
  ],
  "description": "An ancient place, cited: BAtlas 98 H1 Shurob kurgan",
  "features": [
    {
      "type": "Feature",
      "geometry": {
        "type": "Point",
        "coordinates": [
          67.04904,
          37.401575
        ]
      },
      "properties": {
        "description": "representative point"
      }
    },
    {
      "geometry": {
        "type": "Point",
        "coordinates": [
          67.04904,
          37.401575
        ]
      },
      "id": "darmc-location-21218",
      "type": "Feature",
      "properties": {
        "description": "Representative point location digitized from the Barrington Atlas of the Greek and Roman World by the Digital Atlas of Roman and Medieval Civilizations project at Harvard University.",
        "location_precision": "precise",
        "title": "DARMC location 21218",
        "link": "http://pleiades.stoa.org/places/961965/darmc-location-21218"
      }
    }
  ]
}