{
  "type": "FeatureCollection",
  "title": "Tilla tepe",
  "id": "961968",
  "bbox": [
    65.742756,
    36.667217,
    65.742756,
    36.667217
  ],
  "description": "An ancient place, cited: BAtlas 98 F2 Tilla tepe",
  "features": [
    {
      "type": "Feature",
      "geometry": {
        "type": "Point",
        "coordinates": [
          65.742756,
          36.667217
        ]
      },
      "properties": {
        "description": "representative point"
      }
    },
    {
      "geometry": {
        "type": "Point",
        "coordinates": [
          65.742756,
          36.667217
        ]
      },
      "id": "darmc-location-21220",
      "type": "Feature",
      "properties": {
        "description": "Representative point location digitized from the Barrington Atlas of the Greek and Roman World by the Digital Atlas of Roman and Medieval Civilizations project at Harvard University.",
        "location_precision": "precise",
        "title": "DARMC location 21220",
        "link": "http://pleiades.stoa.org/places/961968/darmc-location-21220"
      }
    }
  ]
}