{
  "type": "FeatureCollection",
  "title": "Dilbarjin",
  "id": "961901",
  "bbox": [
    66.5238064,
    37.020816,
    66.528967,
    37.0247563
  ],
  "description": "Dilbarjin is an ancient city of northern Afghanistan. The site may have been founded under the Achaemenid Empire. Under the Kushan Empire, the site was a fortified local center of some importance.",
  "features": [
    {
      "type": "Feature",
      "geometry": {
        "type": "Point",
        "coordinates": [
          66.5263711,
          37.0227705625
        ]
      },
      "properties": {
        "description": "representative point"
      }
    },
    {
      "geometry": {
        "type": "LineString",
        "coordinates": [
          [
            66.5238064,
            37.0245678
          ],
          [
            66.5241712,
            37.020816
          ],
          [
            66.528967,
            37.0209788
          ],
          [
            66.5285164,
            37.0247563
          ],
          [
            66.5238064,
            37.0245678
          ]
        ]
      },
      "id": "osm-location-of-dilbarjin",
      "type": "Feature",
      "properties": {
        "description": "Representative location based on OpenStreetMap.",
        "location_precision": "precise",
        "title": "OSM location of Dilbarjin",
        "link": "http://pleiades.stoa.org/places/961901/osm-location-of-dilbarjin"
      }
    }
  ]
}