{
  "type": "FeatureCollection",
  "title": "Iron Gate (Central Asia)",
  "id": "962627",
  "bbox": [
    66.9068,
    38.2216,
    66.9068,
    38.2216
  ],
  "description": "A pass through the Hissar mountains in modern Uzbekistan, located just west of the village of Darband/Derbent.",
  "names": [
    "Darband",
    "Derbent",
    "Derbent",
    "Darband",
    "Iron Gate",
    "Zheleznyye vorota",
    "Tiě mén guān"
  ],
  "features": [
    {
      "type": "Feature",
      "geometry": {
        "type": "Point",
        "coordinates": [
          66.9068,
          38.2216
        ]
      },
      "properties": {
        "description": "representative point"
      }
    },
    {
      "geometry": {
        "type": "Point",
        "coordinates": [
          66.9068,
          38.2216
        ]
      },
      "id": "geohack-location",
      "type": "Feature",
      "properties": {
        "description": "Coordinates following GeoHack",
        "location_precision": "precise",
        "title": "Geohack Location: Iron Gate (Central Asia)",
        "link": "http://pleiades.stoa.org/places/962627/geohack-location"
      }
    }
  ]
}