{
  "type": "FeatureCollection",
  "title": "Unnamed villa",
  "id": "963101349",
  "bbox": [
    10.291956,
    33.70173,
    10.291956,
    33.70173
  ],
  "description": "An unnamed villa of Tripolitana",
  "features": [
    {
      "type": "Feature",
      "geometry": {
        "type": "Point",
        "coordinates": [
          10.291956,
          33.70173
        ]
      },
      "properties": {
        "description": "representative point"
      }
    },
    {
      "geometry": {
        "type": "Point",
        "coordinates": [
          10.291956,
          33.70173
        ]
      },
      "id": "darmc-location-26862",
      "type": "Feature",
      "properties": {
        "description": "1:500,000 scale representative point location digitized from the Barrington Atlas of the Greek and Roman World by the Digital Atlas of Roman and Medieval Civilizations project at Harvard University.",
        "location_precision": "precise",
        "title": "DARMC location 26862",
        "link": "http://pleiades.stoa.org/places/963101349/darmc-location-26862"
      }
    }
  ]
}