{
  "type": "FeatureCollection",
  "title": "Unnamed villa",
  "id": "963101392",
  "bbox": [
    20.532701,
    32.47682,
    20.532701,
    32.47682
  ],
  "description": "An unnamed villa of Cyrenaica",
  "features": [
    {
      "type": "Feature",
      "geometry": {
        "type": "Point",
        "coordinates": [
          20.532701,
          32.47682
        ]
      },
      "properties": {
        "description": "representative point"
      }
    },
    {
      "geometry": {
        "type": "Point",
        "coordinates": [
          20.532701,
          32.47682
        ]
      },
      "id": "darmc-location-27070",
      "type": "Feature",
      "properties": {
        "description": "1:500,000 scale representative point location digitized from the Barrington Atlas of the Greek and Roman World by the Digital Atlas of Roman and Medieval Civilizations project at Harvard University.",
        "location_precision": "precise",
        "title": "DARMC location 27070",
        "link": "http://pleiades.stoa.org/places/963101392/darmc-location-27070"
      }
    }
  ]
}