{
  "type": "FeatureCollection",
  "title": "Unnamed place",
  "id": "963100998",
  "bbox": [
    16.239951,
    31.128116,
    16.239951,
    31.128116
  ],
  "description": "An unnamed monument, settlement, or villa of Syrtica",
  "features": [
    {
      "type": "Feature",
      "geometry": {
        "type": "Point",
        "coordinates": [
          16.239951,
          31.128116
        ]
      },
      "properties": {
        "description": "representative point"
      }
    },
    {
      "geometry": {
        "type": "Point",
        "coordinates": [
          16.239951,
          31.128116
        ]
      },
      "id": "darmc-location-27043",
      "type": "Feature",
      "properties": {
        "description": "1:500,000 scale representative point location digitized from the Barrington Atlas of the Greek and Roman World by the Digital Atlas of Roman and Medieval Civilizations project at Harvard University.",
        "location_precision": "precise",
        "title": "DARMC location 27043",
        "link": "http://pleiades.stoa.org/places/963100998/darmc-location-27043"
      }
    }
  ]
}