{
  "type": "FeatureCollection",
  "title": "Unnamed villa",
  "id": "963101184",
  "bbox": [
    13.697113,
    32.599126,
    13.697113,
    32.599126
  ],
  "description": "An unnamed villa of Tripolitana",
  "features": [
    {
      "type": "Feature",
      "geometry": {
        "type": "Point",
        "coordinates": [
          13.697113,
          32.599126
        ]
      },
      "properties": {
        "description": "representative point"
      }
    },
    {
      "geometry": {
        "type": "Point",
        "coordinates": [
          13.697113,
          32.599126
        ]
      },
      "id": "darmc-location-26944",
      "type": "Feature",
      "properties": {
        "description": "1:500,000 scale representative point location digitized from the Barrington Atlas of the Greek and Roman World by the Digital Atlas of Roman and Medieval Civilizations project at Harvard University.",
        "location_precision": "precise",
        "title": "DARMC location 26944",
        "link": "http://pleiades.stoa.org/places/963101184/darmc-location-26944"
      }
    }
  ]
}