{
  "type": "FeatureCollection",
  "title": "Unnamed villa",
  "id": "963101186",
  "bbox": [
    13.769496,
    32.624754,
    13.769496,
    32.624754
  ],
  "description": "An unnamed villa of Tripolitana",
  "features": [
    {
      "type": "Feature",
      "geometry": {
        "type": "Point",
        "coordinates": [
          13.769496,
          32.624754
        ]
      },
      "properties": {
        "description": "representative point"
      }
    },
    {
      "geometry": {
        "type": "Point",
        "coordinates": [
          13.769496,
          32.624754
        ]
      },
      "id": "darmc-location-26946",
      "type": "Feature",
      "properties": {
        "description": "1:500,000 scale representative point location digitized from the Barrington Atlas of the Greek and Roman World by the Digital Atlas of Roman and Medieval Civilizations project at Harvard University.",
        "location_precision": "precise",
        "title": "DARMC location 26946",
        "link": "http://pleiades.stoa.org/places/963101186/darmc-location-26946"
      }
    }
  ]
}