{
  "type": "FeatureCollection",
  "title": "Unnamed villa",
  "id": "963101234",
  "bbox": [
    10.168888,
    33.759355,
    10.168888,
    33.759355
  ],
  "description": "An unnamed villa of Tripolitana",
  "features": [
    {
      "type": "Feature",
      "geometry": {
        "type": "Point",
        "coordinates": [
          10.168888,
          33.759355
        ]
      },
      "properties": {
        "description": "representative point"
      }
    },
    {
      "geometry": {
        "type": "Point",
        "coordinates": [
          10.168888,
          33.759355
        ]
      },
      "id": "darmc-location-26840",
      "type": "Feature",
      "properties": {
        "description": "1:500,000 scale representative point location digitized from the Barrington Atlas of the Greek and Roman World by the Digital Atlas of Roman and Medieval Civilizations project at Harvard University.",
        "location_precision": "precise",
        "title": "DARMC location 26840",
        "link": "http://pleiades.stoa.org/places/963101234/darmc-location-26840"
      }
    }
  ]
}