{
  "type": "FeatureCollection",
  "title": "Unnamed villa",
  "id": "963101401",
  "bbox": [
    20.237901,
    30.56628,
    20.237901,
    30.56628
  ],
  "description": "An unnamed villa of Cyrenaica",
  "features": [
    {
      "type": "Feature",
      "geometry": {
        "type": "Point",
        "coordinates": [
          20.237901,
          30.56628
        ]
      },
      "properties": {
        "description": "representative point"
      }
    },
    {
      "geometry": {
        "type": "Point",
        "coordinates": [
          20.237901,
          30.56628
        ]
      },
      "id": "darmc-location-27067",
      "type": "Feature",
      "properties": {
        "description": "1:500,000 scale representative point location digitized from the Barrington Atlas of the Greek and Roman World by the Digital Atlas of Roman and Medieval Civilizations project at Harvard University.",
        "location_precision": "precise",
        "title": "DARMC location 27067",
        "link": "http://pleiades.stoa.org/places/963101401/darmc-location-27067"
      }
    }
  ]
}