{
  "type": "FeatureCollection",
  "title": "Unnamed villa",
  "id": "963101220",
  "bbox": [
    14.273982,
    31.308767,
    14.273982,
    31.308767
  ],
  "description": "An unnamed villa of Tripolitana",
  "features": [
    {
      "type": "Feature",
      "geometry": {
        "type": "Point",
        "coordinates": [
          14.273982,
          31.308767
        ]
      },
      "properties": {
        "description": "representative point"
      }
    },
    {
      "geometry": {
        "type": "Point",
        "coordinates": [
          14.273982,
          31.308767
        ]
      },
      "id": "darmc-location-26979",
      "type": "Feature",
      "properties": {
        "description": "1:500,000 scale representative point location digitized from the Barrington Atlas of the Greek and Roman World by the Digital Atlas of Roman and Medieval Civilizations project at Harvard University.",
        "location_precision": "precise",
        "title": "DARMC location 26979",
        "link": "http://pleiades.stoa.org/places/963101220/darmc-location-26979"
      }
    }
  ]
}