{
  "type": "FeatureCollection",
  "title": "Unnamed Place",
  "id": "963101382",
  "bbox": [
    14.461641,
    32.477054,
    14.461641,
    32.477054
  ],
  "description": "An unnamed place of Tripolitana",
  "features": [
    {
      "type": "Feature",
      "geometry": {
        "type": "Point",
        "coordinates": [
          14.461641,
          32.477054
        ]
      },
      "properties": {
        "description": "representative point"
      }
    },
    {
      "geometry": {
        "type": "Point",
        "coordinates": [
          14.461641,
          32.477054
        ]
      },
      "id": "darmc-location-25779",
      "type": "Feature",
      "properties": {
        "description": "1:500,000 scale representative point location digitized from the Barrington Atlas of the Greek and Roman World by the Digital Atlas of Roman and Medieval Civilizations project at Harvard University.",
        "location_precision": "precise",
        "title": "DARMC location 25779",
        "link": "http://pleiades.stoa.org/places/963101382/darmc-location-25779"
      }
    }
  ]
}