{
  "type": "FeatureCollection",
  "title": "Unnamed villa",
  "id": "963101345",
  "bbox": [
    10.667237,
    33.674756,
    10.667237,
    33.674756
  ],
  "description": "An unnamed villa of Tripolitana",
  "features": [
    {
      "type": "Feature",
      "geometry": {
        "type": "Point",
        "coordinates": [
          10.667237,
          33.674756
        ]
      },
      "properties": {
        "description": "representative point"
      }
    },
    {
      "geometry": {
        "type": "Point",
        "coordinates": [
          10.667237,
          33.674756
        ]
      },
      "id": "darmc-location-26866",
      "type": "Feature",
      "properties": {
        "description": "1:500,000 scale representative point location digitized from the Barrington Atlas of the Greek and Roman World by the Digital Atlas of Roman and Medieval Civilizations project at Harvard University.",
        "location_precision": "precise",
        "title": "DARMC location 26866",
        "link": "http://pleiades.stoa.org/places/963101345/darmc-location-26866"
      }
    }
  ]
}