{
  "type": "FeatureCollection",
  "title": "Pass of the Alpes Graiae",
  "id": "963101023",
  "bbox": [
    6.651634,
    45.116858,
    6.651634,
    45.116858
  ],
  "description": "A pass west of Segusio",
  "features": [
    {
      "type": "Feature",
      "geometry": {
        "type": "Point",
        "coordinates": [
          6.651634,
          45.116858
        ]
      },
      "properties": {
        "description": "representative point"
      }
    },
    {
      "geometry": {
        "type": "Point",
        "coordinates": [
          6.651634,
          45.116858
        ]
      },
      "id": "darmc-location-19582",
      "type": "Feature",
      "properties": {
        "description": "1:500,000 scale representative point location digitized from the Barrington Atlas of the Greek and Roman World by the Digital Atlas of Roman and Medieval Civilizations project at Harvard University.",
        "location_precision": "precise",
        "title": "DARMC location 19582",
        "link": "http://pleiades.stoa.org/places/963101023/darmc-location-19582"
      }
    }
  ]
}