{
  "type": "FeatureCollection",
  "title": "Metalli Dardanici",
  "id": "963101097",
  "bbox": [
    20.652755,
    43.243891,
    20.652755,
    43.243891
  ],
  "description": "A mine of the Metalli Dardanici group",
  "features": [
    {
      "type": "Feature",
      "geometry": {
        "type": "Point",
        "coordinates": [
          20.652755,
          43.243891
        ]
      },
      "properties": {
        "description": "representative point"
      }
    },
    {
      "geometry": {
        "type": "Point",
        "coordinates": [
          20.652755,
          43.243891
        ]
      },
      "id": "darmc-location-18797",
      "type": "Feature",
      "properties": {
        "description": "1:1 million scale representative point location digitized from the Barrington Atlas of the Greek and Roman World by the Digital Atlas of Roman and Medieval Civilizations project at Harvard University.",
        "location_precision": "precise",
        "title": "DARMC location 18797",
        "link": "http://pleiades.stoa.org/places/963101097/darmc-location-18797"
      }
    }
  ]
}