{
  "type": "FeatureCollection",
  "title": "Unnamed villa",
  "id": "963101285",
  "bbox": [
    10.314191,
    33.585087,
    10.314191,
    33.585087
  ],
  "description": "An unnamed villa of Tripolitana",
  "features": [
    {
      "type": "Feature",
      "geometry": {
        "type": "Point",
        "coordinates": [
          10.314191,
          33.585087
        ]
      },
      "properties": {
        "description": "representative point"
      }
    },
    {
      "geometry": {
        "type": "Point",
        "coordinates": [
          10.314191,
          33.585087
        ]
      },
      "id": "darmc-location-26858",
      "type": "Feature",
      "properties": {
        "description": "1:500,000 scale representative point location digitized from the Barrington Atlas of the Greek and Roman World by the Digital Atlas of Roman and Medieval Civilizations project at Harvard University.",
        "location_precision": "precise",
        "title": "DARMC location 26858",
        "link": "http://pleiades.stoa.org/places/963101285/darmc-location-26858"
      }
    }
  ]
}