{
  "type": "FeatureCollection",
  "title": "Unnamed villa",
  "id": "963101210",
  "bbox": [
    14.33817,
    32.60911,
    14.33817,
    32.60911
  ],
  "description": "An unnamed villa of Tripolitana",
  "features": [
    {
      "type": "Feature",
      "geometry": {
        "type": "Point",
        "coordinates": [
          14.33817,
          32.60911
        ]
      },
      "properties": {
        "description": "representative point"
      }
    },
    {
      "geometry": {
        "type": "Point",
        "coordinates": [
          14.33817,
          32.60911
        ]
      },
      "id": "darmc-location-27000",
      "type": "Feature",
      "properties": {
        "description": "1:500,000 scale representative point location digitized from the Barrington Atlas of the Greek and Roman World by the Digital Atlas of Roman and Medieval Civilizations project at Harvard University.",
        "location_precision": "precise",
        "title": "DARMC location 27000",
        "link": "http://pleiades.stoa.org/places/963101210/darmc-location-27000"
      }
    }
  ]
}