{
  "type": "FeatureCollection",
  "title": "Mine on Euboea",
  "id": "963101037",
  "bbox": [
    24.479957,
    38.007739,
    24.479957,
    38.007739
  ],
  "description": "One of a group of mines on Euboea Ins.",
  "connectsWith": [
    "540775"
  ],
  "features": [
    {
      "type": "Feature",
      "geometry": {
        "type": "Point",
        "coordinates": [
          24.479957,
          38.007739
        ]
      },
      "properties": {
        "description": "representative point"
      }
    },
    {
      "geometry": {
        "type": "Point",
        "coordinates": [
          24.479957,
          38.007739
        ]
      },
      "id": "darmc-location-19034",
      "type": "Feature",
      "properties": {
        "description": "1:500,000 scale representative point location digitized from the Barrington Atlas of the Greek and Roman World by the Digital Atlas of Roman and Medieval Civilizations project at Harvard University.",
        "location_precision": "precise",
        "title": "DARMC location 19034",
        "link": "http://pleiades.stoa.org/places/963101037/darmc-location-19034"
      }
    }
  ]
}