{
  "type": "FeatureCollection",
  "title": "Unnamed villa",
  "id": "963101287",
  "bbox": [
    13.439072,
    31.308633,
    13.439072,
    31.308633
  ],
  "description": "An unnamed villa of Tripolitana",
  "features": [
    {
      "type": "Feature",
      "geometry": {
        "type": "Point",
        "coordinates": [
          13.439072,
          31.308633
        ]
      },
      "properties": {
        "description": "representative point"
      }
    },
    {
      "geometry": {
        "type": "Point",
        "coordinates": [
          13.439072,
          31.308633
        ]
      },
      "id": "darmc-location-26919",
      "type": "Feature",
      "properties": {
        "description": "1:500,000 scale representative point location digitized from the Barrington Atlas of the Greek and Roman World by the Digital Atlas of Roman and Medieval Civilizations project at Harvard University.",
        "location_precision": "precise",
        "title": "DARMC location 26919",
        "link": "http://pleiades.stoa.org/places/963101287/darmc-location-26919"
      }
    }
  ]
}