{
  "type": "FeatureCollection",
  "title": "Unnamed place",
  "id": "963101011",
  "bbox": [
    17.478894,
    30.783519,
    17.478894,
    30.783519
  ],
  "description": "An unnamed monument, settlement, or villa of Syrtica",
  "features": [
    {
      "type": "Feature",
      "geometry": {
        "type": "Point",
        "coordinates": [
          17.478894,
          30.783519
        ]
      },
      "properties": {
        "description": "representative point"
      }
    },
    {
      "geometry": {
        "type": "Point",
        "coordinates": [
          17.478894,
          30.783519
        ]
      },
      "id": "darmc-location-20717",
      "type": "Feature",
      "properties": {
        "description": "1:500,000 scale representative point location digitized from the Barrington Atlas of the Greek and Roman World by the Digital Atlas of Roman and Medieval Civilizations project at Harvard University.",
        "location_precision": "precise",
        "title": "DARMC location 20717",
        "link": "http://pleiades.stoa.org/places/963101011/darmc-location-20717"
      }
    }
  ]
}