{
  "type": "FeatureCollection",
  "title": "Unnamed Mine",
  "id": "963101130",
  "bbox": [
    -0.399739,
    52.703602,
    -0.399739,
    52.703602
  ],
  "description": "An unnamed mine in the Midlands",
  "features": [
    {
      "type": "Feature",
      "geometry": {
        "type": "Point",
        "coordinates": [
          -0.399739,
          52.703602
        ]
      },
      "properties": {
        "description": "representative point"
      }
    },
    {
      "geometry": {
        "type": "Point",
        "coordinates": [
          -0.399739,
          52.703602
        ]
      },
      "id": "darmc-location-29397",
      "type": "Feature",
      "properties": {
        "description": "1:1 million scale representative point location digitized from the Barrington Atlas of the Greek and Roman World by the Digital Atlas of Roman and Medieval Civilizations project at Harvard University.",
        "location_precision": "precise",
        "title": "DARMC location 29397",
        "link": "http://pleiades.stoa.org/places/963101130/darmc-location-29397"
      }
    }
  ]
}