{
  "type": "FeatureCollection",
  "title": "Unnamed villa",
  "id": "963101189",
  "bbox": [
    10.049023,
    33.781502,
    10.049023,
    33.781502
  ],
  "description": "An unnamed villa of Tripolitana",
  "features": [
    {
      "type": "Feature",
      "geometry": {
        "type": "Point",
        "coordinates": [
          10.049023,
          33.781502
        ]
      },
      "properties": {
        "description": "representative point"
      }
    },
    {
      "geometry": {
        "type": "Point",
        "coordinates": [
          10.049023,
          33.781502
        ]
      },
      "id": "darmc-location-26837",
      "type": "Feature",
      "properties": {
        "description": "1:500,000 scale representative point location digitized from the Barrington Atlas of the Greek and Roman World by the Digital Atlas of Roman and Medieval Civilizations project at Harvard University.",
        "location_precision": "precise",
        "title": "DARMC location 26837",
        "link": "http://pleiades.stoa.org/places/963101189/darmc-location-26837"
      }
    }
  ]
}