{
  "type": "FeatureCollection",
  "title": "Metalli Dardanici",
  "id": "963101095",
  "bbox": [
    20.799042,
    43.291311,
    20.799042,
    43.291311
  ],
  "description": "A mine of the Metalli Dardanici group",
  "features": [
    {
      "type": "Feature",
      "geometry": {
        "type": "Point",
        "coordinates": [
          20.799042,
          43.291311
        ]
      },
      "properties": {
        "description": "representative point"
      }
    },
    {
      "geometry": {
        "type": "Point",
        "coordinates": [
          20.799042,
          43.291311
        ]
      },
      "id": "darmc-location-18795",
      "type": "Feature",
      "properties": {
        "description": "1:1 million scale representative point location digitized from the Barrington Atlas of the Greek and Roman World by the Digital Atlas of Roman and Medieval Civilizations project at Harvard University.",
        "location_precision": "precise",
        "title": "DARMC location 18795",
        "link": "http://pleiades.stoa.org/places/963101095/darmc-location-18795"
      }
    }
  ]
}