{
  "type": "FeatureCollection",
  "title": "Unnamed villa",
  "id": "963101304",
  "bbox": [
    14.10416,
    31.667671,
    14.10416,
    31.667671
  ],
  "description": "An unnamed villa of Tripolitana",
  "features": [
    {
      "type": "Feature",
      "geometry": {
        "type": "Point",
        "coordinates": [
          14.10416,
          31.667671
        ]
      },
      "properties": {
        "description": "representative point"
      }
    },
    {
      "geometry": {
        "type": "Point",
        "coordinates": [
          14.10416,
          31.667671
        ]
      },
      "id": "darmc-location-26981",
      "type": "Feature",
      "properties": {
        "description": "1:500,000 scale representative point location digitized from the Barrington Atlas of the Greek and Roman World by the Digital Atlas of Roman and Medieval Civilizations project at Harvard University.",
        "location_precision": "precise",
        "title": "DARMC location 26981",
        "link": "http://pleiades.stoa.org/places/963101304/darmc-location-26981"
      }
    }
  ]
}