{
  "type": "FeatureCollection",
  "title": "Place near Taparura",
  "id": "963101049",
  "bbox": [
    10.852989,
    34.792103,
    10.852989,
    34.792103
  ],
  "description": "Unnamed minor settlement or villa in the territory of the Machounoi",
  "features": [
    {
      "type": "Feature",
      "geometry": {
        "type": "Point",
        "coordinates": [
          10.852989,
          34.792103
        ]
      },
      "properties": {
        "description": "representative point"
      }
    },
    {
      "geometry": {
        "type": "Point",
        "coordinates": [
          10.852989,
          34.792103
        ]
      },
      "id": "darmc-location-20402",
      "type": "Feature",
      "properties": {
        "description": "1:500,000 scale representative point location digitized from the Barrington Atlas of the Greek and Roman World by the Digital Atlas of Roman and Medieval Civilizations project at Harvard University.",
        "location_precision": "precise",
        "title": "DARMC location 20402",
        "link": "http://pleiades.stoa.org/places/963101049/darmc-location-20402"
      }
    }
  ]
}