{
  "type": "FeatureCollection",
  "title": "Unnamed villa",
  "id": "963101227",
  "bbox": [
    10.635947,
    33.203409,
    10.635947,
    33.203409
  ],
  "description": "An unnamed villa of Tripolitana",
  "features": [
    {
      "type": "Feature",
      "geometry": {
        "type": "Point",
        "coordinates": [
          10.635947,
          33.203409
        ]
      },
      "properties": {
        "description": "representative point"
      }
    },
    {
      "geometry": {
        "type": "Point",
        "coordinates": [
          10.635947,
          33.203409
        ]
      },
      "id": "darmc-location-26877",
      "type": "Feature",
      "properties": {
        "description": "1:500,000 scale representative point location digitized from the Barrington Atlas of the Greek and Roman World by the Digital Atlas of Roman and Medieval Civilizations project at Harvard University.",
        "location_precision": "precise",
        "title": "DARMC location 26877",
        "link": "http://pleiades.stoa.org/places/963101227/darmc-location-26877"
      }
    }
  ]
}