{
  "type": "FeatureCollection",
  "title": "Unnamed villa",
  "id": "963101203",
  "bbox": [
    14.72905,
    32.008392,
    14.72905,
    32.008392
  ],
  "description": "An unnamed villa of Tripolitana",
  "features": [
    {
      "type": "Feature",
      "geometry": {
        "type": "Point",
        "coordinates": [
          14.72905,
          32.008392
        ]
      },
      "properties": {
        "description": "representative point"
      }
    },
    {
      "geometry": {
        "type": "Point",
        "coordinates": [
          14.72905,
          32.008392
        ]
      },
      "id": "darmc-location-27009",
      "type": "Feature",
      "properties": {
        "description": "1:500,000 scale representative point location digitized from the Barrington Atlas of the Greek and Roman World by the Digital Atlas of Roman and Medieval Civilizations project at Harvard University.",
        "location_precision": "precise",
        "title": "DARMC location 27009",
        "link": "http://pleiades.stoa.org/places/963101203/darmc-location-27009"
      }
    }
  ]
}