{
  "type": "FeatureCollection",
  "title": "Unnamed villa",
  "id": "963101339",
  "bbox": [
    13.161759,
    31.781259,
    13.161759,
    31.781259
  ],
  "description": "An unnamed villa of Tripolitana",
  "features": [
    {
      "type": "Feature",
      "geometry": {
        "type": "Point",
        "coordinates": [
          13.161759,
          31.781259
        ]
      },
      "properties": {
        "description": "representative point"
      }
    },
    {
      "geometry": {
        "type": "Point",
        "coordinates": [
          13.161759,
          31.781259
        ]
      },
      "id": "darmc-location-26906",
      "type": "Feature",
      "properties": {
        "description": "1:500,000 scale representative point location digitized from the Barrington Atlas of the Greek and Roman World by the Digital Atlas of Roman and Medieval Civilizations project at Harvard University.",
        "location_precision": "precise",
        "title": "DARMC location 26906",
        "link": "http://pleiades.stoa.org/places/963101339/darmc-location-26906"
      }
    }
  ]
}