{
  "type": "FeatureCollection",
  "title": "Unnamed villa",
  "id": "963101321",
  "bbox": [
    13.798537,
    32.566412,
    13.798537,
    32.566412
  ],
  "description": "An unnamed villa of Tripolitana",
  "features": [
    {
      "type": "Feature",
      "geometry": {
        "type": "Point",
        "coordinates": [
          13.798537,
          32.566412
        ]
      },
      "properties": {
        "description": "representative point"
      }
    },
    {
      "geometry": {
        "type": "Point",
        "coordinates": [
          13.798537,
          32.566412
        ]
      },
      "id": "darmc-location-26955",
      "type": "Feature",
      "properties": {
        "description": "1:500,000 scale representative point location digitized from the Barrington Atlas of the Greek and Roman World by the Digital Atlas of Roman and Medieval Civilizations project at Harvard University.",
        "location_precision": "precise",
        "title": "DARMC location 26955",
        "link": "http://pleiades.stoa.org/places/963101321/darmc-location-26955"
      }
    }
  ]
}