{
  "type": "FeatureCollection",
  "title": "Unnamed villa",
  "id": "963101317",
  "bbox": [
    13.806216,
    32.444537,
    13.806216,
    32.444537
  ],
  "description": "An unnamed villa of Tripolitana",
  "features": [
    {
      "type": "Feature",
      "geometry": {
        "type": "Point",
        "coordinates": [
          13.806216,
          32.444537
        ]
      },
      "properties": {
        "description": "representative point"
      }
    },
    {
      "geometry": {
        "type": "Point",
        "coordinates": [
          13.806216,
          32.444537
        ]
      },
      "id": "darmc-location-26959",
      "type": "Feature",
      "properties": {
        "description": "1:500,000 scale representative point location digitized from the Barrington Atlas of the Greek and Roman World by the Digital Atlas of Roman and Medieval Civilizations project at Harvard University.",
        "location_precision": "precise",
        "title": "DARMC location 26959",
        "link": "http://pleiades.stoa.org/places/963101317/darmc-location-26959"
      }
    }
  ]
}