{
  "type": "FeatureCollection",
  "title": "Unnamed villa",
  "id": "963101248",
  "bbox": [
    13.385047,
    31.386662,
    13.385047,
    31.386662
  ],
  "description": "An unnamed villa of Tripolitana",
  "features": [
    {
      "type": "Feature",
      "geometry": {
        "type": "Point",
        "coordinates": [
          13.385047,
          31.386662
        ]
      },
      "properties": {
        "description": "representative point"
      }
    },
    {
      "geometry": {
        "type": "Point",
        "coordinates": [
          13.385047,
          31.386662
        ]
      },
      "id": "darmc-location-26922",
      "type": "Feature",
      "properties": {
        "description": "1:500,000 scale representative point location digitized from the Barrington Atlas of the Greek and Roman World by the Digital Atlas of Roman and Medieval Civilizations project at Harvard University.",
        "location_precision": "precise",
        "title": "DARMC location 26922",
        "link": "http://pleiades.stoa.org/places/963101248/darmc-location-26922"
      }
    }
  ]
}