{
  "type": "FeatureCollection",
  "title": "Unnamed villa",
  "id": "963101261",
  "bbox": [
    14.296869,
    32.593342,
    14.296869,
    32.593342
  ],
  "description": "An unnamed villa of Tripolitana",
  "features": [
    {
      "type": "Feature",
      "geometry": {
        "type": "Point",
        "coordinates": [
          14.296869,
          32.593342
        ]
      },
      "properties": {
        "description": "representative point"
      }
    },
    {
      "geometry": {
        "type": "Point",
        "coordinates": [
          14.296869,
          32.593342
        ]
      },
      "id": "darmc-location-26999",
      "type": "Feature",
      "properties": {
        "description": "1:500,000 scale representative point location digitized from the Barrington Atlas of the Greek and Roman World by the Digital Atlas of Roman and Medieval Civilizations project at Harvard University.",
        "location_precision": "precise",
        "title": "DARMC location 26999",
        "link": "http://pleiades.stoa.org/places/963101261/darmc-location-26999"
      }
    }
  ]
}