{
  "type": "FeatureCollection",
  "title": "Unnamed villa",
  "id": "963101255",
  "bbox": [
    14.190439,
    32.254849,
    14.190439,
    32.254849
  ],
  "description": "An unnamed villa of Tripolitana",
  "features": [
    {
      "type": "Feature",
      "geometry": {
        "type": "Point",
        "coordinates": [
          14.190439,
          32.254849
        ]
      },
      "properties": {
        "description": "representative point"
      }
    },
    {
      "geometry": {
        "type": "Point",
        "coordinates": [
          14.190439,
          32.254849
        ]
      },
      "id": "darmc-location-26991",
      "type": "Feature",
      "properties": {
        "description": "1:500,000 scale representative point location digitized from the Barrington Atlas of the Greek and Roman World by the Digital Atlas of Roman and Medieval Civilizations project at Harvard University.",
        "location_precision": "precise",
        "title": "DARMC location 26991",
        "link": "http://pleiades.stoa.org/places/963101255/darmc-location-26991"
      }
    }
  ]
}