{
  "type": "FeatureCollection",
  "title": "Unnamed villa",
  "id": "963101292",
  "bbox": [
    13.443941,
    31.127434,
    13.443941,
    31.127434
  ],
  "description": "An unnamed villa of Tripolitana",
  "features": [
    {
      "type": "Feature",
      "geometry": {
        "type": "Point",
        "coordinates": [
          13.443941,
          31.127434
        ]
      },
      "properties": {
        "description": "representative point"
      }
    },
    {
      "geometry": {
        "type": "Point",
        "coordinates": [
          13.443941,
          31.127434
        ]
      },
      "id": "darmc-location-26917",
      "type": "Feature",
      "properties": {
        "description": "1:500,000 scale representative point location digitized from the Barrington Atlas of the Greek and Roman World by the Digital Atlas of Roman and Medieval Civilizations project at Harvard University.",
        "location_precision": "precise",
        "title": "DARMC location 26917",
        "link": "http://pleiades.stoa.org/places/963101292/darmc-location-26917"
      }
    }
  ]
}