{
  "type": "FeatureCollection",
  "title": "Unnamed villa",
  "id": "963101391",
  "bbox": [
    20.504386,
    32.436185,
    20.504386,
    32.436185
  ],
  "description": "An unnamed villa of Cyrenaica",
  "features": [
    {
      "type": "Feature",
      "geometry": {
        "type": "Point",
        "coordinates": [
          20.504386,
          32.436185
        ]
      },
      "properties": {
        "description": "representative point"
      }
    },
    {
      "geometry": {
        "type": "Point",
        "coordinates": [
          20.504386,
          32.436185
        ]
      },
      "id": "darmc-location-27071",
      "type": "Feature",
      "properties": {
        "description": "1:500,000 scale representative point location digitized from the Barrington Atlas of the Greek and Roman World by the Digital Atlas of Roman and Medieval Civilizations project at Harvard University.",
        "location_precision": "precise",
        "title": "DARMC location 27071",
        "link": "http://pleiades.stoa.org/places/963101391/darmc-location-27071"
      }
    }
  ]
}