{
  "type": "FeatureCollection",
  "title": "Unnamed villa",
  "id": "963101294",
  "bbox": [
    13.201158,
    31.385023,
    13.201158,
    31.385023
  ],
  "description": "An unnamed villa of Tripolitana",
  "features": [
    {
      "type": "Feature",
      "geometry": {
        "type": "Point",
        "coordinates": [
          13.201158,
          31.385023
        ]
      },
      "properties": {
        "description": "representative point"
      }
    },
    {
      "geometry": {
        "type": "Point",
        "coordinates": [
          13.201158,
          31.385023
        ]
      },
      "id": "darmc-location-26915",
      "type": "Feature",
      "properties": {
        "description": "1:500,000 scale representative point location digitized from the Barrington Atlas of the Greek and Roman World by the Digital Atlas of Roman and Medieval Civilizations project at Harvard University.",
        "location_precision": "precise",
        "title": "DARMC location 26915",
        "link": "http://pleiades.stoa.org/places/963101294/darmc-location-26915"
      }
    }
  ]
}