{
  "type": "FeatureCollection",
  "title": "Unnamed place",
  "id": "963101009",
  "bbox": [
    16.749739,
    31.146289,
    16.749739,
    31.146289
  ],
  "description": "An unnamed monument, settlement, or villa of Syrtica",
  "features": [
    {
      "type": "Feature",
      "geometry": {
        "type": "Point",
        "coordinates": [
          16.749739,
          31.146289
        ]
      },
      "properties": {
        "description": "representative point"
      }
    },
    {
      "geometry": {
        "type": "Point",
        "coordinates": [
          16.749739,
          31.146289
        ]
      },
      "id": "darmc-location-25781",
      "type": "Feature",
      "properties": {
        "description": "1:500,000 scale representative point location digitized from the Barrington Atlas of the Greek and Roman World by the Digital Atlas of Roman and Medieval Civilizations project at Harvard University.",
        "location_precision": "precise",
        "title": "DARMC location 25781",
        "link": "http://pleiades.stoa.org/places/963101009/darmc-location-25781"
      }
    }
  ]
}