{
  "type": "FeatureCollection",
  "title": "Unnamed villa",
  "id": "963101316",
  "bbox": [
    14.54532,
    31.113316,
    14.54532,
    31.113316
  ],
  "description": "An unnamed villa of Tripolitana",
  "features": [
    {
      "type": "Feature",
      "geometry": {
        "type": "Point",
        "coordinates": [
          14.54532,
          31.113316
        ]
      },
      "properties": {
        "description": "representative point"
      }
    },
    {
      "geometry": {
        "type": "Point",
        "coordinates": [
          14.54532,
          31.113316
        ]
      },
      "id": "darmc-location-27029",
      "type": "Feature",
      "properties": {
        "description": "1:500,000 scale representative point location digitized from the Barrington Atlas of the Greek and Roman World by the Digital Atlas of Roman and Medieval Civilizations project at Harvard University.",
        "location_precision": "precise",
        "title": "DARMC location 27029",
        "link": "http://pleiades.stoa.org/places/963101316/darmc-location-27029"
      }
    }
  ]
}