{
  "type": "FeatureCollection",
  "title": "Unnamed villa",
  "id": "963101284",
  "bbox": [
    10.531457,
    33.501911,
    10.531457,
    33.501911
  ],
  "description": "An unnamed villa of Tripolitana",
  "features": [
    {
      "type": "Feature",
      "geometry": {
        "type": "Point",
        "coordinates": [
          10.531457,
          33.501911
        ]
      },
      "properties": {
        "description": "representative point"
      }
    },
    {
      "geometry": {
        "type": "Point",
        "coordinates": [
          10.531457,
          33.501911
        ]
      },
      "id": "darmc-location-26855",
      "type": "Feature",
      "properties": {
        "description": "1:500,000 scale representative point location digitized from the Barrington Atlas of the Greek and Roman World by the Digital Atlas of Roman and Medieval Civilizations project at Harvard University.",
        "location_precision": "precise",
        "title": "DARMC location 26855",
        "link": "http://pleiades.stoa.org/places/963101284/darmc-location-26855"
      }
    }
  ]
}