{
  "type": "FeatureCollection",
  "title": "Unnamed villa",
  "id": "963100983",
  "bbox": [
    19.78706,
    30.430717,
    19.78706,
    30.430717
  ],
  "description": "An unnamed villa from the Boreum region",
  "features": [
    {
      "type": "Feature",
      "geometry": {
        "type": "Point",
        "coordinates": [
          19.78706,
          30.430717
        ]
      },
      "properties": {
        "description": "representative point"
      }
    },
    {
      "geometry": {
        "type": "Point",
        "coordinates": [
          19.78706,
          30.430717
        ]
      },
      "id": "darmc-location-27057",
      "type": "Feature",
      "properties": {
        "description": "1:500,000 scale representative point location digitized from the Barrington Atlas of the Greek and Roman World by the Digital Atlas of Roman and Medieval Civilizations project at Harvard University.",
        "location_precision": "precise",
        "title": "DARMC location 27057",
        "link": "http://pleiades.stoa.org/places/963100983/darmc-location-27057"
      }
    }
  ]
}