{
  "type": "FeatureCollection",
  "title": "Unnamed villa",
  "id": "963101237",
  "bbox": [
    10.140178,
    33.631528,
    10.140178,
    33.631528
  ],
  "description": "An unnamed villa of Tripolitana",
  "features": [
    {
      "type": "Feature",
      "geometry": {
        "type": "Point",
        "coordinates": [
          10.140178,
          33.631528
        ]
      },
      "properties": {
        "description": "representative point"
      }
    },
    {
      "geometry": {
        "type": "Point",
        "coordinates": [
          10.140178,
          33.631528
        ]
      },
      "id": "darmc-location-26845",
      "type": "Feature",
      "properties": {
        "description": "1:500,000 scale representative point location digitized from the Barrington Atlas of the Greek and Roman World by the Digital Atlas of Roman and Medieval Civilizations project at Harvard University.",
        "location_precision": "precise",
        "title": "DARMC location 26845",
        "link": "http://pleiades.stoa.org/places/963101237/darmc-location-26845"
      }
    }
  ]
}