{
  "type": "FeatureCollection",
  "title": "Unnamed villa",
  "id": "963101343",
  "bbox": [
    10.677023,
    33.622034,
    10.677023,
    33.622034
  ],
  "description": "An unnamed villa of Tripolitana",
  "features": [
    {
      "type": "Feature",
      "geometry": {
        "type": "Point",
        "coordinates": [
          10.677023,
          33.622034
        ]
      },
      "properties": {
        "description": "representative point"
      }
    },
    {
      "geometry": {
        "type": "Point",
        "coordinates": [
          10.677023,
          33.622034
        ]
      },
      "id": "darmc-location-26868",
      "type": "Feature",
      "properties": {
        "description": "1:500,000 scale representative point location digitized from the Barrington Atlas of the Greek and Roman World by the Digital Atlas of Roman and Medieval Civilizations project at Harvard University.",
        "location_precision": "precise",
        "title": "DARMC location 26868",
        "link": "http://pleiades.stoa.org/places/963101343/darmc-location-26868"
      }
    }
  ]
}