{
  "type": "FeatureCollection",
  "title": "Unnamed villa",
  "id": "963101301",
  "bbox": [
    14.331465,
    31.624129,
    14.331465,
    31.624129
  ],
  "description": "An unnamed villa of Tripolitana",
  "features": [
    {
      "type": "Feature",
      "geometry": {
        "type": "Point",
        "coordinates": [
          14.331465,
          31.624129
        ]
      },
      "properties": {
        "description": "representative point"
      }
    },
    {
      "geometry": {
        "type": "Point",
        "coordinates": [
          14.331465,
          31.624129
        ]
      },
      "id": "darmc-location-26986",
      "type": "Feature",
      "properties": {
        "description": "1:500,000 scale representative point location digitized from the Barrington Atlas of the Greek and Roman World by the Digital Atlas of Roman and Medieval Civilizations project at Harvard University.",
        "location_precision": "precise",
        "title": "DARMC location 26986",
        "link": "http://pleiades.stoa.org/places/963101301/darmc-location-26986"
      }
    }
  ]
}