{
  "type": "FeatureCollection",
  "title": "Unnamed villa",
  "id": "963101327",
  "bbox": [
    14.407775,
    31.282068,
    14.407775,
    31.282068
  ],
  "description": "An unnamed villa of Tripolitana",
  "features": [
    {
      "type": "Feature",
      "geometry": {
        "type": "Point",
        "coordinates": [
          14.407775,
          31.282068
        ]
      },
      "properties": {
        "description": "representative point"
      }
    },
    {
      "geometry": {
        "type": "Point",
        "coordinates": [
          14.407775,
          31.282068
        ]
      },
      "id": "darmc-location-27019",
      "type": "Feature",
      "properties": {
        "description": "1:500,000 scale representative point location digitized from the Barrington Atlas of the Greek and Roman World by the Digital Atlas of Roman and Medieval Civilizations project at Harvard University.",
        "location_precision": "precise",
        "title": "DARMC location 27019",
        "link": "http://pleiades.stoa.org/places/963101327/darmc-location-27019"
      }
    }
  ]
}