{
  "type": "FeatureCollection",
  "title": "Unnamed villa",
  "id": "963100979",
  "bbox": [
    19.612248,
    30.337114,
    19.612248,
    30.337114
  ],
  "description": "An unnamed villa from the Boreum region",
  "features": [
    {
      "type": "Feature",
      "geometry": {
        "type": "Point",
        "coordinates": [
          19.612248,
          30.337114
        ]
      },
      "properties": {
        "description": "representative point"
      }
    },
    {
      "geometry": {
        "type": "Point",
        "coordinates": [
          19.612248,
          30.337114
        ]
      },
      "id": "darmc-location-27053",
      "type": "Feature",
      "properties": {
        "description": "1:500,000 scale representative point location digitized from the Barrington Atlas of the Greek and Roman World by the Digital Atlas of Roman and Medieval Civilizations project at Harvard University.",
        "location_precision": "precise",
        "title": "DARMC location 27053",
        "link": "http://pleiades.stoa.org/places/963100979/darmc-location-27053"
      }
    }
  ]
}