{
  "type": "FeatureCollection",
  "title": "Unnamed villa",
  "id": "963101332",
  "bbox": [
    14.529619,
    31.361742,
    14.529619,
    31.361742
  ],
  "description": "An unnamed villa of Tripolitana",
  "features": [
    {
      "type": "Feature",
      "geometry": {
        "type": "Point",
        "coordinates": [
          14.529619,
          31.361742
        ]
      },
      "properties": {
        "description": "representative point"
      }
    },
    {
      "geometry": {
        "type": "Point",
        "coordinates": [
          14.529619,
          31.361742
        ]
      },
      "id": "darmc-location-27016",
      "type": "Feature",
      "properties": {
        "description": "1:500,000 scale representative point location digitized from the Barrington Atlas of the Greek and Roman World by the Digital Atlas of Roman and Medieval Civilizations project at Harvard University.",
        "location_precision": "precise",
        "title": "DARMC location 27016",
        "link": "http://pleiades.stoa.org/places/963101332/darmc-location-27016"
      }
    }
  ]
}