{
  "type": "FeatureCollection",
  "title": "Place near Taparura",
  "id": "963101041",
  "bbox": [
    10.691901,
    34.750148,
    10.691901,
    34.750148
  ],
  "description": "Unnamed minor settlement or villa in the territory of the Machounoi",
  "features": [
    {
      "type": "Feature",
      "geometry": {
        "type": "Point",
        "coordinates": [
          10.691901,
          34.750148
        ]
      },
      "properties": {
        "description": "representative point"
      }
    },
    {
      "geometry": {
        "type": "Point",
        "coordinates": [
          10.691901,
          34.750148
        ]
      },
      "id": "darmc-location-20363",
      "type": "Feature",
      "properties": {
        "description": "1:500,000 scale representative point location digitized from the Barrington Atlas of the Greek and Roman World by the Digital Atlas of Roman and Medieval Civilizations project at Harvard University.",
        "location_precision": "precise",
        "title": "DARMC location 20363",
        "link": "http://pleiades.stoa.org/places/963101041/darmc-location-20363"
      }
    }
  ]
}