{
  "type": "FeatureCollection",
  "title": "Unnamed villa",
  "id": "963101295",
  "bbox": [
    13.258067,
    31.369951,
    13.258067,
    31.369951
  ],
  "description": "An unnamed villa of Tripolitana",
  "features": [
    {
      "type": "Feature",
      "geometry": {
        "type": "Point",
        "coordinates": [
          13.258067,
          31.369951
        ]
      },
      "properties": {
        "description": "representative point"
      }
    },
    {
      "geometry": {
        "type": "Point",
        "coordinates": [
          13.258067,
          31.369951
        ]
      },
      "id": "darmc-location-26914",
      "type": "Feature",
      "properties": {
        "description": "1:500,000 scale representative point location digitized from the Barrington Atlas of the Greek and Roman World by the Digital Atlas of Roman and Medieval Civilizations project at Harvard University.",
        "location_precision": "precise",
        "title": "DARMC location 26914",
        "link": "http://pleiades.stoa.org/places/963101295/darmc-location-26914"
      }
    }
  ]
}