{
  "type": "FeatureCollection",
  "title": "Unnamed villa",
  "id": "963101312",
  "bbox": [
    14.458297,
    31.29857,
    14.458297,
    31.29857
  ],
  "description": "An unnamed villa of Tripolitana",
  "features": [
    {
      "type": "Feature",
      "geometry": {
        "type": "Point",
        "coordinates": [
          14.458297,
          31.29857
        ]
      },
      "properties": {
        "description": "representative point"
      }
    },
    {
      "geometry": {
        "type": "Point",
        "coordinates": [
          14.458297,
          31.29857
        ]
      },
      "id": "darmc-location-27021",
      "type": "Feature",
      "properties": {
        "description": "1:500,000 scale representative point location digitized from the Barrington Atlas of the Greek and Roman World by the Digital Atlas of Roman and Medieval Civilizations project at Harvard University.",
        "location_precision": "precise",
        "title": "DARMC location 27021",
        "link": "http://pleiades.stoa.org/places/963101312/darmc-location-27021"
      }
    }
  ]
}