{
  "type": "FeatureCollection",
  "title": "Place near Taparura",
  "id": "963101043",
  "bbox": [
    10.679993,
    34.748433,
    10.679993,
    34.748433
  ],
  "description": "Unnamed minor settlement or villa in the territory of the Machounoi",
  "features": [
    {
      "type": "Feature",
      "geometry": {
        "type": "Point",
        "coordinates": [
          10.679993,
          34.748433
        ]
      },
      "properties": {
        "description": "representative point"
      }
    },
    {
      "geometry": {
        "type": "Point",
        "coordinates": [
          10.679993,
          34.748433
        ]
      },
      "id": "darmc-location-20361",
      "type": "Feature",
      "properties": {
        "description": "1:500,000 scale representative point location digitized from the Barrington Atlas of the Greek and Roman World by the Digital Atlas of Roman and Medieval Civilizations project at Harvard University.",
        "location_precision": "precise",
        "title": "DARMC location 20361",
        "link": "http://pleiades.stoa.org/places/963101043/darmc-location-20361"
      }
    }
  ]
}