{
  "type": "FeatureCollection",
  "title": "Pen Dinas hill fort",
  "id": "964510419",
  "bbox": [
    -4.0836312,
    52.4008087,
    -4.0810992,
    52.4053468
  ],
  "description": "Pen Dinas hill fort is a large Iron Age enclosure on the coast of Ceredigion, Wales.",
  "features": [
    {
      "type": "Feature",
      "geometry": {
        "type": "Point",
        "coordinates": [
          -4.08235517942,
          52.4031023126
        ]
      },
      "properties": {
        "description": "representative point"
      }
    },
    {
      "geometry": {
        "type": "LineString",
        "coordinates": [
          [
            -4.0817858,
            52.4008087
          ],
          [
            -4.0825368,
            52.401136
          ],
          [
            -4.0828984,
            52.4016289
          ],
          [
            -4.0830733,
            52.4024059
          ],
          [
            -4.0831559,
            52.402938
          ],
          [
            -4.0833705,
            52.4033962
          ],
          [
            -4.0831559,
            52.4038151
          ],
          [
            -4.0836312,
            52.4043696
          ],
          [
            -4.0833308,
            52.4049194
          ],
          [
            -4.0825551,
            52.4053468
          ],
          [
            -4.0818255,
            52.4051766
          ],
          [
            -4.0816109,
            52.4048101
          ],
          [
            -4.0817214,
            52.4043696
          ],
          [
            -4.0819789,
            52.4039768
          ],
          [
            -4.0821935,
            52.4036365
          ],
          [
            -4.0823866,
            52.4031913
          ],
          [
            -4.0823652,
            52.4028902
          ],
          [
            -4.0817214,
            52.4026022
          ],
          [
            -4.081185,
            52.402144
          ],
          [
            -4.0810992,
            52.4017513
          ],
          [
            -4.0811635,
            52.4013062
          ],
          [
            -4.0812891,
            52.4009219
          ],
          [
            -4.0817858,
            52.4008087
          ]
        ]
      },
      "id": "location-of-pen-dinas-hill-fort",
      "type": "Feature",
      "properties": {
        "description": "Location based on OpenStreetMap",
        "location_precision": "precise",
        "title": "OSM location of Pen Dinas hill fort",
        "link": "http://pleiades.stoa.org/places/964510419/location-of-pen-dinas-hill-fort"
      }
    }
  ]
}