{
  "type": "FeatureCollection",
  "title": "Turret 48B (Willowford West)",
  "id": "967060304",
  "bbox": [
    -2.587463,
    54.991707,
    -2.587345,
    54.9917812
  ],
  "description": "A turret situated on Hadrian's Wall.",
  "connectsWith": [
    "91358"
  ],
  "features": [
    {
      "type": "Feature",
      "geometry": {
        "type": "Point",
        "coordinates": [
          -2.58739773394,
          54.9917467654
        ]
      },
      "properties": {
        "description": "representative point"
      }
    },
    {
      "geometry": {
        "type": "Polygon",
        "coordinates": [
          [
            [
              -2.587463,
              54.991728,
              0
            ],
            [
              -2.587381,
              54.991707,
              0
            ],
            [
              -2.587345,
              54.991751,
              0
            ],
            [
              -2.587424,
              54.991775,
              0
            ],
            [
              -2.587463,
              54.991728,
              0
            ]
          ]
        ]
      },
      "id": "boundary-of-the-ancient-site",
      "type": "Feature",
      "properties": {
        "description": null,
        "location_precision": "precise",
        "title": "Boundary of the ancient site",
        "link": "http://pleiades.stoa.org/places/967060304/boundary-of-the-ancient-site"
      }
    },
    {
      "geometry": {
        "type": "LineString",
        "coordinates": [
          [
            -2.5874167,
            54.9917812
          ],
          [
            -2.5874369,
            54.9917432
          ],
          [
            -2.5873689,
            54.9917252
          ],
          [
            -2.5873455,
            54.9917621
          ],
          [
            -2.5874167,
            54.9917812
          ]
        ]
      },
      "id": "osm-location-of-turret-48b-willowford-west",
      "type": "Feature",
      "properties": {
        "description": "Representative location based on OpenStreetMap",
        "location_precision": "precise",
        "title": "OSM location of Turret 48B (Willowford West)",
        "link": "http://pleiades.stoa.org/places/967060304/osm-location-of-turret-48b-willowford-west"
      }
    }
  ]
}