{
  "type": "FeatureCollection",
  "title": "Turret 41A (Caw Gap)",
  "id": "967060365",
  "bbox": [
    -2.430555,
    54.995759,
    -2.4304374,
    54.9958364
  ],
  "description": "A turret situated on Hadrian's Wall.",
  "connectsWith": [
    "91358"
  ],
  "features": [
    {
      "type": "Feature",
      "geometry": {
        "type": "Point",
        "coordinates": [
          -2.43050200595,
          54.9957968643
        ]
      },
      "properties": {
        "description": "representative point"
      }
    },
    {
      "geometry": {
        "type": "MultiLineString",
        "coordinates": [
          [
            [
              -2.4304538,
              54.9957742
            ],
            [
              -2.4305511,
              54.9957843
            ],
            [
              -2.4305347,
              54.9958364
            ],
            [
              -2.4304374,
              54.9958263
            ],
            [
              -2.4304538,
              54.9957742
            ]
          ]
        ]
      },
      "id": "osm-location-of-turret-41a-caw-gap",
      "type": "Feature",
      "properties": {
        "description": "Representative location based on OpenStreetMap",
        "location_precision": "precise",
        "title": "OSM location of Turret 41A (Caw Gap)",
        "link": "http://pleiades.stoa.org/places/967060365/osm-location-of-turret-41a-caw-gap"
      }
    },
    {
      "geometry": {
        "type": "Polygon",
        "coordinates": [
          [
            [
              -2.430555,
              54.995771,
              0
            ],
            [
              -2.430481,
              54.995759,
              0
            ],
            [
              -2.430465,
              54.995807,
              0
            ],
            [
              -2.430539,
              54.995817,
              0
            ],
            [
              -2.430555,
              54.995771,
              0
            ]
          ]
        ]
      },
      "id": "approximate-boundary-of-the-ancient-site",
      "type": "Feature",
      "properties": {
        "description": null,
        "location_precision": "precise",
        "title": "Approximate Boundary of the ancient site",
        "link": "http://pleiades.stoa.org/places/967060365/approximate-boundary-of-the-ancient-site"
      }
    }
  ]
}