{
  "type": "FeatureCollection",
  "title": "Turret 33B (Coesike)",
  "id": "967060270",
  "bbox": [
    -2.281165,
    55.029127,
    -2.281055,
    55.029186
  ],
  "description": "A turret situated on Hadrian's Wall.",
  "connectsWith": [
    "91358"
  ],
  "features": [
    {
      "type": "Feature",
      "geometry": {
        "type": "Point",
        "coordinates": [
          -2.28110916635,
          55.029155066
        ]
      },
      "properties": {
        "description": "representative point"
      }
    },
    {
      "geometry": {
        "type": "Polygon",
        "coordinates": [
          [
            [
              -2.281149,
              55.029127,
              0
            ],
            [
              -2.281055,
              55.029135,
              0
            ],
            [
              -2.281063,
              55.029186,
              0
            ],
            [
              -2.281165,
              55.029178,
              0
            ],
            [
              -2.281149,
              55.029127,
              0
            ]
          ]
        ]
      },
      "id": "boundary-of-the-ancient-site",
      "type": "Feature",
      "properties": {
        "description": null,
        "location_precision": "precise",
        "title": "Boundary of the ancient site",
        "link": "http://pleiades.stoa.org/places/967060270/boundary-of-the-ancient-site"
      }
    },
    {
      "geometry": {
        "type": "LineString",
        "coordinates": [
          [
            -2.2810723,
            55.0291783
          ],
          [
            -2.2810664,
            55.0291317
          ],
          [
            -2.281148,
            55.029128300000004
          ],
          [
            -2.2811539,
            55.0291749
          ],
          [
            -2.2810723,
            55.0291783
          ]
        ]
      },
      "id": "osm-location-of-turret-33b-coesike",
      "type": "Feature",
      "properties": {
        "description": "Representative location based on OpenStreetMap",
        "location_precision": "precise",
        "title": "OSM location of Turret 33B (Coesike)",
        "link": "http://pleiades.stoa.org/places/967060270/osm-location-of-turret-33b-coesike"
      }
    }
  ]
}