{
  "type": "FeatureCollection",
  "title": "Milecastle 44 (Allolee)",
  "id": "967060361",
  "bbox": [
    -2.4880267,
    54.996035,
    -2.4877407,
    54.996241499999996
  ],
  "description": "A milecastle situated on Hadrian's Wall.",
  "connectsWith": [
    "91358"
  ],
  "features": [
    {
      "type": "Feature",
      "geometry": {
        "type": "Point",
        "coordinates": [
          -2.48788522248,
          54.9961242698
        ]
      },
      "properties": {
        "description": "representative point"
      }
    },
    {
      "geometry": {
        "type": "Point",
        "coordinates": [
          -2.487892,
          54.99611
        ]
      },
      "id": "center-point-of-the-ancient-site",
      "type": "Feature",
      "properties": {
        "description": null,
        "location_precision": "precise",
        "title": "Center point of the ancient site",
        "link": "http://pleiades.stoa.org/places/967060361/center-point-of-the-ancient-site"
      }
    },
    {
      "geometry": {
        "type": "LineString",
        "coordinates": [
          [
            -2.4880267,
            54.9962239
          ],
          [
            -2.4880077,
            54.996035
          ],
          [
            -2.4877422,
            54.996045
          ],
          [
            -2.4877407,
            54.996241499999996
          ],
          [
            -2.4880267,
            54.9962239
          ]
        ]
      },
      "id": "osm-location-of-milecastle-44",
      "type": "Feature",
      "properties": {
        "description": "Representative location based on OpenStreetMap",
        "location_precision": "precise",
        "title": "OSM location of Milecastle 44",
        "link": "http://pleiades.stoa.org/places/967060361/osm-location-of-milecastle-44"
      }
    }
  ]
}