{
  "type": "FeatureCollection",
  "title": "Milecastle 47 (Chapel House)",
  "id": "967060341",
  "bbox": [
    -2.5500298,
    54.9880042,
    -2.549992,
    54.988027
  ],
  "description": "A milecastle situated on Hadrian's Wall.",
  "connectsWith": [
    "91358"
  ],
  "features": [
    {
      "type": "Feature",
      "geometry": {
        "type": "Point",
        "coordinates": [
          -2.5500109,
          54.9880156
        ]
      },
      "properties": {
        "description": "representative point"
      }
    },
    {
      "geometry": {
        "type": "Point",
        "coordinates": [
          -2.5500298,
          54.9880042
        ]
      },
      "id": "osm-location-of-milecastle-47-chapel-house",
      "type": "Feature",
      "properties": {
        "description": "Representative location based on OpenStreetMap",
        "location_precision": "precise",
        "title": "OSM location of Milecastle 47 (Chapel House)",
        "link": "http://pleiades.stoa.org/places/967060341/osm-location-of-milecastle-47-chapel-house"
      }
    },
    {
      "geometry": {
        "type": "Point",
        "coordinates": [
          -2.549992,
          54.988027
        ]
      },
      "id": "approximate-center-point-of-the-ancient-site",
      "type": "Feature",
      "properties": {
        "description": null,
        "location_precision": "precise",
        "title": "Approximate center point of the ancient site",
        "link": "http://pleiades.stoa.org/places/967060341/approximate-center-point-of-the-ancient-site"
      }
    }
  ]
}