{
  "type": "FeatureCollection",
  "title": "Turret 35A (Sewingshields Crag)",
  "id": "967060230",
  "bbox": [
    -2.3131769,
    55.0248072,
    -2.313059,
    55.0248703
  ],
  "description": "A turret situated on Hadrian's Wall.",
  "connectsWith": [
    "91358"
  ],
  "features": [
    {
      "type": "Feature",
      "geometry": {
        "type": "Point",
        "coordinates": [
          -2.31311795,
          55.02483875
        ]
      },
      "properties": {
        "description": "representative point"
      }
    },
    {
      "geometry": {
        "type": "LineString",
        "coordinates": [
          [
            -2.3131769,
            55.0248473
          ],
          [
            -2.3131438,
            55.0248072
          ],
          [
            -2.313059,
            55.0248302
          ],
          [
            -2.3130921,
            55.0248703
          ],
          [
            -2.3131769,
            55.0248473
          ]
        ]
      },
      "id": "osm-location-of-turret-35a-sewingshields",
      "type": "Feature",
      "properties": {
        "description": "Representative location based on OpenStreetMap",
        "location_precision": "precise",
        "title": "OSM location of Turret 35A (Sewingshields)",
        "link": "http://pleiades.stoa.org/places/967060230/osm-location-of-turret-35a-sewingshields"
      }
    }
  ]
}