{
  "type": "FeatureCollection",
  "title": "Largo di Torre Argentina",
  "id": "967215409",
  "bbox": [
    12.4772404,
    41.8951723,
    12.4772404,
    41.8951723
  ],
  "description": "A square in the Campus Martius of Rome, at the center of which lies an archaeological site that includes the remains of four temples of the Republican period, as well as elements of the first century B.C. theater complex of Cnaeus Pompeius.",
  "connectsWith": [
    "423025",
    "422863"
  ],
  "names": [
    "Largo di Torre Argentina"
  ],
  "features": [
    {
      "type": "Feature",
      "geometry": {
        "type": "Point",
        "coordinates": [
          12.4772404,
          41.8951723
        ]
      },
      "properties": {
        "description": "representative point"
      }
    },
    {
      "geometry": {
        "type": "LineString",
        "coordinates": [
          [
            12.4772454,
            41.8951923
          ],
          [
            12.477217,
            41.895445
          ],
          [
            12.4771789,
            41.8957844
          ],
          [
            12.4771743,
            41.8957976
          ],
          [
            12.4771659,
            41.8958075
          ],
          [
            12.4771529,
            41.895816
          ],
          [
            12.4771323,
            41.8958247
          ],
          [
            12.4771063,
            41.8958284
          ],
          [
            12.4766104,
            41.8958114
          ],
          [
            12.4765879,
            41.8958079
          ],
          [
            12.4765691,
            41.8958006
          ],
          [
            12.476553,
            41.8957895
          ],
          [
            12.4765414,
            41.8957729
          ],
          [
            12.4765366,
            41.8957531
          ],
          [
            12.4765273,
            41.8951591
          ],
          [
            12.4765506,
            41.8951591
          ],
          [
            12.4765505,
            41.8951259
          ],
          [
            12.4765505,
            41.8950812
          ],
          [
            12.4765504,
            41.895069
          ],
          [
            12.476563,
            41.895069
          ],
          [
            12.4765629,
            41.8950316
          ],
          [
            12.4765528,
            41.8950316
          ],
          [
            12.4765527,
            41.8949916
          ],
          [
            12.4765527,
            41.8949829
          ],
          [
            12.476581,
            41.8949825
          ],
          [
            12.4765813,
            41.8949658
          ],
          [
            12.4767959,
            41.8949652
          ],
          [
            12.4771152,
            41.8949659
          ],
          [
            12.4771154,
            41.8950621
          ],
          [
            12.477184,
            41.8950671
          ],
          [
            12.4771732,
            41.8951888
          ],
          [
            12.4772454,
            41.8951923
          ]
        ]
      },
      "id": "location-of-area-sacra-di-largo-di-torre-argentina",
      "type": "Feature",
      "properties": {
        "description": "Representative location based on OpenStreetMap.",
        "location_precision": "precise",
        "title": "OSM location of Area Sacra di Largo di Torre Argentina archaeological site",
        "link": "http://pleiades.stoa.org/places/967215409/location-of-area-sacra-di-largo-di-torre-argentina"
      }
    }
  ]
}