{
  "type": "FeatureCollection",
  "title": "Roman amphitheater at Segobriga",
  "id": "969838059",
  "bbox": [
    -2.8139806,
    39.8859986,
    -2.8139806,
    39.8859986
  ],
  "description": "The Roman amphitheater at Segobriga dates to the Flavian period. It measures approximately 75 by 65 meters and could seat 5,500 spectators.",
  "connectsWith": [
    "266036"
  ],
  "names": [
    "Segóbriga amphitheatre"
  ],
  "features": [
    {
      "type": "Feature",
      "geometry": {
        "type": "Point",
        "coordinates": [
          -2.8139806,
          39.8859986
        ]
      },
      "properties": {
        "description": "representative point"
      }
    },
    {
      "geometry": {
        "type": "Point",
        "coordinates": [
          -2.8139806,
          39.8859986
        ]
      },
      "id": "osm-location-of-anfiteatro",
      "type": "Feature",
      "properties": {
        "description": "Representative location based on OpenStreetMap",
        "location_precision": "precise",
        "title": "OSM location of Anfiteatro",
        "link": "http://pleiades.stoa.org/places/969838059/osm-location-of-anfiteatro"
      }
    }
  ]
}