{
  "type": "FeatureCollection",
  "title": "Ali Qutan",
  "id": "971694",
  "bbox": [
    69.328287,
    36.359517,
    69.328287,
    36.359517
  ],
  "description": "An ancient place, cited: BAtlas 99 D3 Ali Qutan",
  "features": [
    {
      "type": "Feature",
      "geometry": {
        "type": "Point",
        "coordinates": [
          69.328287,
          36.359517
        ]
      },
      "properties": {
        "description": "representative point"
      }
    },
    {
      "geometry": {
        "type": "Point",
        "coordinates": [
          69.328287,
          36.359517
        ]
      },
      "id": "darmc-location-21706",
      "type": "Feature",
      "properties": {
        "description": "Representative point location digitized from the Barrington Atlas of the Greek and Roman World by the Digital Atlas of Roman and Medieval Civilizations project at Harvard University.",
        "location_precision": "precise",
        "title": "DARMC location 21706",
        "link": "http://pleiades.stoa.org/places/971694/darmc-location-21706"
      }
    }
  ]
}