{
  "type": "FeatureCollection",
  "title": "Kalafgan 1",
  "id": "971773",
  "bbox": [
    69.965725,
    36.729611,
    69.965725,
    36.729611
  ],
  "description": "An ancient place, cited: BAtlas 99 D3 Kalafgan 1",
  "features": [
    {
      "type": "Feature",
      "geometry": {
        "type": "Point",
        "coordinates": [
          69.965725,
          36.729611
        ]
      },
      "properties": {
        "description": "representative point"
      }
    },
    {
      "geometry": {
        "type": "Point",
        "coordinates": [
          69.965725,
          36.729611
        ]
      },
      "id": "darmc-location-21728",
      "type": "Feature",
      "properties": {
        "description": "Representative point location digitized from the Barrington Atlas of the Greek and Roman World by the Digital Atlas of Roman and Medieval Civilizations project at Harvard University.",
        "location_precision": "precise",
        "title": "DARMC location 21728",
        "link": "http://pleiades.stoa.org/places/971773/darmc-location-21728"
      }
    }
  ]
}