{
  "type": "FeatureCollection",
  "title": "Durman",
  "id": "971747",
  "bbox": [
    68.817675,
    37.141183,
    68.817675,
    37.141183
  ],
  "description": "An ancient place, cited: BAtlas 99 C2 Durman",
  "features": [
    {
      "type": "Feature",
      "geometry": {
        "type": "Point",
        "coordinates": [
          68.817675,
          37.141183
        ]
      },
      "properties": {
        "description": "representative point"
      }
    },
    {
      "geometry": {
        "type": "Point",
        "coordinates": [
          68.817675,
          37.141183
        ]
      },
      "id": "darmc-location-21782",
      "type": "Feature",
      "properties": {
        "description": "Representative point location digitized from the Barrington Atlas of the Greek and Roman World by the Digital Atlas of Roman and Medieval Civilizations project at Harvard University.",
        "location_precision": "precise",
        "title": "DARMC location 21782",
        "link": "http://pleiades.stoa.org/places/971747/darmc-location-21782"
      }
    }
  ]
}