{
  "type": "FeatureCollection",
  "title": "Degriz tepe",
  "id": "971742",
  "bbox": [
    67.723624,
    38.241414,
    67.723624,
    38.241414
  ],
  "description": "An ancient place, cited: BAtlas 99 B1 Degriz tepe",
  "features": [
    {
      "type": "Feature",
      "geometry": {
        "type": "Point",
        "coordinates": [
          67.723624,
          38.241414
        ]
      },
      "properties": {
        "description": "representative point"
      }
    },
    {
      "geometry": {
        "type": "Point",
        "coordinates": [
          67.723624,
          38.241414
        ]
      },
      "id": "darmc-location-21659",
      "type": "Feature",
      "properties": {
        "description": "Representative point location digitized from the Barrington Atlas of the Greek and Roman World by the Digital Atlas of Roman and Medieval Civilizations project at Harvard University.",
        "location_precision": "precise",
        "title": "DARMC location 21659",
        "link": "http://pleiades.stoa.org/places/971742/darmc-location-21659"
      }
    }
  ]
}