{
  "type": "FeatureCollection",
  "title": "Baharak",
  "id": "971709",
  "bbox": [
    69.430681,
    36.80007,
    69.430681,
    36.80007
  ],
  "description": "An ancient place, cited: BAtlas 99 D3 Baharak",
  "features": [
    {
      "type": "Feature",
      "geometry": {
        "type": "Point",
        "coordinates": [
          69.430681,
          36.80007
        ]
      },
      "properties": {
        "description": "representative point"
      }
    },
    {
      "geometry": {
        "type": "Point",
        "coordinates": [
          69.430681,
          36.80007
        ]
      },
      "id": "darmc-location-21737",
      "type": "Feature",
      "properties": {
        "description": "Representative point location digitized from the Barrington Atlas of the Greek and Roman World by the Digital Atlas of Roman and Medieval Civilizations project at Harvard University.",
        "location_precision": "precise",
        "title": "DARMC location 21737",
        "link": "http://pleiades.stoa.org/places/971709/darmc-location-21737"
      }
    }
  ]
}