{
  "type": "FeatureCollection",
  "title": "Deh Nau",
  "id": "971744",
  "bbox": [
    67.615943,
    36.80893,
    67.615943,
    36.80893
  ],
  "description": "An ancient place, cited: BAtlas 99 B3 Deh Nau",
  "features": [
    {
      "type": "Feature",
      "geometry": {
        "type": "Point",
        "coordinates": [
          67.615943,
          36.80893
        ]
      },
      "properties": {
        "description": "representative point"
      }
    },
    {
      "geometry": {
        "type": "Point",
        "coordinates": [
          67.615943,
          36.80893
        ]
      },
      "id": "darmc-location-21743",
      "type": "Feature",
      "properties": {
        "description": "Representative point location digitized from the Barrington Atlas of the Greek and Roman World by the Digital Atlas of Roman and Medieval Civilizations project at Harvard University.",
        "location_precision": "precise",
        "title": "DARMC location 21743",
        "link": "http://pleiades.stoa.org/places/971744/darmc-location-21743"
      }
    }
  ]
}