{
  "type": "FeatureCollection",
  "title": "Iski tepe",
  "id": "971766",
  "bbox": [
    68.596598,
    37.591123,
    68.596598,
    37.591123
  ],
  "description": "An ancient place, cited: BAtlas 99 C2 Iski tepe",
  "features": [
    {
      "type": "Feature",
      "geometry": {
        "type": "Point",
        "coordinates": [
          68.596598,
          37.591123
        ]
      },
      "properties": {
        "description": "representative point"
      }
    },
    {
      "geometry": {
        "type": "Point",
        "coordinates": [
          68.596598,
          37.591123
        ]
      },
      "id": "darmc-location-21825",
      "type": "Feature",
      "properties": {
        "description": "Representative point location digitized from the Barrington Atlas of the Greek and Roman World by the Digital Atlas of Roman and Medieval Civilizations project at Harvard University.",
        "location_precision": "precise",
        "title": "DARMC location 21825",
        "link": "http://pleiades.stoa.org/places/971766/darmc-location-21825"
      }
    }
  ]
}