{
  "type": "FeatureCollection",
  "title": "Kaun tepe",
  "id": "971787",
  "bbox": [
    68.640139,
    37.80693,
    68.640139,
    37.80693
  ],
  "description": "An ancient place, cited: BAtlas 99 C2 Kaun tepe",
  "features": [
    {
      "type": "Feature",
      "geometry": {
        "type": "Point",
        "coordinates": [
          68.640139,
          37.80693
        ]
      },
      "properties": {
        "description": "representative point"
      }
    },
    {
      "geometry": {
        "type": "Point",
        "coordinates": [
          68.640139,
          37.80693
        ]
      },
      "id": "darmc-location-21830",
      "type": "Feature",
      "properties": {
        "description": "Representative point location digitized from the Barrington Atlas of the Greek and Roman World by the Digital Atlas of Roman and Medieval Civilizations project at Harvard University.",
        "location_precision": "precise",
        "title": "DARMC location 21830",
        "link": "http://pleiades.stoa.org/places/971787/darmc-location-21830"
      }
    }
  ]
}