{
  "type": "FeatureCollection",
  "title": "Bish Ka'ik",
  "id": "971717",
  "bbox": [
    69.795323,
    37.166182,
    69.795323,
    37.166182
  ],
  "description": "An ancient place, cited: BAtlas 99 D2 Bish Ka'ik",
  "features": [
    {
      "type": "Feature",
      "geometry": {
        "type": "Point",
        "coordinates": [
          69.795323,
          37.166182
        ]
      },
      "properties": {
        "description": "representative point"
      }
    },
    {
      "geometry": {
        "type": "Point",
        "coordinates": [
          69.795323,
          37.166182
        ]
      },
      "id": "darmc-location-21760",
      "type": "Feature",
      "properties": {
        "description": "Representative point location digitized from the Barrington Atlas of the Greek and Roman World by the Digital Atlas of Roman and Medieval Civilizations project at Harvard University.",
        "location_precision": "precise",
        "title": "DARMC location 21760",
        "link": "http://pleiades.stoa.org/places/971717/darmc-location-21760"
      }
    }
  ]
}