{
  "type": "FeatureCollection",
  "title": "Baisun",
  "id": "971710",
  "bbox": [
    67.154623,
    38.246477,
    67.154623,
    38.246477
  ],
  "description": "An ancient place, cited: BAtlas 99 B1 Baisun",
  "features": [
    {
      "type": "Feature",
      "geometry": {
        "type": "Point",
        "coordinates": [
          67.154623,
          38.246477
        ]
      },
      "properties": {
        "description": "representative point"
      }
    },
    {
      "geometry": {
        "type": "Point",
        "coordinates": [
          67.154623,
          38.246477
        ]
      },
      "id": "darmc-location-21656",
      "type": "Feature",
      "properties": {
        "description": "Representative point location digitized from the Barrington Atlas of the Greek and Roman World by the Digital Atlas of Roman and Medieval Civilizations project at Harvard University.",
        "location_precision": "precise",
        "title": "DARMC location 21656",
        "link": "http://pleiades.stoa.org/places/971710/darmc-location-21656"
      }
    }
  ]
}