{
  "type": "FeatureCollection",
  "title": "Khan gaza",
  "id": "971793",
  "bbox": [
    67.990048,
    37.476179,
    67.990048,
    37.476179
  ],
  "description": "An ancient place, cited: BAtlas 99 B2 Khan gaza",
  "names": [
    "Khan gaza"
  ],
  "features": [
    {
      "type": "Feature",
      "geometry": {
        "type": "Point",
        "coordinates": [
          67.990048,
          37.476179
        ]
      },
      "properties": {
        "description": "representative point"
      }
    },
    {
      "geometry": {
        "type": "Point",
        "coordinates": [
          67.990048,
          37.476179
        ]
      },
      "id": "darmc-location-21793",
      "type": "Feature",
      "properties": {
        "description": "Representative point location digitized from the Barrington Atlas of the Greek and Roman World by the Digital Atlas of Roman and Medieval Civilizations project at Harvard University.",
        "location_precision": "precise",
        "title": "DARMC location 21793",
        "link": "http://pleiades.stoa.org/places/971793/darmc-location-21793"
      }
    }
  ]
}