{
  "type": "FeatureCollection",
  "title": "Khush bai",
  "id": "971803",
  "bbox": [
    69.550292,
    36.722228,
    69.550292,
    36.722228
  ],
  "description": "An ancient place, cited: BAtlas 99 D3 Khush bai",
  "features": [
    {
      "type": "Feature",
      "geometry": {
        "type": "Point",
        "coordinates": [
          69.550292,
          36.722228
        ]
      },
      "properties": {
        "description": "representative point"
      }
    },
    {
      "geometry": {
        "type": "Point",
        "coordinates": [
          69.550292,
          36.722228
        ]
      },
      "id": "darmc-location-21731",
      "type": "Feature",
      "properties": {
        "description": "Representative point location digitized from the Barrington Atlas of the Greek and Roman World by the Digital Atlas of Roman and Medieval Civilizations project at Harvard University.",
        "location_precision": "precise",
        "title": "DARMC location 21731",
        "link": "http://pleiades.stoa.org/places/971803/darmc-location-21731"
      }
    }
  ]
}