{
  "type": "FeatureCollection",
  "title": "Tepe Shaidan",
  "id": "971889",
  "bbox": [
    67.829219,
    36.728556,
    67.829219,
    36.728556
  ],
  "description": "An ancient place, cited: BAtlas 99 B3 Tepe Shaidan",
  "names": [
    "Tepe Shaidan"
  ],
  "features": [
    {
      "type": "Feature",
      "geometry": {
        "type": "Point",
        "coordinates": [
          67.829219,
          36.728556
        ]
      },
      "properties": {
        "description": "representative point"
      }
    },
    {
      "geometry": {
        "type": "Point",
        "coordinates": [
          67.829219,
          36.728556
        ]
      },
      "id": "darmc-location-21739",
      "type": "Feature",
      "properties": {
        "description": "Representative point location digitized from the Barrington Atlas of the Greek and Roman World by the Digital Atlas of Roman and Medieval Civilizations project at Harvard University.",
        "location_precision": "precise",
        "title": "DARMC location 21739",
        "link": "http://pleiades.stoa.org/places/971889/darmc-location-21739"
      }
    }
  ]
}