{
  "type": "FeatureCollection",
  "title": "Mullah Quli",
  "id": "971826",
  "bbox": [
    69.162079,
    37.09625,
    69.162079,
    37.09625
  ],
  "description": "An ancient place, cited: BAtlas 99 D2 Mullah Quli",
  "features": [
    {
      "type": "Feature",
      "geometry": {
        "type": "Point",
        "coordinates": [
          69.162079,
          37.09625
        ]
      },
      "properties": {
        "description": "representative point"
      }
    },
    {
      "geometry": {
        "type": "Point",
        "coordinates": [
          69.162079,
          37.09625
        ]
      },
      "id": "darmc-location-21779",
      "type": "Feature",
      "properties": {
        "description": "Representative point location digitized from the Barrington Atlas of the Greek and Roman World by the Digital Atlas of Roman and Medieval Civilizations project at Harvard University.",
        "location_precision": "precise",
        "title": "DARMC location 21779",
        "link": "http://pleiades.stoa.org/places/971826/darmc-location-21779"
      }
    }
  ]
}