{
  "type": "FeatureCollection",
  "title": "Shur tepe",
  "id": "971872",
  "bbox": [
    68.516857,
    37.465183,
    68.516857,
    37.465183
  ],
  "description": "An ancient place, cited: BAtlas 99 C2 Shur tepe",
  "names": [
    "Shur tepe"
  ],
  "features": [
    {
      "type": "Feature",
      "geometry": {
        "type": "Point",
        "coordinates": [
          68.516857,
          37.465183
        ]
      },
      "properties": {
        "description": "representative point"
      }
    },
    {
      "geometry": {
        "type": "Point",
        "coordinates": [
          68.516857,
          37.465183
        ]
      },
      "id": "darmc-location-21823",
      "type": "Feature",
      "properties": {
        "description": "Representative point location digitized from the Barrington Atlas of the Greek and Roman World by the Digital Atlas of Roman and Medieval Civilizations project at Harvard University.",
        "location_precision": "precise",
        "title": "DARMC location 21823",
        "link": "http://pleiades.stoa.org/places/971872/darmc-location-21823"
      }
    }
  ]
}