{
  "type": "FeatureCollection",
  "title": "Pareitakene",
  "id": "971840",
  "bbox": [
    64.9580180018,
    38.8444913299,
    68.6580798659,
    39.0586428205
  ],
  "description": "An ancient place, cited: BAtlas 99 B1 Pareitakene",
  "connectsWith": [
    "60058"
  ],
  "names": [
    "Pareitakene"
  ],
  "features": [
    {
      "type": "Feature",
      "geometry": {
        "type": "Point",
        "coordinates": [
          66.8994485968,
          38.9610841401
        ]
      },
      "properties": {
        "description": "representative point"
      }
    },
    {
      "geometry": {
        "type": "Polygon",
        "coordinates": [
          [
            [
              67.0,
              38.0
            ],
            [
              67.0,
              39.0
            ],
            [
              68.0,
              39.0
            ],
            [
              68.0,
              38.0
            ],
            [
              67.0,
              38.0
            ]
          ]
        ]
      },
      "id": "batlas-location",
      "type": "Feature",
      "properties": {
        "description": null,
        "location_precision": "rough",
        "title": "Barrington Atlas location",
        "link": "http://pleiades.stoa.org/places/971840/batlas-location"
      }
    }
  ]
}