{
  "type": "FeatureCollection",
  "title": "Tepei Kievshaidi",
  "id": "971892",
  "bbox": [
    69.273782,
    38.154957,
    69.273782,
    38.154957
  ],
  "description": "An ancient place, cited: BAtlas 99 D1 Tepei Kievshaidi",
  "names": [
    "Tepei Kievshaidi"
  ],
  "features": [
    {
      "type": "Feature",
      "geometry": {
        "type": "Point",
        "coordinates": [
          69.273782,
          38.154957
        ]
      },
      "properties": {
        "description": "representative point"
      }
    },
    {
      "geometry": {
        "type": "Point",
        "coordinates": [
          69.273782,
          38.154957
        ]
      },
      "id": "darmc-location-21689",
      "type": "Feature",
      "properties": {
        "description": "Representative point location digitized from the Barrington Atlas of the Greek and Roman World by the Digital Atlas of Roman and Medieval Civilizations project at Harvard University.",
        "location_precision": "precise",
        "title": "DARMC location 21689",
        "link": "http://pleiades.stoa.org/places/971892/darmc-location-21689"
      }
    }
  ]
}