{
  "type": "FeatureCollection",
  "title": "Tam'ali",
  "id": "971884",
  "bbox": [
    69.484081,
    37.044988,
    69.484081,
    37.044988
  ],
  "description": "An ancient place, cited: BAtlas 99 D2 Tam'ali",
  "names": [
    "Tam'ali"
  ],
  "features": [
    {
      "type": "Feature",
      "geometry": {
        "type": "Point",
        "coordinates": [
          69.484081,
          37.044988
        ]
      },
      "properties": {
        "description": "representative point"
      }
    },
    {
      "geometry": {
        "type": "Point",
        "coordinates": [
          69.484081,
          37.044988
        ]
      },
      "id": "darmc-location-21767",
      "type": "Feature",
      "properties": {
        "description": "Representative point location digitized from the Barrington Atlas of the Greek and Roman World by the Digital Atlas of Roman and Medieval Civilizations project at Harvard University.",
        "location_precision": "precise",
        "title": "DARMC location 21767",
        "link": "http://pleiades.stoa.org/places/971884/darmc-location-21767"
      }
    }
  ]
}