{
  "type": "FeatureCollection",
  "title": "Qunduz Bala Hisar",
  "id": "971848",
  "bbox": [
    68.883493,
    36.736467,
    68.883493,
    36.736467
  ],
  "description": "Qunduz Bala Hisar is the site of a fortified citadel in the Qunduz plain. The fortification is of oval shape, oriented on an East-West axis, with a high citadel at the eastern end.",
  "features": [
    {
      "type": "Feature",
      "geometry": {
        "type": "Point",
        "coordinates": [
          68.883493,
          36.736467
        ]
      },
      "properties": {
        "description": "representative point"
      }
    },
    {
      "geometry": {
        "type": "Point",
        "coordinates": [
          68.883493,
          36.736467
        ]
      },
      "id": "darmc-location-21719",
      "type": "Feature",
      "properties": {
        "description": "Representative point location digitized from the Barrington Atlas of the Greek and Roman World by the Digital Atlas of Roman and Medieval Civilizations project at Harvard University.",
        "location_precision": "precise",
        "title": "DARMC location 21719",
        "link": "http://pleiades.stoa.org/places/971848/darmc-location-21719"
      }
    }
  ]
}