{
  "type": "FeatureCollection",
  "title": "Tepe Zahidan",
  "id": "971890",
  "bbox": [
    67.215783,
    36.753554,
    67.215783,
    36.753554
  ],
  "description": "An ancient place, cited: BAtlas 99 B3 Tepe Zahidan",
  "names": [
    "Tepe Zahidan"
  ],
  "features": [
    {
      "type": "Feature",
      "geometry": {
        "type": "Point",
        "coordinates": [
          67.215783,
          36.753554
        ]
      },
      "properties": {
        "description": "representative point"
      }
    },
    {
      "geometry": {
        "type": "Point",
        "coordinates": [
          67.215783,
          36.753554
        ]
      },
      "id": "darmc-location-21749",
      "type": "Feature",
      "properties": {
        "description": "Representative point location digitized from the Barrington Atlas of the Greek and Roman World by the Digital Atlas of Roman and Medieval Civilizations project at Harvard University.",
        "location_precision": "precise",
        "title": "DARMC location 21749",
        "link": "http://pleiades.stoa.org/places/971890/darmc-location-21749"
      }
    }
  ]
}