{
  "type": "FeatureCollection",
  "title": "Saksanokhur",
  "id": "971857",
  "bbox": [
    69.341372,
    37.51464,
    69.341372,
    37.51464
  ],
  "description": "An ancient place, cited: BAtlas 99 D2 Saksanokhur",
  "features": [
    {
      "type": "Feature",
      "geometry": {
        "type": "Point",
        "coordinates": [
          69.341372,
          37.51464
        ]
      },
      "properties": {
        "description": "representative point"
      }
    },
    {
      "geometry": {
        "type": "Point",
        "coordinates": [
          69.341372,
          37.51464
        ]
      },
      "id": "darmc-location-21695",
      "type": "Feature",
      "properties": {
        "description": "Representative point location digitized from the Barrington Atlas of the Greek and Roman World by the Digital Atlas of Roman and Medieval Civilizations project at Harvard University.",
        "location_precision": "precise",
        "title": "DARMC location 21695",
        "link": "http://pleiades.stoa.org/places/971857/darmc-location-21695"
      }
    }
  ]
}