{
  "type": "FeatureCollection",
  "title": "Uzbekon tepe",
  "id": "971903",
  "bbox": [
    68.091011,
    38.47378,
    68.091011,
    38.47378
  ],
  "description": "An ancient place, cited: BAtlas 99 C1 Uzbekon tepe",
  "names": [
    "Uzbekon tepe"
  ],
  "features": [
    {
      "type": "Feature",
      "geometry": {
        "type": "Point",
        "coordinates": [
          68.091011,
          38.47378
        ]
      },
      "properties": {
        "description": "representative point"
      }
    },
    {
      "geometry": {
        "type": "Point",
        "coordinates": [
          68.091011,
          38.47378
        ]
      },
      "id": "darmc-location-21669",
      "type": "Feature",
      "properties": {
        "description": "Representative point location digitized from the Barrington Atlas of the Greek and Roman World by the Digital Atlas of Roman and Medieval Civilizations project at Harvard University.",
        "location_precision": "precise",
        "title": "DARMC location 21669",
        "link": "http://pleiades.stoa.org/places/971903/darmc-location-21669"
      }
    }
  ]
}