{
  "type": "FeatureCollection",
  "title": "Urta Boz",
  "id": "971900",
  "bbox": [
    69.462324,
    36.730455,
    69.462324,
    36.730455
  ],
  "description": "An ancient place, cited: BAtlas 99 D3 Urta Boz",
  "names": [
    "Urta Boz"
  ],
  "features": [
    {
      "type": "Feature",
      "geometry": {
        "type": "Point",
        "coordinates": [
          69.462324,
          36.730455
        ]
      },
      "properties": {
        "description": "representative point"
      }
    },
    {
      "geometry": {
        "type": "Point",
        "coordinates": [
          69.462324,
          36.730455
        ]
      },
      "id": "darmc-location-21733",
      "type": "Feature",
      "properties": {
        "description": "Representative point location digitized from the Barrington Atlas of the Greek and Roman World by the Digital Atlas of Roman and Medieval Civilizations project at Harvard University.",
        "location_precision": "precise",
        "title": "DARMC location 21733",
        "link": "http://pleiades.stoa.org/places/971900/darmc-location-21733"
      }
    }
  ]
}