{
  "type": "FeatureCollection",
  "title": "Aquitania (Roman province)",
  "id": "981505",
  "bbox": [
    -2.1706592,
    42.6976738,
    4.2765483,
    47.9036077
  ],
  "description": "A Roman province formed in 27 B.C. by Augustus. According to Strabo, it incorporated the territories of the Aquitani and 14 other peoples whose territories were located between the Garumna and Liger rivers.",
  "names": [
    "Gallia Aquitania",
    "Akouitania",
    "Aquitania"
  ],
  "features": [
    {
      "type": "Feature",
      "geometry": {
        "type": "Point",
        "coordinates": [
          0.433941646087,
          43.381022419
        ]
      },
      "properties": {
        "description": "representative point"
      }
    }
  ]
}