{
  "type": "FeatureCollection",
  "title": "Mausoleum of Pianura",
  "id": "984326806",
  "bbox": [
    14.1628428,
    40.8549855,
    14.162937,
    40.8550511
  ],
  "description": "A Roman mausoleum of two levels executed in opus vittatum.",
  "features": [
    {
      "type": "Feature",
      "geometry": {
        "type": "Point",
        "coordinates": [
          14.1628898757,
          40.8550182878
        ]
      },
      "properties": {
        "description": "representative point"
      }
    },
    {
      "geometry": {
        "type": "LineString",
        "coordinates": [
          [
            14.1628669,
            40.8550511
          ],
          [
            14.162937,
            40.8550286
          ],
          [
            14.1629128,
            40.8549855
          ],
          [
            14.1628428,
            40.8550079
          ],
          [
            14.1628669,
            40.8550511
          ]
        ]
      },
      "id": "osm-location-of-mausoleum-of-pianura",
      "type": "Feature",
      "properties": {
        "description": "Representative location based on OpenStreetMap",
        "location_precision": "precise",
        "title": "OSM location of Mausoleum of Pianura",
        "link": "http://pleiades.stoa.org/places/984326806/osm-location-of-mausoleum-of-pianura"
      }
    }
  ]
}