{
  "type": "FeatureCollection",
  "title": "So-called Area H in Berenike",
  "id": "989143587",
  "bbox": [
    20.0627353,
    32.1247775,
    20.0630153,
    32.1251464
  ],
  "description": "The ruins of a house of the early Roman period at the archaeological site of Sidi Khiribech, in Berenike. The house had a courtyard with a peristyle. Some of the internal walls were decorated with frescoes representing the Muses.",
  "connectsWith": [
    "373757"
  ],
  "names": [
    "Area H",
    "Casa H"
  ],
  "features": [
    {
      "type": "Feature",
      "geometry": {
        "type": "Point",
        "coordinates": [
          20.0628752765,
          32.1249619355
        ]
      },
      "properties": {
        "description": "representative point"
      }
    },
    {
      "geometry": {
        "type": "LineString",
        "coordinates": [
          [
            20.0627353,
            32.1251352
          ],
          [
            20.0629936,
            32.1251464
          ],
          [
            20.0630153,
            32.1247887
          ],
          [
            20.0627569,
            32.1247775
          ],
          [
            20.0627353,
            32.1251352
          ]
        ]
      },
      "id": "area-h-in-sidi-khiribech",
      "type": "Feature",
      "properties": {
        "description": "Representative OpenStreetMap location of the so-called \"Area H\", in the archaeological site of Sidi Khiribech, in Berenike (modern Benghazi).",
        "location_precision": "precise",
        "title": "OSM location of Area H in Sidi Khiribech (Berenike)",
        "link": "http://pleiades.stoa.org/places/989143587/area-h-in-sidi-khiribech"
      }
    }
  ]
}