{
  "type": "FeatureCollection",
  "title": "Beilen",
  "id": "98923",
  "bbox": [
    6.515702,
    52.857888,
    6.515702,
    52.857888
  ],
  "description": "An ancient place, cited: BAtlas 10 C4 Beilen",
  "features": [
    {
      "type": "Feature",
      "geometry": {
        "type": "Point",
        "coordinates": [
          6.515702,
          52.857888
        ]
      },
      "properties": {
        "description": "representative point"
      }
    },
    {
      "geometry": {
        "type": "Point",
        "coordinates": [
          6.515702,
          52.857888
        ]
      },
      "id": "darmc-location-11681",
      "type": "Feature",
      "properties": {
        "description": "1:1 million scale representative point location digitized from the Barrington Atlas of the Greek and Roman World by the Digital Atlas of Roman and Medieval Civilizations project at Harvard University.",
        "location_precision": "precise",
        "title": "DARMC location 11681",
        "link": "http://pleiades.stoa.org/places/98923/darmc-location-11681"
      }
    }
  ]
}