{
  "type": "FeatureCollection",
  "title": "Bordesholm",
  "id": "98926",
  "bbox": [
    10.036167,
    54.17339,
    10.036167,
    54.17339
  ],
  "description": "An ancient place, cited: BAtlas 10 G2 Bordesholm",
  "features": [
    {
      "type": "Feature",
      "geometry": {
        "type": "Point",
        "coordinates": [
          10.036167,
          54.17339
        ]
      },
      "properties": {
        "description": "representative point"
      }
    },
    {
      "geometry": {
        "type": "Point",
        "coordinates": [
          10.036167,
          54.17339
        ]
      },
      "id": "darmc-location-23658",
      "type": "Feature",
      "properties": {
        "description": "Representative point location digitized from the Barrington Atlas of the Greek and Roman World by the Digital Atlas of Roman and Medieval Civilizations project at Harvard University.",
        "location_precision": "precise",
        "title": "DARMC location 23658",
        "link": "http://pleiades.stoa.org/places/98926/darmc-location-23658"
      }
    }
  ]
}