{
  "type": "FeatureCollection",
  "title": "Castra Herculis?",
  "id": "98934",
  "bbox": [
    5.8734498,
    51.970833,
    5.8743962,
    51.9724956
  ],
  "description": "Castra Herculis? (modern Arnhem)",
  "connectsWith": [
    "100417",
    "981524",
    "113333"
  ],
  "names": [
    "Castra Herculis"
  ],
  "features": [
    {
      "type": "Feature",
      "geometry": {
        "type": "Point",
        "coordinates": [
          5.87376699915,
          51.9715180091
        ]
      },
      "properties": {
        "description": "representative point"
      }
    },
    {
      "geometry": {
        "type": "Point",
        "coordinates": [
          5.873611,
          51.970833
        ]
      },
      "id": "dare-location",
      "type": "Feature",
      "properties": {
        "description": "Representative point location, site precision",
        "location_precision": "precise",
        "title": "DARE Location",
        "link": "http://pleiades.stoa.org/places/98934/dare-location"
      }
    },
    {
      "geometry": {
        "type": "LineString",
        "coordinates": [
          [
            5.8734498,
            51.972148
          ],
          [
            5.8738435,
            51.9719104
          ],
          [
            5.8743962,
            51.9722581
          ],
          [
            5.8740025,
            51.9724956
          ],
          [
            5.8734498,
            51.972148
          ]
        ]
      },
      "id": "osm-location-of-roman-castellum-castra-herculis",
      "type": "Feature",
      "properties": {
        "description": "Representative location based on OpenStreetMap.",
        "location_precision": "precise",
        "title": "OSM location of Castellum Meinerswijk",
        "link": "http://pleiades.stoa.org/places/98934/osm-location-of-roman-castellum-castra-herculis"
      }
    }
  ]
}