{
  "type": "FeatureCollection",
  "title": "Carvo?",
  "id": "98933",
  "bbox": [
    5.5625,
    51.929722,
    5.57446,
    51.932899
  ],
  "description": "An ancient place, cited: BAtlas 10 B5 Carvo?",
  "connectsWith": [
    "981524"
  ],
  "names": [
    "Carvo"
  ],
  "features": [
    {
      "type": "Feature",
      "geometry": {
        "type": "Point",
        "coordinates": [
          5.56848,
          51.9313105
        ]
      },
      "properties": {
        "description": "representative point"
      }
    },
    {
      "geometry": {
        "type": "Point",
        "coordinates": [
          5.57446,
          51.932899
        ]
      },
      "id": "darmc-location-7524",
      "type": "Feature",
      "properties": {
        "description": "1:1 million scale representative point location digitized from the Barrington Atlas of the Greek and Roman World by the Digital Atlas of Roman and Medieval Civilizations project at Harvard University.",
        "location_precision": "precise",
        "title": "DARMC location 7524",
        "link": "http://pleiades.stoa.org/places/98933/darmc-location-7524"
      }
    },
    {
      "geometry": {
        "type": "Point",
        "coordinates": [
          5.5625,
          51.929722
        ]
      },
      "id": "dare-location",
      "type": "Feature",
      "properties": {
        "description": "Representative point location, site precision",
        "location_precision": "precise",
        "title": "DARE Location",
        "link": "http://pleiades.stoa.org/places/98933/dare-location"
      }
    }
  ]
}