{
  "type": "FeatureCollection",
  "title": "Tibradden Chambered Cairn",
  "id": "989429709",
  "bbox": [
    -6.2803588,
    53.2385902,
    -6.280272,
    53.2386418
  ],
  "description": "A prehistoric cairn located atop Tibradden Mountain.",
  "connectsWith": [
    "20487"
  ],
  "features": [
    {
      "type": "Feature",
      "geometry": {
        "type": "Point",
        "coordinates": [
          -6.2803154209,
          53.2386158908
        ]
      },
      "properties": {
        "description": "representative point"
      }
    },
    {
      "geometry": {
        "type": "LineString",
        "coordinates": [
          [
            -6.2802807,
            53.2386315
          ],
          [
            -6.2802906,
            53.2386372
          ],
          [
            -6.280303,
            53.2386408
          ],
          [
            -6.2803167,
            53.2386418
          ],
          [
            -6.2803302,
            53.2386403
          ],
          [
            -6.2803422,
            53.2386363
          ],
          [
            -6.2803516,
            53.2386303
          ],
          [
            -6.2803573,
            53.2386228
          ],
          [
            -6.2803588,
            53.2386146
          ],
          [
            -6.2803559,
            53.2386065
          ],
          [
            -6.280349,
            53.2385994
          ],
          [
            -6.2803378,
            53.2385936
          ],
          [
            -6.2803239,
            53.2385904
          ],
          [
            -6.280309,
            53.2385902
          ],
          [
            -6.2802948,
            53.238593
          ],
          [
            -6.2802831,
            53.2385985
          ],
          [
            -6.2802752,
            53.238606
          ],
          [
            -6.280272,
            53.2386147
          ],
          [
            -6.2802739,
            53.2386236
          ],
          [
            -6.2802807,
            53.2386315
          ]
        ]
      },
      "id": "osm-location-of-tibradden-chambered-cairn",
      "type": "Feature",
      "properties": {
        "description": "Representative location based on OpenStreetMap",
        "location_precision": "precise",
        "title": "OSM location of Tibradden Chambered Cairn",
        "link": "http://pleiades.stoa.org/places/989429709/osm-location-of-tibradden-chambered-cairn"
      }
    }
  ]
}