{
  "type": "FeatureCollection",
  "title": "Driel-Baarskamp",
  "id": "98946",
  "bbox": [
    5.814438,
    51.961027,
    5.814438,
    51.961027
  ],
  "description": "An ancient place, cited: BAtlas 10 B5 Driel-Baarskamp",
  "features": [
    {
      "type": "Feature",
      "geometry": {
        "type": "Point",
        "coordinates": [
          5.814438,
          51.961027
        ]
      },
      "properties": {
        "description": "representative point"
      }
    },
    {
      "geometry": {
        "type": "Point",
        "coordinates": [
          5.814438,
          51.961027
        ]
      },
      "id": "darmc-location-17684",
      "type": "Feature",
      "properties": {
        "description": "1:1 million scale representative point location digitized from the Barrington Atlas of the Greek and Roman World by the Digital Atlas of Roman and Medieval Civilizations project at Harvard University.",
        "location_precision": "precise",
        "title": "DARMC location 17684",
        "link": "http://pleiades.stoa.org/places/98946/darmc-location-17684"
      }
    }
  ]
}