{
  "type": "FeatureCollection",
  "title": "Den Burg",
  "id": "98945",
  "bbox": [
    4.795916,
    53.053821,
    4.795916,
    53.053821
  ],
  "description": "An ancient place, cited: BAtlas 10 A3 Den Burg",
  "features": [
    {
      "type": "Feature",
      "geometry": {
        "type": "Point",
        "coordinates": [
          4.795916,
          53.053821
        ]
      },
      "properties": {
        "description": "representative point"
      }
    },
    {
      "geometry": {
        "type": "Point",
        "coordinates": [
          4.795916,
          53.053821
        ]
      },
      "id": "darmc-location-12178",
      "type": "Feature",
      "properties": {
        "description": "1:1 million scale representative point location digitized from the Barrington Atlas of the Greek and Roman World by the Digital Atlas of Roman and Medieval Civilizations project at Harvard University.",
        "location_precision": "precise",
        "title": "DARMC location 12178",
        "link": "http://pleiades.stoa.org/places/98945/darmc-location-12178"
      }
    }
  ]
}