{
  "type": "FeatureCollection",
  "title": "Uragh Stone Circle",
  "id": "989429710",
  "bbox": [
    -9.6955324,
    51.8115717,
    -9.6955324,
    51.8115717
  ],
  "description": "A stone circle measuring 33 by 26 feet with 11 standing stones located near Gleninchaquin Park, Tuosist, County Kerry, Ireland.",
  "connectsWith": [
    "20487"
  ],
  "names": [
    "Uragh Stone Circle"
  ],
  "features": [
    {
      "type": "Feature",
      "geometry": {
        "type": "Point",
        "coordinates": [
          -9.6955324,
          51.8115717
        ]
      },
      "properties": {
        "description": "representative point"
      }
    },
    {
      "geometry": {
        "type": "LineString",
        "coordinates": [
          [
            -9.6954074,
            51.8115618
          ],
          [
            -9.6954173,
            51.8115743
          ],
          [
            -9.6954332,
            51.8115842
          ],
          [
            -9.6954535,
            51.8115904
          ],
          [
            -9.6954759,
            51.8115922
          ],
          [
            -9.695498,
            51.8115894
          ],
          [
            -9.6955175,
            51.8115824
          ],
          [
            -9.6955324,
            51.8115717
          ],
          [
            -9.6955408,
            51.8115586
          ],
          [
            -9.6955418,
            51.8115446
          ],
          [
            -9.6955354,
            51.8115311
          ],
          [
            -9.6955222,
            51.8115196
          ],
          [
            -9.6955037,
            51.8115114
          ],
          [
            -9.6954819,
            51.8115074
          ],
          [
            -9.6954592,
            51.811508
          ],
          [
            -9.695438,
            51.8115131
          ],
          [
            -9.6954208,
            51.8115222
          ],
          [
            -9.6954092,
            51.8115342
          ],
          [
            -9.6954046,
            51.8115479
          ],
          [
            -9.6954074,
            51.8115618
          ]
        ]
      },
      "id": "osm-location",
      "type": "Feature",
      "properties": {
        "description": "Representative location based on OpenStreetMap",
        "location_precision": "precise",
        "title": "OSM location of Uragh Stone Circle",
        "link": "http://pleiades.stoa.org/places/989429710/osm-location"
      }
    }
  ]
}