{
  "type": "FeatureCollection",
  "title": "Ejsbøl",
  "id": "98950",
  "bbox": [
    9.465407,
    55.25428,
    9.465407,
    55.25428
  ],
  "description": "An ancient place, cited: BAtlas 10 F1 Ejsbøl",
  "features": [
    {
      "type": "Feature",
      "geometry": {
        "type": "Point",
        "coordinates": [
          9.465407,
          55.25428
        ]
      },
      "properties": {
        "description": "representative point"
      }
    },
    {
      "geometry": {
        "type": "Point",
        "coordinates": [
          9.465407,
          55.25428
        ]
      },
      "id": "darmc-location-12309",
      "type": "Feature",
      "properties": {
        "description": "1:1 million scale representative point location digitized from the Barrington Atlas of the Greek and Roman World by the Digital Atlas of Roman and Medieval Civilizations project at Harvard University.",
        "location_precision": "precise",
        "title": "DARMC location 12309",
        "link": "http://pleiades.stoa.org/places/98950/darmc-location-12309"
      }
    }
  ]
}