{
  "type": "FeatureCollection",
  "title": "Feddersen Wierde",
  "id": "98957",
  "bbox": [
    8.54315,
    53.665868,
    8.54315,
    53.665868
  ],
  "description": "An ancient place, cited: BAtlas 10 E3 Feddersen Wierde",
  "features": [
    {
      "type": "Feature",
      "geometry": {
        "type": "Point",
        "coordinates": [
          8.54315,
          53.665868
        ]
      },
      "properties": {
        "description": "representative point"
      }
    },
    {
      "geometry": {
        "type": "Point",
        "coordinates": [
          8.54315,
          53.665868
        ]
      },
      "id": "darmc-location-12422",
      "type": "Feature",
      "properties": {
        "description": "1:1 million scale representative point location digitized from the Barrington Atlas of the Greek and Roman World by the Digital Atlas of Roman and Medieval Civilizations project at Harvard University.",
        "location_precision": "precise",
        "title": "DARMC location 12422",
        "link": "http://pleiades.stoa.org/places/98957/darmc-location-12422"
      }
    }
  ]
}