{
  "type": "FeatureCollection",
  "title": "Hagenow",
  "id": "98973",
  "bbox": [
    11.196395,
    53.427486,
    11.196395,
    53.427486
  ],
  "description": "An ancient place, cited: BAtlas 10 H3 Hagenow",
  "features": [
    {
      "type": "Feature",
      "geometry": {
        "type": "Point",
        "coordinates": [
          11.196395,
          53.427486
        ]
      },
      "properties": {
        "description": "representative point"
      }
    },
    {
      "geometry": {
        "type": "Point",
        "coordinates": [
          11.196395,
          53.427486
        ]
      },
      "id": "darmc-location-23641",
      "type": "Feature",
      "properties": {
        "description": "Representative point location digitized from the Barrington Atlas of the Greek and Roman World by the Digital Atlas of Roman and Medieval Civilizations project at Harvard University.",
        "location_precision": "precise",
        "title": "DARMC location 23641",
        "link": "http://pleiades.stoa.org/places/98973/darmc-location-23641"
      }
    }
  ]
}