{
  "type": "FeatureCollection",
  "title": "Rullstorf",
  "id": "99030",
  "bbox": [
    10.529762,
    53.286333,
    10.529762,
    53.286333
  ],
  "description": "An ancient place, cited: BAtlas 10 G3 Rullstorf",
  "features": [
    {
      "type": "Feature",
      "geometry": {
        "type": "Point",
        "coordinates": [
          10.529762,
          53.286333
        ]
      },
      "properties": {
        "description": "representative point"
      }
    },
    {
      "geometry": {
        "type": "Point",
        "coordinates": [
          10.529762,
          53.286333
        ]
      },
      "id": "darmc-location-14534",
      "type": "Feature",
      "properties": {
        "description": "1:1 million scale representative point location digitized from the Barrington Atlas of the Greek and Roman World by the Digital Atlas of Roman and Medieval Civilizations project at Harvard University.",
        "location_precision": "precise",
        "title": "DARMC location 14534",
        "link": "http://pleiades.stoa.org/places/99030/darmc-location-14534"
      }
    }
  ]
}