{
  "type": "FeatureCollection",
  "title": "Roman theater at Tlos",
  "id": "990568323",
  "bbox": [
    29.422654,
    36.5520082,
    29.422654,
    36.5520082
  ],
  "description": "The Roman theater at Tlos preserves 34 rows of seating.",
  "connectsWith": [
    "639147"
  ],
  "features": [
    {
      "type": "Feature",
      "geometry": {
        "type": "Point",
        "coordinates": [
          29.422654,
          36.5520082
        ]
      },
      "properties": {
        "description": "representative point"
      }
    },
    {
      "geometry": {
        "type": "LineString",
        "coordinates": [
          [
            29.4228958,
            36.5521309
          ],
          [
            29.4228265,
            36.5520748
          ],
          [
            29.4227298,
            36.5520215
          ],
          [
            29.4226267,
            36.5519849
          ],
          [
            29.4225028,
            36.5519638
          ],
          [
            29.4221935,
            36.5521325
          ],
          [
            29.4222988,
            36.55225
          ],
          [
            29.4221873,
            36.5523141
          ],
          [
            29.4224006,
            36.5525773
          ],
          [
            29.4225186,
            36.5525213
          ],
          [
            29.4226098,
            36.5526462
          ],
          [
            29.422927,
            36.5524873
          ],
          [
            29.4229531,
            36.5523877
          ],
          [
            29.4229531,
            36.5522972
          ],
          [
            29.4229317,
            36.5522045
          ],
          [
            29.4228958,
            36.5521309
          ]
        ]
      },
      "id": "location-of-theater",
      "type": "Feature",
      "properties": {
        "description": "Representative location based on OpenStreetMap.",
        "location_precision": "precise",
        "title": "OSM location of ancient theater",
        "link": "http://pleiades.stoa.org/places/990568323/location-of-theater"
      }
    }
  ]
}