{
  "type": "FeatureCollection",
  "title": "Wiebendorf",
  "id": "99064",
  "bbox": [
    10.821529,
    53.403543,
    10.821529,
    53.403543
  ],
  "description": "An ancient place, cited: BAtlas 10 G3 Wiebendorf",
  "features": [
    {
      "type": "Feature",
      "geometry": {
        "type": "Point",
        "coordinates": [
          10.821529,
          53.403543
        ]
      },
      "properties": {
        "description": "representative point"
      }
    },
    {
      "geometry": {
        "type": "Point",
        "coordinates": [
          10.821529,
          53.403543
        ]
      },
      "id": "darmc-location-23638",
      "type": "Feature",
      "properties": {
        "description": "Representative point location digitized from the Barrington Atlas of the Greek and Roman World by the Digital Atlas of Roman and Medieval Civilizations project at Harvard University.",
        "location_precision": "precise",
        "title": "DARMC location 23638",
        "link": "http://pleiades.stoa.org/places/99064/darmc-location-23638"
      }
    }
  ]
}