{
  "type": "FeatureCollection",
  "title": "Carthaginiensis",
  "id": "991327",
  "bbox": [
    -0.991387,
    37.599896,
    -0.98452,
    37.605678
  ],
  "description": "Carthaginiensis (also referred to as Hispania Carthaginiensis) is a province of the later Roman Empire. Diocletian fashioned it in 298 CE by reorganizing Hispania Tarraconensis.",
  "names": [
    "Carthaginiensis"
  ],
  "features": [
    {
      "type": "Feature",
      "geometry": {
        "type": "Point",
        "coordinates": [
          -0.9879535,
          37.602787
        ]
      },
      "properties": {
        "description": "representative point"
      }
    },
    {
      "geometry": {
        "type": "Polygon",
        "coordinates": [
          [
            [
              -5.0,
              35.0
            ],
            [
              -5.0,
              40.0
            ],
            [
              0.0,
              40.0
            ],
            [
              0.0,
              35.0
            ],
            [
              -5.0,
              35.0
            ]
          ]
        ]
      },
      "id": "batlas-location",
      "type": "Feature",
      "properties": {
        "description": null,
        "location_precision": "rough",
        "title": "Barrington Atlas location",
        "link": "http://pleiades.stoa.org/places/991327/batlas-location"
      }
    }
  ]
}