{
  "type": "FeatureCollection",
  "title": "Africa Proconsularis (late Roman province)",
  "id": "991341",
  "bbox": [
    9.106753,
    36.450148,
    9.106753,
    36.450148
  ],
  "description": "The late Roman province of Africa Proconsularis, within the Diocese of Africa.",
  "connectsWith": [
    "154459219"
  ],
  "names": [
    "Africa Proconsularis"
  ],
  "features": [
    {
      "type": "Feature",
      "geometry": {
        "type": "Point",
        "coordinates": [
          9.106753,
          36.450148
        ]
      },
      "properties": {
        "description": "representative point"
      }
    },
    {
      "geometry": {
        "type": "Polygon",
        "coordinates": [
          [
            [
              5.0,
              35.0
            ],
            [
              5.0,
              40.0
            ],
            [
              10.0,
              40.0
            ],
            [
              10.0,
              35.0
            ],
            [
              5.0,
              35.0
            ]
          ]
        ]
      },
      "id": "batlas-location",
      "type": "Feature",
      "properties": {
        "description": null,
        "location_precision": "rough",
        "title": "Barrington Atlas location",
        "link": "http://pleiades.stoa.org/places/991341/batlas-location"
      }
    }
  ]
}