{
  "type": "FeatureCollection",
  "title": "Mauretania Sitifensis",
  "id": "991334",
  "bbox": [
    5.057834,
    36.74021,
    5.058096,
    36.741492
  ],
  "description": "A late Roman province within the diocese of Africa. Mauretania Sitifensis was included on Map 101 of the Barrington Atlas (\"Dioceses and Provinces of the Roman Empire\") that follows the Verona List (ca. A.D. 303–324). Diocletian created the province and Constantine assigned it to the administrative Diocese of Africa. The Vandals conquered Mauretania Sitifensis and following the collapse of the Western Roman Empire, the province was ruled mainly by Berber kings until 578 CE.",
  "connectsWith": [
    "154459219"
  ],
  "names": [
    "Mauretania Sitifensis",
    "Mauretania Sitifensis"
  ],
  "features": [
    {
      "type": "Feature",
      "geometry": {
        "type": "Point",
        "coordinates": [
          5.057965,
          36.740851
        ]
      },
      "properties": {
        "description": "representative point"
      }
    },
    {
      "geometry": {
        "type": "Polygon",
        "coordinates": [
          [
            [
              0.0,
              30.0
            ],
            [
              0.0,
              35.0
            ],
            [
              5.0,
              35.0
            ],
            [
              5.0,
              30.0
            ],
            [
              0.0,
              30.0
            ]
          ]
        ]
      },
      "id": "batlas-location",
      "type": "Feature",
      "properties": {
        "description": null,
        "location_precision": "rough",
        "title": "Barrington Atlas location",
        "link": "http://pleiades.stoa.org/places/991334/batlas-location"
      }
    }
  ]
}